,x,y,id,address,category_group_code,category_group_name,category_name,place_name,road_address_name
0,126.91976584375472,37.55008537544703,26235884,서울 마포구 서교동 395-78,CE7,카페,음식점 > 카페,피오니 홍대점,서울 마포구 독막로7길 51
1,126.92268836144711,37.54732125984626,26485620,서울 마포구 상수동 328-2,CE7,카페,음식점 > 카페 > 커피전문점,오츠커피 마포점,서울 마포구 독막로14길 32
2,126.92080390282436,37.55297827989159,53292857,서울 마포구 서교동 369-1,CE7,카페,음식점 > 카페,943킹스크로스,서울 마포구 양화로16길 24
3,126.927602272249,37.5538674238312,27248379,서울 마포구 서교동 338-1,CE7,카페,음식점 > 카페 > 커피전문점,테일러커피 서교점,서울 마포구 와우산로27길 7
4,126.923759261108,37.5535983096117,10368349,서울 마포구 서교동 486,CE7,카페,음식점 > 카페,땡스네이쳐,서울 마포구 홍익로 10
5,126.92041181434162,37.54921184425959,26966842,서울 마포구 서교동 403-13,CE7,카페,음식점 > 카페 > 테마카페,콜린,서울 마포구 어울마당로 45
6,126.927969400298,37.5533955255519,26966117,서울 마포구 창전동 6-131,CE7,카페,음식점 > 카페,버터밀크,서울 마포구 와우산로 130
7,126.91718810093374,37.54789416964925,447132083,서울 마포구 합정동 363-28,CE7,카페,음식점 > 카페,어반플랜트 합정,서울 마포구 독막로4길 3
8,126.928688328087,37.5542717317149,1960387368,서울 마포구 서교동 337-10,CE7,카페,음식점 > 카페,톤앤매너,서울 마포구 와우산로29가길 13
9,126.92297729542535,37.55245713888671,1780755840,서울 마포구 서교동 358-37,CE7,카페,음식점 > 카페 > 테마카페,미어캣프랜즈,서울 마포구 와우산로21길 20
10,126.923100991167,37.5466169482794,27194461,서울 마포구 상수동 330-12,CE7,카페,음식점 > 카페 > 다방,제비다방,서울 마포구 와우산로 24
11,126.91996476006,37.5503233739729,24532689,서울 마포구 서교동 395-199,CE7,카페,음식점 > 카페,허밍벨라,서울 마포구 독막로7길 57
12,126.92244916458264,37.54882577058748,1494667205,서울 마포구 상수동 93-111,CE7,카페,음식점 > 카페,스탠스커피,서울 마포구 와우산로11길 9
13,126.9219745614352,37.55142754085362,1546782043,서울 마포구 서교동 364-14,CE7,카페,음식점 > 카페,산리오러버스클럽,서울 마포구 와우산로19길 18
14,126.92649844260332,37.5577446346546,1789749349,서울 마포구 동교동 192-45,CE7,카페,음식점 > 카페,무신사테라스,서울 마포구 양화로 188
15,126.922525282682,37.5518171346304,1604855298,서울 마포구 서교동 364-4,CE7,카페,음식점 > 카페 > 테마카페,ESC방탈출카페 홍대점,서울 마포구 와우산로21길 19-16
16,126.918435148767,37.5458137305902,12518512,서울 마포구 합정동 357-6,CE7,카페,음식점 > 카페 > 커피전문점,앤트러사이트 합정점,서울 마포구 토정로5길 10
17,126.923256037934,37.5499110997905,10361948,서울 마포구 상수동 86-37,CE7,카페,음식점 > 카페 > 테마카페 > 디저트카페,르쁘띠푸 홍대본점,서울 마포구 와우산로 62
18,126.922395768091,37.5501195691292,1351400084,서울 마포구 서교동 410-9,CE7,카페,음식점 > 카페 > 테마카페,서울이스케이프룸 홍대2호점,서울 마포구 와우산로17길 11
19,126.920600860929,37.5480857234544,14565564,서울 마포구 상수동 317-11,CE7,카페,음식점 > 카페 > 테마카페 > 디저트카페,달콤한거짓말,서울 마포구 독막로 61-4
20,126.922746421907,37.5524659980373,12532489,서울 마포구 서교동 358-124,CE7,카페,음식점 > 카페 > 테마카페 > 사주카페,재미난조각가 홍대점,서울 마포구 와우산로21길 24
21,126.921243241376,37.552749720304,36768345,서울 마포구 서교동 369-42,CE7,카페,음식점 > 카페,카페 지금여기,서울 마포구 양화로16길 30-5
22,126.919931450613,37.551840632165,7871776,서울 마포구 서교동 368-7,CE7,카페,음식점 > 카페 > 테마카페,멜로우,서울 마포구 잔다리로 30-11
23,126.922674396046,37.5520767197903,1228594008,서울 마포구 서교동 364-2,CE7,카페,음식점 > 카페 > 테마카페 > 고양이카페,집사의하루 홍대점,서울 마포구 와우산로21길 19-8
24,126.922843593932,37.5504189940142,678802397,서울 마포구 서교동 407-2,CE7,카페,음식점 > 카페 > 테마카페,싸인이스케이프 홍대점,서울 마포구 와우산로 65
25,126.922881704192,37.5573639089622,23634722,서울 마포구 동교동 158-24,CE7,카페,음식점 > 카페 > 테마카페 > 북카페,1984,서울 마포구 동교로 194
26,126.927360618428,37.5556512505867,432440843,서울 마포구 서교동 333-6,CE7,카페,음식점 > 카페 > 테마카페 > 디저트카페,라헬의부엌 홍대점,서울 마포구 와우산로29길 47
27,126.9206677985963,37.55219432038735,27515050,서울 마포구 서교동 366-28,CE7,카페,음식점 > 카페 > 테마카페 > 디저트카페,민트하임,서울 마포구 잔다리로6길 28
28,126.92186632426,37.5499570402914,923108798,서울 마포구 서교동 409-18,CE7,카페,음식점 > 카페 > 테마카페 > 애견카페,겨울이머무는집,서울 마포구 와우산로17길 19-5
29,126.91948566716717,37.54964549757982,727312827,서울 마포구 서교동 398-1,CE7,카페,음식점 > 카페 > 테마카페,미스터리룸이스케이프 홍대2호점,서울 마포구 독막로7길 41
30,126.92092131806324,37.548959907027175,831205434,서울 마포구 서교동 408-27,CE7,카페,음식점 > 카페 > 테마카페 > 애견카페,더귀여워,서울 마포구 어울마당로 44-1
31,126.92711760256184,37.55417346486832,27369058,서울 마포구 서교동 339-5,CE7,카페,음식점 > 카페 > 테마카페,리얼이스케이프챌린지,서울 마포구 와우산로27길 21
32,126.916218106637,37.5490810013621,71785169,서울 마포구 서교동 394-16,CE7,카페,음식점 > 카페,키쉬미뇽,서울 마포구 양화로6길 35
33,126.926889731852,37.5557374557051,15612278,서울 마포구 서교동 333-30,CE7,카페,음식점 > 카페,카페장쌤,서울 마포구 와우산로29마길 5
34,126.9208744525849,37.55047355277373,10304651,서울 마포구 서교동 405-15,CE7,카페,음식점 > 카페,델문도,서울 마포구 잔다리로 19-6
35,126.922159927225,37.5505591010195,27311809,서울 마포구 서교동 407-26,CE7,카페,음식점 > 카페 > 테마카페,반지대학 홍대본점,서울 마포구 잔다리로 7
36,126.922866943851,37.5497234386161,11263998,서울 마포구 상수동 86-53,CE7,카페,음식점 > 카페 > 테마카페 > 디저트카페,스노브,서울 마포구 와우산로 59
37,126.92266929214244,37.552635335148885,1772415237,서울 마포구 서교동 358-123,CE7,카페,음식점 > 카페 > 테마카페,엑스이스케이프 홍대놀이터점,서울 마포구 와우산로21길 20-5
38,126.923488046863,37.5509978541843,1772808576,서울 마포구 서교동 361-16,CE7,카페,음식점 > 카페 > 테마카페,비트포비아 던전101,서울 마포구 와우산로 74
39,126.926735162857,37.5564040979403,1737597646,서울 마포구 서교동 330-19,CE7,카페,음식점 > 카페,앤디스커피,서울 마포구 와우산로35길 75
40,126.92255854314176,37.55248389492183,7940799,서울 마포구 서교동 358-125,CE7,카페,음식점 > 카페 > 테마카페 > 디저트카페,쇼콜라윰,서울 마포구 와우산로21길 26
41,126.92702597608,37.555290645256,1933012298,서울 마포구 서교동 333-10,CE7,카페,음식점 > 카페,카페333,서울 마포구 와우산로29라길 12
42,126.92191959031598,37.55747500027613,15985522,서울 마포구 동교동 201-10,CE7,카페,음식점 > 카페 > 커피전문점,이미커피,서울 마포구 동교로25길 7
43,126.92328058235611,37.55025439607592,17127074,서울 마포구 상수동 86-22,CE7,카페,음식점 > 카페 > 커피전문점 > 스타벅스,스타벅스 홍대삼거리점,서울 마포구 와우산로 64
44,126.92484635985,37.5529394761745,451924760,서울 마포구 서교동 338-48,CE7,카페,음식점 > 카페 > 테마카페,브레이크아웃이스케이프 홍대점,서울 마포구 와우산로 102
45,126.923403025643,37.5522465823191,1169646621,서울 마포구 서교동 359,,,여행 > 공원,홍익문화공원,서울 마포구 와우산로21길 19-3
46,126.923162473573,37.5572739922994,14093975,서울 마포구 동교동 158-2,,,"문화,예술 > 문화시설",청년문화공간JU 동교동,서울 마포구 월드컵북로2길 49
47,126.91969309483204,37.544057644711,1500934361,서울 마포구 당인동 1,,,여행 > 공원 > 도시근린공원,마포새빛문화숲,서울 마포구 토정로 56
48,126.920322976972,37.545494263888,15864184,서울 마포구 당인동 28-9,FD6,음식점,음식점 > 술집 > 와인바,그문화다방,서울 마포구 와우산로3길 49
49,126.93188111629814,37.54283994546329,11085386,서울 마포구 신정동 76-1,,,여행 > 공원 > 도시근린공원,밤섬문화공원,
50,126.936891898439,37.5532096199948,8133437,서울 마포구 노고산동 107-111,,,"교육,학문 > 문화센터",한겨레교육문화센터,서울 마포구 백범로 18
51,126.916460496699,37.5509120015027,1196712831,서울 마포구 서교동 494,,,"교육,학문 > 문화센터",서울생활문화센터 서교,서울 마포구 양화로 72
52,126.935607757607,37.5567624610797,10855440,서울 서대문구 창천동,,,여행 > 공원 > 도시근린공원,창천문화공원,
53,126.927413550432,37.5570856708675,761034571,서울 마포구 동교동 190-66,,,"문화,예술 > 문화예술단체",마포출판문화진흥센터 PLATFORM P,서울 마포구 신촌로2길 19
54,126.919426133845,37.5544892218481,27014849,서울 마포구 서교동 352-26,,,부동산 > 빌딩,인쇄문화회관,서울 마포구 양화로15길 12
55,126.9312805524434,37.54622735428695,10519548,서울 마포구 창전동 148-3,,,부동산 > 주거시설 > 아파트,서강문화아파트,서울 마포구 서강로 36
56,126.925989068772,37.555535071157,26859406,서울 마포구 서교동 332-15,CE7,카페,음식점 > 카페 > 테마카페 > 북카페,청춘문화싸롱,서울 마포구 와우산로29바길 19
57,126.929792902164,37.5542507697218,1324177785,서울 마포구 창전동 5-91,CE7,카페,음식점 > 카페,복합문화공간야시시,서울 마포구 와우산로 148-1
58,126.91646501732056,37.5509174106895,452342282,서울 마포구 서교동 494,CT1,문화시설,"문화,예술 > 문화시설 > 공연장,연극극장",서울생활문화센터 서교스퀘어,서울 마포구 양화로 72
59,126.919762382021,37.5533145498879,23907812,서울 마포구 서교동 371-10,,,"교육,학문 > 문화센터",규수당 문화센터,서울 마포구 양화로 112
60,126.918767376527,37.5483223399648,14941277,서울 마포구 합정동 410-11,AG2,중개업소,부동산 > 부동산서비스 > 부동산중개업소,문화공인중개사사무소,서울 마포구 양화로6길 84
61,126.937729361752,37.5532028566454,13603045,서울 마포구 노고산동 31-162,,,"서비스,산업 > 전문대행 > 공간대여 > 모임공간",모임문화공간 위지안,서울 마포구 고산길 6
62,126.91947135215,37.5545361045696,9452993,서울 마포구 서교동 352-26,,,"사회,공공기관 > 단체,협회",대한인쇄문화협회,서울 마포구 양화로15길 12
63,126.918090491978,37.5588202974878,9001333,서울 마포구 연남동 487-391,,,"서비스,산업 > 건설,건축 > 시공업체 > 유리,창호시공",문화유리,서울 마포구 월드컵북로8길 3
64,126.916480298721,37.5534492255874,462745429,서울 마포구 서교동 377-8,,,"교육,학문 > 교육단체",청소년통일문화,서울 마포구 월드컵로8길 72-5
65,126.929175195088,37.5552252801915,1314618932,서울 마포구 서교동 327-21,CE7,카페,음식점 > 카페,포인핸드 입양문화센터,서울 마포구 와우산로29길 14-10
66,126.920121664971,37.5453914140004,1409846394,서울 마포구 당인동 27-9,,,여행 > 공원,당인동문화공원,
67,126.93975580597542,37.557953966765695,1694875377,서울 서대문구 창천동 4-113,,,"문화,예술 > 문화시설",신촌문화발전소,서울 서대문구 연세로2나길 57
68,126.916415602427,37.5505786004288,315435477,서울 마포구 서교동 494,PK6,주차장,"교통,수송 > 교통시설 > 주차장",서울생활문화센터 서교 주차장,
69,126.92780318606744,37.55910954914513,846918043,서울 서대문구 창천동 377,CE7,카페,음식점 > 카페 > 커피전문점,바람커피문화상점,서울 서대문구 연희로2길 62
70,126.928521447201,37.5583693666635,12990247,서울 서대문구 창천동 506-20,HP8,병원,"의료,건강 > 병원 > 치과",재단법인화강문화재단 서울이웃린치과의원,서울 서대문구 신촌로 13
71,126.922759521945,37.5485448624904,21910095,서울 마포구 상수동 145-1,,,"서비스,산업 > 전문대행 > 이벤트기획,대행",해오름문화컨텐츠,서울 마포구 와우산로 45
72,126.917812299545,37.5565531955574,1868478811,서울 마포구 서교동 448-14,,,"문화,예술 > 문화시설",문화본부CAB,서울 마포구 월드컵북로5가길 8-15
73,126.935105165622,37.5568703055865,693416974,서울 서대문구 창천동 57-18,,,"가정,생활 > 화장실",창천문화공원 화장실,서울 서대문구 연세로5나길 19
74,126.918516844744,37.5539263753425,15699358,서울 마포구 서교동 375-25,,,"문화,예술 > 공연,연극",공연문화발전소,서울 마포구 양화로15안길 19
75,126.916691242644,37.5449133161804,310624203,서울 마포구 합정동 55-1,,,"가정,생활 > 화장실",마포새빛문화숲 주차장 개방화장실,서울 마포구 토정로 56
76,126.919913832703,37.5556139985004,26932990,서울 마포구 서교동 351-24,,,"교육,학문 > 문화센터",희망나눔문화센터,서울 마포구 동교로 162
77,126.924463469591,37.5555557289527,27355787,서울 마포구 서교동 346-18,,,"사회,공공기관 > 단체,협회 > 사회복지단체",한음문화재단,서울 마포구 홍익로2길 27-22
78,126.920295807493,37.5455050575395,20549764,서울 마포구 당인동 28-9,,,"문화,예술 > 미술,공예 > 화랑",그문화갤러리,서울 마포구 와우산로3길 49
79,126.92253051578524,37.55769434499982,1815368142,서울 마포구 동교동 200-29,,,"가정,생활 > 통신판매 > 인터넷쇼핑몰",시도문화,서울 마포구 동교로 193
80,126.91667075373022,37.55315383289741,25073566,서울 마포구 서교동 377-20,CT1,문화시설,"문화,예술 > 문화시설 > 문화원",(주)복합문화공간사이,서울 마포구 잔다리로7길 18
81,126.92344886429528,37.55611369387584,18785590,서울 마포구 동교동 165-8,,,"문화,예술 > 도서 > 출판사",국제문화교류센터,서울 마포구 양화로 156
82,126.91765015204548,37.54757553929082,2076214525,서울 마포구 합정동 362-8,,,"문화,예술 > 영화,영상",한맥문화,서울 마포구 독막로6길 9
83,126.914708973508,37.5546264642229,26506391,서울 마포구 서교동 481-2,,,"사회,공공기관 > 단체,협회",어린이문화연대,서울 마포구 동교로 114
84,126.93597667167738,37.554160580925775,213910567,서울 마포구 노고산동 106-82,,,"사회,공공기관 > 단체,협회",퀴어문화축제 사무국,서울 마포구 서강로 138
85,126.937760171147,37.5542588422761,27515327,서울 마포구 노고산동 31-34,,,"교육,학문 > 문화센터",새롬문화센터,서울 마포구 백범로1길 10
86,126.919032362121,37.5502434504549,22251609,서울 마포구 서교동 395-73,,,"교육,학문 > 교육단체 > 학교법인,재단",사단법인문화문,서울 마포구 양화로10길 49
87,126.935296942675,37.5444979032137,114844492,서울 마포구 신수동 448-6,,,"사회,공공기관 > 단체,협회",한국출판문화산업진흥원 오디오북센터,서울 마포구 토정로 222
88,126.925427849923,37.5576844975211,1726081531,서울 마포구 동교동 167-24,,,"사회,공공기관 > 단체,협회 > 사회복지시설 > 장애인복지시설",발달장애인 문화창작소,서울 마포구 양화로 178-5
89,126.92242601431212,37.560243196595216,1085407090,서울 마포구 연남동 567-28,,,"언론,미디어 > 신문",널위한문화예술,서울 마포구 월드컵북로6길 83
90,126.923580878826,37.5553965854703,17169006,서울 마포구 서교동 348-78,AT4,관광명소,"여행 > 관광,명소 > 테마거리",홍대패션거리,
91,126.92952855247,37.5561535189751,104964874,서울 마포구 동교동 190-1,AT4,관광명소,"여행 > 관광,명소 > 테마거리",경의선책거리,서울 마포구 와우산로35길 50-4
92,126.923065231913,37.5505813183069,23120302,서울 마포구 서교동 361-12,AT4,관광명소,"여행 > 관광,명소 > 테마거리",홍대클럽거리,서울 마포구 와우산로 70
93,126.924263894094,37.5559412279911,8177904,서울 마포구 서교동 348-40,AT4,관광명소,"여행 > 관광,명소 > 테마거리",홍대앞걷고싶은거리,
94,126.92857794246042,37.55135243190681,25325255,서울 마포구 창전동 3-243,AT4,관광명소,"여행 > 관광,명소 > 산",와우산,서울 마포구 와우산로30길 87
95,126.92141147348,37.5520434500484,11583205,서울 마포구 서교동,AT4,관광명소,"여행 > 관광,명소 > 테마거리",홍대예술의거리,
96,126.924201253317,37.5507442326996,27055301,서울 마포구 상수동 88-23,AT4,관광명소,"여행 > 관광,명소 > 테마거리",홍대벽화거리,
97,126.921762998265,37.553535735904,530818465,서울 마포구 서교동 357-1,AT4,관광명소,"여행 > 관광,명소 > 테마파크",아이스뮤지엄,서울 마포구 홍익로3길 20
98,126.921348949577,37.5512343122068,1634364045,서울 마포구 서교동 365-28,AT4,관광명소,"여행 > 관광,명소 > 테마거리",홍대축제거리,
99,126.928544343855,37.5486133767492,8236081,서울 마포구 창전동 446-5,,,"여행 > 관광,명소 > 문화유적 > 사당,제단",공민왕사당,
100,126.923168173207,37.547312563033,26537684,서울 마포구 상수동 329-6,AT4,관광명소,"여행 > 관광,명소 > 도자기,도예촌",빚다도예공방 홍대점,서울 마포구 와우산로 32
101,126.91783914759164,37.54859199728843,510096119,서울 마포구 서교동 415,,,"여행 > 관광,명소 > 도보여행 > 밤을걷는밤",밤을 걷는 밤 16화(합정동),
102,126.9317028287,37.5546987847474,799401130,서울 마포구 동교동 190-1,AT4,관광명소,"여행 > 관광,명소 > 테마거리",홍대땡땡거리,서울 마포구 와우산로35길 50-4
103,126.920688372438,37.5466622043895,7814471,서울 마포구 당인동 15-3,,,"여행 > 관광,명소 > 문화유적 > 사당,제단",당인동부군당,서울 마포구 독막로12안길 25-20
104,126.924263105627,37.5522471371287,27454924,서울 마포구 상수동 72-1,,,"여행 > 관광,명소",피카소거리,서울 마포구 와우산로 94
105,126.93667142222,37.5569792757261,1846396457,서울 서대문구 창천동,,,"여행 > 관광,명소 > 광장",스타광장,
106,126.92871077812,37.5497126954282,8084769,서울 마포구 창전동 437-3,,,"여행 > 관광,명소 > 문화유적 > 사당,제단",창전동부군당,
107,126.92837334498412,37.55228934591111,26563572,서울 마포구 창전동,AT4,관광명소,"여행 > 관광,명소 > 도보여행",홍대예술의거리 나들길,
108,126.9260152683588,37.55650816472822,18466620,서울 마포구 서교동 348-29,,,"여행 > 관광,명소 > 관광안내소",마포관광정보센터,서울 마포구 어울마당로 145-3
109,126.9267794030394,37.55745649014531,1577869384,서울 마포구 동교동 190-66,AT4,관광명소,"여행 > 관광,명소 > 도보여행",서울명예도로 노벨길(경의선숲길 홍대입구역방면),서울 마포구 양화로 지하 188
110,126.914920929701,37.555336603138,12776620,서울 마포구 서교동 467-5,,,"여행 > 관광,명소 > 문화유적 > 생가,고택",최규하대통령가옥,서울 마포구 동교로15길 10
111,126.9260152683588,37.55650816472822,26327772,서울 마포구 서교동 348-29,,,"여행 > 관광,명소 > 관광안내소",관광경찰대 홍대센터,서울 마포구 어울마당로 145-3
112,126.921956006959,37.5507716019794,27454873,서울 마포구 서교동,,,"여행 > 관광,명소",피카소거리,
113,126.939115681116,37.5573914161758,12576867,서울 서대문구 창천동,AT4,관광명소,"여행 > 관광,명소 > 테마거리 > 먹자골목",신촌이대거리,
114,126.936901786879,37.5575884731824,7998456,서울 서대문구 창천동,AT4,관광명소,"여행 > 관광,명소 > 테마거리",연세로,
115,126.905914457472,37.5536575185624,1852962598,서울 마포구 망원동,AT4,관광명소,"여행 > 관광,명소 > 테마거리",망리단길,
116,126.936950881804,37.5557360489237,2011201584,서울 서대문구 창천동 30-16,AT4,관광명소,"여행 > 관광,명소 > 테마거리",신촌피아노거리,
117,126.929481783591,37.5433304826647,27416350,서울 마포구 신정동 145-3,,,"여행 > 관광,명소 > 하천",봉원천,
118,126.938744797594,37.5514518477117,17568509,서울 마포구 신수동 1-1,,,"여행 > 관광,명소 > 문화유적 > 탑,비석",서강대학교 알바트로스탑,서울 마포구 백범로 35
119,126.91493215270192,37.53351080966769,8003939,서울 영등포구 여의도동,AT4,관광명소,"여행 > 관광,명소 > 테마거리",여의서로,
120,126.912838265023,37.5439140300625,8693450,서울 마포구 합정동,,,"여행 > 관광,명소 > 동상",절두산순교성지 김대건동상,
121,126.928499256831,37.5484268427621,768897294,서울 마포구 창전동 445,,,"여행 > 관광,명소 > 문화유적",광흥창터,
122,126.9146034960712,37.56176768992774,1981921968,서울 마포구 성산동 산 11-61,,,"여행 > 관광,명소 > 샘터,약수터",성미약수터,
123,126.9309237525547,37.53801904053744,8319957,서울 영등포구 여의도동 84-3,AT4,관광명소,"여행 > 관광,명소 > 섬 > 섬(내륙)",밤섬,
124,126.9269286303554,37.5576259700548,1000191912,서울 마포구 동교동 172-6,AT4,관광명소,"여행 > 관광,명소 > 도보여행",서울명예도로 노벨길(경의선숲길 연남동방면),서울 마포구 양화로 188
125,126.925010553188,37.5449351104202,570955235,서울 마포구 상수동 354-23,,,"여행 > 관광,명소 > 문화유적",서강나루터,서울 마포구 토정로 126
126,126.911842213989,37.5441511544152,8422116,서울 마포구 합정동 96-1,,,"여행 > 관광,명소 > 종교유적지",서울 양화나루와 잠두봉 유적,서울 마포구 토정로 6
127,126.912718432086,37.5612851793166,7942585,서울 마포구 성산동,AT4,관광명소,"여행 > 관광,명소 > 산",성산,
128,126.937061666025,37.5612682298358,27179189,서울 서대문구 신촌동 134,AT4,관광명소,"여행 > 관광,명소 > 테마거리",연세대학교 백양로,서울 서대문구 연세로 50
129,126.92883750358,37.5306836561511,26974731,서울 영등포구 여의도동 84-9,,,"여행 > 관광,명소",여의도물빛광장,
130,126.932854207846,37.5428792457638,811018921,서울 마포구 현석동 220,,,"여행 > 관광,명소 > 문화유적",박세채정승살던곳,서울 마포구 신수로3길 23
131,126.93716175812835,37.5606826353218,8501331,서울 서대문구 신촌동 134,,,"여행 > 관광,명소 > 문화유적",연희궁터 서잠실터,서울 서대문구 연세로 50
132,126.909392959661,37.5483479547094,10872836,서울 마포구 합정동,,,"여행 > 관광,명소 > 동상",포은정몽주선생상,
133,126.926153451216,37.5678644101147,26169961,서울 서대문구 연희동 100-1,,,"여행 > 관광,명소 > 문화유적 > 탑,비석",104고지전적비,서울 서대문구 성산로13길 35-1
134,126.928765948161,37.5393043866851,26988436,서울 영등포구 여의도동 84-3,,,"여행 > 관광,명소 > 생태보존,서식지",한강밤섬 생태경관보전지역,
135,126.923273826605,37.5502210547517,1591202287,서울 마포구 상수동 86-22,FD6,음식점,음식점 > 양식 > 이탈리안,진짜파스타,서울 마포구 와우산로 64
136,126.922723389993,37.5528516100497,892514586,서울 마포구 서교동 358-121,FD6,음식점,"음식점 > 양식 > 멕시칸,브라질",감성타코 홍대점,서울 마포구 와우산로21길 20-11
137,126.92070482118596,37.54822634908483,1737612851,서울 마포구 상수동 317-2,FD6,음식점,음식점 > 양식 > 햄버거,테이스티버거,서울 마포구 독막로 67-11
138,126.92267501638554,37.54928542789264,2057792795,서울 마포구 상수동 91-3,FD6,음식점,음식점 > 일식 > 일본식라면,칸다소바 홍대점,서울 마포구 와우산로 51-6
139,126.922172337916,37.5516835548182,400281849,서울 마포구 서교동 364-10,FD6,음식점,음식점 > 철판요리,우와 홍대본점,서울 마포구 와우산로21길 21-16
140,126.92150590347114,37.55264537945837,1985225055,서울 마포구 서교동 369-4,FD6,음식점,음식점 > 한식,조선시대,서울 마포구 홍익로3길 44
141,126.922634627821,37.5511360518077,27253757,서울 마포구 서교동 363-24,FD6,음식점,"음식점 > 일식 > 초밥,롤",여우골 홍대점,서울 마포구 와우산로19길 9
142,126.9223637900431,37.552582876796265,12771116,서울 마포구 서교동 358-39,FD6,음식점,"음식점 > 일식 > 돈까스,우동",카미야,서울 마포구 와우산로21길 28-6
143,126.920850347282,37.5475849357353,19032013,서울 마포구 상수동 321-1,FD6,음식점,음식점 > 중식 > 중국요리,맛이차이나,서울 마포구 독막로 68
144,126.922465412458,37.5528045890423,895272833,서울 마포구 서교동 358-42,FD6,음식점,음식점 > 분식 > 떡볶이,또보겠지떡볶이집 깐따삐아점,서울 마포구 와우산로21길 28-12
145,126.920998156993,37.5490662762738,90725902,서울 마포구 서교동 408-26,FD6,음식점,"음식점 > 일식 > 돈까스,우동",정돈,서울 마포구 어울마당로 46
146,126.922107756343,37.5528439975489,1736742094,서울 마포구 서교동 358-51,FD6,음식점,음식점 > 양식,마녀주방 홍대점,서울 마포구 와우산로21길 36-10
147,126.924618957329,37.5539953005742,27272711,서울 마포구 서교동 342-16,FD6,음식점,음식점 > 양식,비스트로주라,서울 마포구 와우산로23길 18-7
148,126.92056917003,37.5523564337032,18257217,서울 마포구 서교동 369-10,FD6,음식점,음식점 > 한식,강강술래 홍대점,서울 마포구 잔다리로6길 25
149,126.923703730493,37.5547839866237,8123221,서울 마포구 서교동 346-47,FD6,음식점,음식점 > 양식 > 이탈리안,프리모바치오바치 홍대본점,서울 마포구 와우산로23길 44
150,126.92379574116,37.5488915191848,21410206,서울 마포구 상수동 93-28,FD6,음식점,음식점 > 일식 > 일본식라면,하카타분코,서울 마포구 독막로19길 43
151,126.921174752938,37.5490087303967,833037714,서울 마포구 서교동 408-25,FD6,음식점,음식점 > 양식 > 이탈리안,비스트로사랑방,서울 마포구 와우산로15길 40
152,126.925171531217,37.5536965208231,23734945,서울 마포구 서교동 343-13,FD6,음식점,음식점 > 일식 > 일본식라면,지로우라멘,서울 마포구 와우산로29가길 79
153,126.922481579553,37.5503070331279,1080030680,서울 마포구 서교동 407-6,FD6,음식점,음식점 > 술집 > 일본식주점,공감 홍대2호점,서울 마포구 와우산로17길 10
154,126.920594912252,37.5494264051392,16472628,서울 마포구 서교동 403-16,FD6,음식점,"음식점 > 한식 > 육류,고기 > 불고기,두루치기",산더미불고기,서울 마포구 어울마당로 47
155,126.92280227503409,37.54659152540154,1753129148,서울 마포구 상수동 327-7,FD6,음식점,"음식점 > 한식 > 육류,고기",냉장고,서울 마포구 와우산로 23
156,126.919251175395,37.548820022953,26417392,서울 마포구 서교동 401-5,FD6,음식점,음식점 > 술집 > 일본식주점,개화기요정,서울 마포구 독막로7길 22
157,126.93054626122678,37.55464224823846,2036183426,서울 마포구 창전동 5-138,FD6,음식점,"음식점 > 술집 > 호프,요리주점",산울림1992,서울 마포구 서강로9길 60
158,126.923857747432,37.5546831743202,13337463,서울 마포구 서교동 346-31,FD6,음식점,"음식점 > 일식 > 돈까스,우동",가미우동,서울 마포구 홍익로2길 23
159,126.92950501889854,37.55470470099321,24504952,서울 마포구 서교동 327-17,FD6,음식점,"음식점 > 간식 > 제과,베이커리",아오이토리,서울 마포구 와우산로29길 8
160,126.919158667489,37.5506507881727,19083939,서울 마포구 서교동 395-124,FD6,음식점,"음식점 > 한식 > 육류,고기",이치류 홍대본점,서울 마포구 잔다리로3안길 44
161,126.924760602353,37.5571921297692,1622865435,서울 마포구 동교동 166-14,FD6,음식점,음식점 > 중식 > 중국요리,하이디라오 홍대지점,서울 마포구 양화로 176
162,126.922469130811,37.5492150150139,20044268,서울 마포구 상수동 92-2,FD6,음식점,"음식점 > 한식 > 육류,고기 > 곱창,막창",김덕후의곱창조 홍대본점,서울 마포구 와우산로 51-9
163,126.926395323228,37.5567246416086,18514677,서울 마포구 동교동 170-23,FD6,음식점,"음식점 > 한식 > 육류,고기 > 곱창,막창",황곱 홍대점,서울 마포구 어울마당로 149
164,126.92349707035542,37.553241344916096,899602257,서울 마포구 서교동 358-15,FD6,음식점,"음식점 > 양식 > 멕시칸,브라질",이빠네마그릴 홍대점,서울 마포구 홍익로 7
165,126.917319832394,37.5474743966187,1916682638,서울 마포구 합정동 361-1,FD6,음식점,음식점 > 일식 > 일본식라면,오레노라멘 합정본점,서울 마포구 독막로6길 14
166,126.927849458786,37.5557236301088,17419272,서울 마포구 서교동 328-26,FD6,음식점,음식점 > 한식 > 한정식,더담,서울 마포구 와우산로29길 44
167,126.92660770595288,37.55481105532847,1925626633,서울 마포구 서교동 333-16,FD6,음식점,음식점 > 일식 > 일본식라면,마시타야,서울 마포구 와우산로29라길 26
168,126.92398596129668,37.55101619573641,13284457,서울 마포구 서교동 360-18,FD6,음식점,음식점 > 아시아음식 > 인도음식,예티,서울 마포구 와우산로18길 20
169,126.922384097922,37.5482779207568,690331311,서울 마포구 상수동 145-13,FD6,음식점,"음식점 > 양식 > 스테이크,립",온블랙94,서울 마포구 와우산로 39-14
170,126.923272022704,37.5475649101839,26848996,서울 마포구 상수동 329-1,CE7,카페,음식점 > 카페 > 커피전문점 > 스타벅스,스타벅스 상수역점,서울 마포구 독막로 88
171,126.925309354565,37.5482716983505,824021017,서울 마포구 상수동 94-12,CE7,카페,음식점 > 카페 > 커피전문점,카페프레이밍,서울 마포구 독막로19길 12
172,126.923185443157,37.5481270770186,169341986,서울 마포구 상수동 143-31,CE7,카페,음식점 > 카페 > 커피전문점 > 커피빈,커피빈 상수역점,서울 마포구 와우산로10길 3
173,126.92277418346,37.547496109746,809371316,서울 마포구 상수동 324-9,CE7,카페,음식점 > 카페 > 커피전문점 > 투썸플레이스,투썸플레이스 상수역점,서울 마포구 독막로 86
174,126.92289445697394,37.54938017621972,704902222,서울 마포구 상수동 90-9,CE7,카페,음식점 > 카페 > 커피전문점,아크,서울 마포구 와우산로 55
175,126.920591525041,37.5483524127402,27335076,서울 마포구 상수동 317-1,CE7,카페,음식점 > 카페 > 커피전문점 > 카페게이트,카페게이트 홍대상수점,서울 마포구 독막로 67-13
176,126.92208195029576,37.54610721591583,595088139,서울 마포구 상수동 334-13,CE7,카페,음식점 > 카페 > 커피전문점,아크로마커피바,서울 마포구 와우산로3길 16
177,126.923315797504,37.5479145260828,1540731595,서울 마포구 상수동 309-7,CE7,카페,음식점 > 카페 > 커피전문점,더그릭베어,서울 마포구 독막로 87
178,126.92542105411,37.5486042374059,77274259,서울 마포구 상수동 72-43,CE7,카페,음식점 > 카페 > 커피전문점,시러피하우스,서울 마포구 독막로19길 8-17
179,126.922381836542,37.5482761172732,1467703105,서울 마포구 상수동 145-13,CE7,카페,음식점 > 카페 > 커피전문점,로펠로세라,서울 마포구 와우산로 39-14
180,126.921050242832,37.5479643899653,1721053898,서울 마포구 상수동 317-6,CE7,카페,음식점 > 카페 > 커피전문점,호텔 아르마딜로 커피,서울 마포구 독막로 67
181,126.927393021782,37.5455817146738,25986065,서울 마포구 상수동 60-2,CE7,카페,음식점 > 카페 > 커피전문점 > 커피에반하다,커피에반하다 마포상수점,서울 마포구 토정로 148
182,126.922062724171,37.5482705010874,565795175,서울 마포구 상수동 310-19,CE7,카페,음식점 > 카페 > 커피전문점,태산커피 상수점,서울 마포구 독막로15길 91
183,126.920727709368,37.547984896843,11831477,서울 마포구 상수동 317-8,CE7,카페,음식점 > 카페 > 커피전문점,시연,서울 마포구 독막로 65
184,126.92288966959066,37.5496333536276,1264593199,서울 마포구 상수동 86-55,CE7,카페,음식점 > 카페 > 커피전문점 > 더리터,더리터 상수역점,서울 마포구 와우산로 57
185,126.92586363187128,37.54963525829692,1728529708,서울 마포구 상수동 72-1,CE7,카페,음식점 > 카페 > 커피전문점 > 카페드림,카페드림 홍익대학교인문사회관점,서울 마포구 와우산로 94
186,126.925331178076,37.5479482536665,207380719,서울 마포구 상수동 93-1,CE7,카페,음식점 > 카페 > 커피전문점,에이엠나인,서울 마포구 독막로19길 5
187,126.924511885236,37.5490703768759,803365840,서울 마포구 상수동 71-17,CE7,카페,음식점 > 카페 > 커피전문점,애로우 ARROW,서울 마포구 독막로19길 30-7
188,126.92202561119,37.5491354351076,17137439,서울 마포구 상수동 92-9,CE7,카페,음식점 > 카페 > 커피전문점,카페빵사이,서울 마포구 와우산로13길 25
189,126.920882051509,37.5475669370099,15548483,서울 마포구 상수동 321-1,CE7,카페,음식점 > 카페 > 커피전문점,카페모인,서울 마포구 독막로 68
190,126.92503211658,37.5482616116766,2129141523,서울 마포구 상수동 93-15,CE7,카페,음식점 > 카페 > 커피전문점 > 홈스테드,홈스테드 홍대라부에노점,서울 마포구 독막로19길 15
191,126.92084957751196,37.54831294206314,1414674881,서울 마포구 상수동 316-12,CE7,카페,음식점 > 카페 > 커피전문점,카페리짙,서울 마포구 독막로 67-10
192,126.9218769366,37.548463191996,609021762,서울 마포구 상수동 311-5,CE7,카페,음식점 > 카페 > 커피전문점,카페몬데이,서울 마포구 독막로15길 13-4
193,126.922066061194,37.549412969311,1993553900,서울 마포구 서교동 411-8,CE7,카페,음식점 > 카페 > 커피전문점,소울버튼,서울 마포구 와우산로15길 23
194,126.918420603575,37.5467003033752,592727195,서울 마포구 합정동 355-2,CE7,카페,음식점 > 카페 > 커피전문점,퍼셉션 (Perception),서울 마포구 어울마당로1길 16
195,126.92203499447,37.5499048938819,193594597,서울 마포구 서교동 409-15,CE7,카페,음식점 > 카페 > 커피전문점,카페 공명 홍대 2호점,서울 마포구 와우산로17길 11-8
196,126.92054751529012,37.54930203548398,20000362,서울 마포구 서교동 403-17,CE7,카페,음식점 > 카페 > 커피전문점 > 드롭탑,드롭탑 홍대점,서울 마포구 어울마당로 45-1
197,126.92285991255092,37.54995769357849,27119453,서울 마포구 서교동 411-2,CE7,카페,음식점 > 카페 > 커피전문점 > 빽다방,빽다방 홍대극동방송국점,서울 마포구 와우산로13길 2
198,126.920523307922,37.549719181419,340443921,서울 마포구 서교동 403-5,CE7,카페,음식점 > 카페 > 커피전문점,삼다코지,서울 마포구 독막로9길 34
199,126.919257525142,37.5471297540041,581267505,서울 마포구 합정동 356-10,CE7,카페,음식점 > 카페 > 커피전문점,그로니,서울 마포구 어울마당로3길 5-6
200,126.91908433274,37.5482288537428,2042906398,서울 마포구 합정동 410-18,CE7,카페,음식점 > 카페 > 커피전문점 > 이디야커피,이디야커피 합정동점,서울 마포구 양화로6길 90
201,126.919422331196,37.5485606523211,1184565802,서울 마포구 서교동 401-15,CE7,카페,음식점 > 카페 > 커피전문점,카페 팔레트,서울 마포구 독막로9길 3
202,126.919875431337,37.5491988675292,718727502,서울 마포구 서교동 404-24,CE7,카페,음식점 > 카페 > 커피전문점,딜리커피,서울 마포구 독막로9길 19
203,126.920739159383,37.5499959329784,1300590338,서울 마포구 서교동 403-2,CE7,카페,음식점 > 카페 > 커피전문점,카페버퍼링,서울 마포구 독막로9길 42
204,126.923010463723,37.5510173657116,818440028,서울 마포구 서교동 363-1,CE7,카페,음식점 > 카페 > 커피전문점 > 컴포즈커피,컴포즈커피 홍대삼거리점,서울 마포구 와우산로 73
205,126.92280851803868,37.5515109808089,19539271,서울 마포구 서교동 362-12,CE7,카페,음식점 > 카페 > 커피전문점,블로트커피,서울 마포구 와우산로19길 6-5
206,126.93128558039952,37.548146484530456,886841764,서울 마포구 창전동 444,CE7,카페,음식점 > 카페 > 커피전문점 > 메가MGC커피,메가MGC커피 광흥창역점,서울 마포구 서강로 55
207,126.9313556120936,37.54828708104219,1855869140,서울 마포구 창전동 448,CE7,카페,음식점 > 카페 > 커피전문점 > 투썸플레이스,투썸플레이스 광흥창역점,서울 마포구 서강로 55
208,126.923956547145,37.5510071668158,27558899,서울 마포구 서교동 360-18,CE7,카페,음식점 > 카페 > 커피전문점,트웬티포세븐플러스,서울 마포구 와우산로18길 20
209,126.931909798676,37.5461394209155,18770128,서울 마포구 창전동 442,CE7,카페,음식점 > 카페 > 커피전문점 > 이디야커피,이디야커피 광흥창역점,서울 마포구 창전로 45
210,126.91498394229322,37.54569416640838,24855092,서울 마포구 합정동 368-3,CE7,카페,음식점 > 카페 > 커피전문점,빈브라더스 합정점,서울 마포구 토정로 35-1
211,126.931657893743,37.5493756625598,1572099327,서울 마포구 창전동 130,CE7,카페,음식점 > 카페 > 커피전문점 > 스타벅스,스타벅스 서강광흥창역점,서울 마포구 서강로 69
212,126.926352615326,37.5598708965573,1797970569,서울 마포구 동교동 146-8,CE7,카페,음식점 > 카페 > 커피전문점,카페 공명 연남 1호점,서울 마포구 연희로 11
213,126.914005409928,37.5523374197895,26611450,서울 마포구 서교동 384-3,CE7,카페,음식점 > 카페 > 커피전문점,빌리프커피로스터스,서울 마포구 양화로11길 50
214,126.915952236505,37.5520468982965,1184891158,서울 마포구 서교동 378-19,CE7,카페,음식점 > 카페 > 커피전문점,커피폴리,서울 마포구 양화로11길 14
215,126.92334886722809,37.55871751072101,19807068,서울 마포구 동교동 199-2,CE7,카페,음식점 > 카페 > 커피전문점,딥커피,서울 마포구 동교로 209
216,126.92300360763343,37.55988137399502,1994324336,서울 마포구 동교동 197-31,CE7,카페,음식점 > 카페 > 커피전문점,8810리스트레토바,서울 마포구 월드컵북로6길 88-10
217,126.91284688027773,37.55400882212217,349406544,서울 마포구 서교동 480-12,CE7,카페,음식점 > 카페 > 커피전문점,퀜치커피,서울 마포구 동교로12안길 9
218,126.92923769237947,37.55495862239705,8104927,서울 마포구 서교동 327-19,CE7,카페,음식점 > 카페 > 커피전문점,커피랩,서울 마포구 와우산로29길 14
219,126.920317785646,37.5546231745866,1436512690,서울 마포구 서교동 353-5,CE7,카페,음식점 > 카페 > 커피전문점 > 스타벅스,스타벅스 홍대입구역사거리R점,서울 마포구 양화로 125
220,126.923637798148,37.5572887166274,22105109,서울 마포구 동교동 159-1,CE7,카페,음식점 > 카페 > 커피전문점 > 스타벅스,스타벅스 홍대역점,서울 마포구 양화로 165
221,126.92518582665798,37.557509550972256,231272664,서울 마포구 동교동 166-1,CE7,카페,음식점 > 카페 > 커피전문점 > 스타벅스,스타벅스 홍대공항철도역점,서울 마포구 양화로 178
222,126.926621348495,37.5570563492764,11831442,서울 마포구 동교동 170-32,CE7,카페,음식점 > 카페 > 커피전문점,밀로커피로스터스,서울 마포구 양화로18안길 36
223,126.927589867452,37.5573308503659,22134837,서울 마포구 동교동 176-9,CE7,카페,음식점 > 카페 > 커피전문점,애프터눈커피,서울 마포구 신촌로4길 22-14
224,126.91070575438695,37.5558452570744,12776689,서울 마포구 서교동 475-13,CE7,카페,음식점 > 카페 > 커피전문점 > 스타벅스,스타벅스 망원역점,서울 마포구 월드컵로 74
225,126.9242387367584,37.55619709509767,1969925488,서울 마포구 동교동 164-22,CE7,카페,음식점 > 카페 > 커피전문점 > 메가MGC커피,메가MGC커피 홍대입구역점,서울 마포구 홍익로6길 48
226,126.913541853312,37.5500016943689,27076117,서울 마포구 서교동 490,CE7,카페,음식점 > 카페 > 커피전문점 > 스타벅스,스타벅스 합정메세나몰점,서울 마포구 양화로 45
227,126.927283359225,37.5559611461371,12394379,서울 마포구 서교동 330-10,CE7,카페,음식점 > 카페 > 커피전문점,칼디커피,서울 마포구 와우산로29길 54
228,126.92343618991804,37.557439953584975,26532091,서울 마포구 동교동 158-1,CE7,카페,음식점 > 카페 > 커피전문점 > 투썸플레이스,투썸플레이스 홍대입구역점,서울 마포구 월드컵북로2길 57
229,126.9224290754552,37.55619862304326,1301209629,서울 마포구 동교동 160-1,CE7,카페,음식점 > 카페 > 커피전문점 > 할리스,할리스 홍대입구역점,서울 마포구 양화로 151
230,126.924469326003,37.5587236387955,21459539,서울 마포구 동교동 154-25,CE7,카페,음식점 > 카페 > 커피전문점,커피짱,서울 마포구 양화로19길 22-16
231,126.918607875358,37.5534723352988,27416913,서울 마포구 서교동 374-20,CE7,카페,음식점 > 카페 > 커피전문점 > 스타벅스,스타벅스 서교동사거리,서울 마포구 양화로 105
232,126.919993980608,37.5568646370831,20705154,서울 마포구 동교동 205-6,CE7,카페,음식점 > 카페 > 커피전문점 > 스타벅스,스타벅스 동교점,서울 마포구 월드컵북로 22
233,126.93101946137725,37.55571741567603,15796728,서울 마포구 동교동 184-12,CE7,카페,음식점 > 카페 > 커피전문점,아메노히커피점,서울 마포구 와우산로 168
234,126.921236641468,37.5590206575089,160457612,서울 마포구 동교동 204-3,CE7,카페,음식점 > 카페 > 커피전문점,PIT COFFEE,서울 마포구 월드컵북로6길 52
235,126.922671603267,37.5547797111847,1351720419,서울 마포구 동교동 163-11,CE7,카페,음식점 > 카페 > 커피전문점 > 투썸플레이스,투썸플레이스 홍대걷고싶은거리점,서울 마포구 어울마당로 109
236,126.923309189325,37.5554684891094,10822488,서울 마포구 동교동 163-12,CE7,카페,음식점 > 카페 > 커피전문점 > 커피빈,커피빈 홍대역점,서울 마포구 홍익로6길 26
237,126.9227598143844,37.55484103675499,1862778678,서울 마포구 동교동 163-7,CE7,카페,음식점 > 카페 > 커피전문점 > 할리스,할리스 홍대역점,서울 마포구 어울마당로 111
238,126.934699199575,37.5551906225976,1132693025,서울 마포구 노고산동 54-1,CE7,카페,음식점 > 카페 > 커피전문점 > 스타벅스,스타벅스 신촌오거리점,서울 마포구 신촌로16길 10
239,126.91340049045,37.5508989849269,288597324,서울 마포구 서교동 490,CE7,카페,음식점 > 카페 > 커피전문점 > 스타벅스,스타벅스 합정폴리스R점,서울 마포구 양화로 45
240,126.925272420152,37.5569293636288,13324257,서울 마포구 동교동 168-3,CE7,카페,음식점 > 카페 > 커피전문점,커피와사람들 홍대점,서울 마포구 홍익로6길 74
241,126.924168013515,37.5567448560452,1485627824,서울 마포구 동교동 165-1,CE7,카페,음식점 > 카페 > 커피전문점 > 스타벅스,스타벅스 홍대역8번출구점,서울 마포구 양화로 166
242,126.918842198641,37.5544599900023,1766240208,서울 마포구 서교동 375-2,CE7,카페,음식점 > 카페 > 커피전문점,카페아벨롭,서울 마포구 양화로15안길 6
243,126.930461366924,37.5558765648485,67926579,서울 마포구 동교동 189-2,CE7,카페,음식점 > 카페 > 커피전문점,헤이쥬드,서울 마포구 와우산로37길 7
244,126.926491657309,37.5577392244478,738918577,서울 마포구 동교동 190-1,CE7,카페,음식점 > 카페 > 커피전문점 > 폴바셋,폴바셋 AK플라자 홍대,서울 마포구 양화로 188
245,126.92531340793,37.5566843183141,9362425,서울 마포구 동교동 169-17,CE7,카페,음식점 > 카페 > 커피전문점,위드커피,서울 마포구 양화로18안길 12
246,126.92168717475867,37.55569807976773,1206698300,서울 마포구 동교동 160-5,CE7,카페,음식점 > 카페 > 커피전문점 > 엔제리너스,엔제리너스 L7홍대점,서울 마포구 양화로 141
247,126.921374858366,37.5524254487892,27432903,서울 마포구 서교동 369-5,CE7,카페,음식점 > 카페 > 커피전문점 > 메가MGC커피,메가MGC커피 홍대점,서울 마포구 잔다리로6길 39
248,126.9115330842862,37.55486379271522,23700933,서울 마포구 서교동 476-21,CE7,카페,음식점 > 카페 > 커피전문점 > 투썸플레이스,투썸플레이스 망원역점,서울 마포구 월드컵로 62
249,126.92498284622,37.5567742084775,1761416043,서울 마포구 동교동 168-4,CE7,카페,음식점 > 카페 > 커피전문점 > 커피빈,커피빈 홍대역8번출구점,서울 마포구 양화로18안길 7
250,126.915060893207,37.5516750493151,24065719,서울 마포구 서교동 391-5,FD6,음식점,"음식점 > 일식 > 돈까스,우동",우동카덴 합정점,서울 마포구 양화로7안길 2-1
251,126.916195926392,37.554741054656375,1351221007,서울 마포구 서교동 465-1,FD6,음식점,"음식점 > 일식 > 돈까스,우동",카와카츠,서울 마포구 동교로 126
252,126.926730635869,37.5564040951311,18742750,서울 마포구 서교동 330-19,FD6,음식점,음식점 > 일식 > 일본식라면,부탄츄 홍대점,서울 마포구 와우산로35길 75
253,126.921418812785,37.5536760629849,12887413,서울 마포구 서교동 355-25,FD6,음식점,음식점 > 일식 > 일본식라면,멘야산다이메 홍대점,서울 마포구 홍익로5안길 24
254,126.914140232291,37.5531916638114,1534943798,서울 마포구 서교동 381-22,FD6,음식점,음식점 > 일식 > 일본식라면,담택,서울 마포구 월드컵로8길 34
255,126.91681307488044,37.54932649356856,1936164361,서울 마포구 서교동 395-36,FD6,음식점,음식점 > 일식 > 일식집,히츠지야 한국본점,서울 마포구 독막로3길 21
256,126.92047197718551,37.55649194715678,18046756,서울 마포구 동교동 206-2,FD6,음식점,음식점 > 일식 > 일식집,삿뽀로 홍대점,서울 마포구 월드컵북로 14
257,126.927397054251,37.555424221641,138967530,서울 마포구 서교동 334-23,FD6,음식점,음식점 > 일식,스아게K,서울 마포구 와우산로29라길 7
258,126.920962389879,37.5486445850724,1426286680,서울 마포구 서교동 411-12,FD6,음식점,음식점 > 일식,소코아 홍대점,서울 마포구 와우산로15길 49
259,126.923952449501,37.5594945603381,1029469924,서울 마포구 동교동 152-18,FD6,음식점,음식점 > 일식,쿠시노주방,서울 마포구 동교로 218-1
260,126.924628003755,37.5540025143306,1719380793,서울 마포구 서교동 342-16,FD6,음식점,음식점 > 일식 > 일본식라면,이츠모라멘,서울 마포구 와우산로23길 18-7
261,126.91685707182,37.5525061468233,865404969,서울 마포구 서교동 379-13,FD6,음식점,음식점 > 일식 > 일본식라면,멘야하나비 합정점,서울 마포구 잔다리로7안길 14
262,126.920009649629,37.5549112854447,26814599,서울 마포구 서교동 352-16,FD6,음식점,"음식점 > 일식 > 초밥,롤",여우골 홍대서교점,서울 마포구 월드컵북로1길 20
263,126.924481549594,37.5533401874318,268235810,서울 마포구 서교동 344-9,FD6,음식점,음식점 > 일식 > 일본식라면,츠케루,서울 마포구 와우산로23길 9
264,126.921161384921,37.5574024166674,1229127559,서울 마포구 동교동 201-41,FD6,음식점,음식점 > 일식,고쿠텐 홍대점,서울 마포구 월드컵북로4길 26
265,126.92016459251568,37.54970362245798,1570017396,서울 마포구 서교동 404-14,FD6,음식점,음식점 > 일식,카레시,서울 마포구 독막로9길 31
266,126.916388147952,37.5548943605055,120900052,서울 마포구 서교동 465-2,FD6,음식점,음식점 > 일식 > 일본식라면,멘야준,서울 마포구 동교로 128
267,126.922053645264,37.5526421383237,22895023,서울 마포구 서교동 358-49,FD6,음식점,"음식점 > 일식 > 돈까스,우동",혼가츠,서울 마포구 와우산로21길 36-6
268,126.92340986191,37.5599420050124,1041840511,서울 마포구 동교동 197-40,FD6,음식점,음식점 > 일식,온미동 연남점,서울 마포구 월드컵북로4길 95
269,126.91642930454746,37.55452317866892,19176980,서울 마포구 서교동 465-11,FD6,음식점,"음식점 > 일식 > 초밥,롤",박용석스시 2호점,서울 마포구 잔다리로 78
270,126.923021742321,37.5576559234122,234865859,서울 마포구 동교동 158-25,FD6,음식점,"음식점 > 일식 > 초밥,롤",스시엔준,서울 마포구 동교로 198
271,126.921482387583,37.5491711150725,27281186,서울 마포구 서교동 409-14,FD6,음식점,"음식점 > 일식 > 초밥,롤",은행골 홍대점,서울 마포구 와우산로15길 34
272,126.912400864,37.5541130077847,736634882,서울 마포구 서교동 480-6,FD6,음식점,음식점 > 일식,기요한,서울 마포구 동교로12길 3
273,126.92229710425477,37.55904181280863,933966017,서울 마포구 동교동 204-22,FD6,음식점,음식점 > 일식 > 참치회,키움참치 홍대점,서울 마포구 동교로27길 21
274,126.920704664792,37.5569191763429,149004083,서울 마포구 동교동 201-14,FD6,음식점,"음식점 > 일식 > 초밥,롤",최우영식당 홍대점,서울 마포구 월드컵북로4길 12
275,126.926940066612,37.5551860764204,27224287,서울 마포구 서교동 333-11,FD6,음식점,음식점 > 일식,소년식당 홍대본점,서울 마포구 와우산로29라길 16
276,126.91603005765414,37.55430034901722,26586099,서울 마포구 서교동 466-5,FD6,음식점,"음식점 > 일식 > 초밥,롤",키움초밥 1호점,서울 마포구 잔다리로 77
277,126.919917003158,37.5484204330858,2067674889,서울 마포구 서교동 402-24,FD6,음식점,"음식점 > 일식 > 돈까스,우동",고베규카츠 상수점,서울 마포구 양화로6길 103
278,126.92331931041,37.5544269425586,2082767876,서울 마포구 서교동 345-26,FD6,음식점,음식점 > 일식 > 참치회,서교참치,서울 마포구 와우산로23길 35-3
279,126.920653444333,37.5497219719347,1301543404,서울 마포구 서교동 403-6,FD6,음식점,음식점 > 일식,카츠미 홍대본점,서울 마포구 어울마당로 51
280,126.918980103803,37.5525211376372,13272618,서울 마포구 서교동 372-5,FD6,음식점,음식점 > 일식 > 참치회,참치가 서교본점,서울 마포구 양화로 100-10
281,126.9284069215246,37.555046419343256,491500586,서울 마포구 서교동 335-4,FD6,음식점,음식점 > 일식,토모토카레 홍대점,서울 마포구 와우산로29길 27
282,126.92371027467446,37.55502545818786,21410533,서울 마포구 서교동 346-36,FD6,음식점,음식점 > 일식,하카타나카,서울 마포구 와우산로23길 50
283,126.92460117562,37.558165104938,27108530,서울 마포구 동교동 155-20,FD6,음식점,음식점 > 일식,오모테나시,서울 마포구 월드컵북로2길 82
284,126.92189115864,37.5543539266276,695870808,서울 마포구 서교동 356-4,FD6,음식점,음식점 > 일식,에도마에텐동하마다 본점,서울 마포구 홍익로 25
285,126.9172206545457,37.54915559031915,24355770,서울 마포구 서교동 396-28,FD6,음식점,"음식점 > 일식 > 초밥,롤",물고기초밥,서울 마포구 독막로3길 24-6
286,126.91641121718,37.5545051459148,20110358,서울 마포구 서교동 465-11,FD6,음식점,"음식점 > 일식 > 돈까스,우동",서교밥집,서울 마포구 잔다리로 78
287,126.929171955098,37.5550612967006,21129871,서울 마포구 서교동 327-20,FD6,음식점,"음식점 > 일식 > 돈까스,우동",고토히라우동,서울 마포구 와우산로29길 14-8
288,126.922505224188,37.553702008954,21236051,서울 마포구 서교동 358-8,FD6,음식점,"음식점 > 일식 > 초밥,롤 > 스시오",스시오 홍대점,서울 마포구 어울마당로 100-6
289,126.92111119017,37.55348484634,1217230294,서울 마포구 서교동 355-5,FD6,음식점,음식점 > 양식 > 이탈리안,홍대인파스타,서울 마포구 홍익로5안길 32
290,126.915602703838,37.5488967594368,16050660,서울 마포구 합정동 413-2,FD6,음식점,음식점 > 양식 > 이탈리안,스파카나폴리,서울 마포구 양화로6길 28
291,126.91666489775,37.5462161420141,926080103,서울 마포구 합정동 361-20,FD6,음식점,음식점 > 양식 > 이탈리안,몰토베네,서울 마포구 성지3길 67
292,126.92263640151404,37.55379940272637,1894886625,서울 마포구 서교동 358-70,FD6,음식점,음식점 > 양식 > 이탈리안,스파게티스토리 홍대점,서울 마포구 어울마당로 100-3
293,126.925099693068,37.548582410034,1680075315,서울 마포구 상수동 94-6,FD6,음식점,음식점 > 양식 > 이탈리안,플레이트946,서울 마포구 독막로19길 20-6
294,126.921288265113,37.5486772386944,27468317,서울 마포구 상수동 313-1,FD6,음식점,음식점 > 양식 > 이탈리안,수지앤파스타,서울 마포구 독막로15길 3-18
295,126.924051555433,37.5532885547598,1680046810,서울 마포구 서교동 344-15,FD6,음식점,음식점 > 양식 > 이탈리안 > 롤링파스타,롤링파스타 홍대점,서울 마포구 홍익로 6
296,126.923953642594,37.5494105960629,1572709027,서울 마포구 상수동 88-15,FD6,음식점,음식점 > 양식 > 이탈리안,살로또상수,서울 마포구 독막로19길 42-12
297,126.917970313843,37.5486857923205,18960396,서울 마포구 서교동 399-24,FD6,음식점,음식점 > 양식 > 이탈리안,키친485,서울 마포구 양화로6길 67
298,126.921207569805,37.5522343257204,27197796,서울 마포구 서교동 366-1,FD6,음식점,음식점 > 양식 > 이탈리안,안녕파스타씨,서울 마포구 잔다리로6길 36
299,126.91845333429828,37.54989526667136,24407179,서울 마포구 서교동 398-5,FD6,음식점,음식점 > 양식 > 이탈리안,로로11,서울 마포구 어울마당로5길 42
300,126.91926267912712,37.55074456314453,27478290,서울 마포구 서교동 395-115,FD6,음식점,음식점 > 양식 > 이탈리안,219,서울 마포구 잔다리로3안길 16
301,126.920650004261,37.5572362906251,27239573,서울 마포구 동교동 203-19,FD6,음식점,음식점 > 양식 > 이탈리안,씨푸드살롱마레스타,서울 마포구 월드컵북로4길 15
302,126.92131567806,37.5484357893723,25589312,서울 마포구 상수동 314-3,FD6,음식점,음식점 > 양식 > 이탈리안,츄리츄리,서울 마포구 독막로15길 3-13
303,126.9231286702393,37.55933184743969,1101488015,서울 마포구 동교동 198-5,FD6,음식점,음식점 > 양식 > 이탈리안,광야,서울 마포구 월드컵북로4길 82
304,126.916911288026,37.5485228721489,27585975,서울 마포구 합정동 412-27,FD6,음식점,음식점 > 양식 > 이탈리안,비볼리,서울 마포구 독막로 31-3
305,126.925721612649,37.5604651591085,1232449233,서울 마포구 동교동 113-25,FD6,음식점,음식점 > 양식 > 이탈리안,연남취향,서울 마포구 연희로1길 36
306,126.925777129962,37.5592650663205,969585225,서울 마포구 동교동 147-48,FD6,음식점,음식점 > 양식 > 이탈리안,비스트로연남,서울 마포구 양화로23길 10-10
307,126.928064022241,37.5585637042066,15673110,서울 서대문구 창천동 508-2,FD6,음식점,음식점 > 양식 > 이탈리안,구씨네부엌,서울 서대문구 신촌로 9
308,126.92426022445488,37.559566837919846,332625164,서울 마포구 동교동 152-11,FD6,음식점,음식점 > 양식 > 이탈리안,청록양식,서울 마포구 동교로 220-7
309,126.922390519017,37.5606378098085,232949674,서울 마포구 연남동 567-34,FD6,음식점,음식점 > 양식 > 이탈리안,파델라,서울 마포구 연남로1길 11
310,126.923695720297,37.5537604481538,1056158711,서울 마포구 서교동 486,FD6,음식점,음식점 > 양식 > 이탈리안,봉대박 파스타&찜닭 홍대점,서울 마포구 홍익로 10
311,126.92689060150528,37.55484727073469,475964938,서울 마포구 서교동 334-18,FD6,음식점,음식점 > 양식 > 이탈리안,이플로네의하루,서울 마포구 와우산로29라길 21
312,126.92084957751196,37.54831294206314,11932059,서울 마포구 상수동 316-12,FD6,음식점,음식점 > 양식 > 이탈리안,비스트로보이,서울 마포구 독막로 67-10
313,126.91289384752832,37.55254924049563,2056426873,서울 마포구 서교동 382-13,FD6,음식점,음식점 > 양식 > 이탈리안,카밀로라자네리아,서울 마포구 동교로12길 41
314,126.922458089555,37.5598720070142,25460027,서울 마포구 동교동 197-25,FD6,음식점,음식점 > 양식 > 이탈리안,부부드꼼뜨와,서울 마포구 월드컵북로6길 82
315,126.922248441539,37.5612161561424,1639985680,서울 마포구 연남동 566-61,FD6,음식점,음식점 > 양식 > 이탈리안,밀라노식당,서울 마포구 연남로1길 6-9
316,126.91071664472,37.5505113588763,1762709049,서울 마포구 합정동 389-14,FD6,음식점,음식점 > 양식 > 이탈리안,아우룸,서울 마포구 월드컵로5길 33-26
317,126.932757457113,37.5548507576611,1975126327,서울 마포구 노고산동 56-76,FD6,음식점,음식점 > 양식 > 이탈리안,박쉡,서울 마포구 신촌로12길 35
318,126.92541590245936,37.56285801307924,1528750244,서울 마포구 연남동 387-13,FD6,음식점,음식점 > 양식 > 이탈리안,오마,서울 마포구 동교로 262-6
319,126.921769303598,37.5604950423577,1514426694,서울 마포구 연남동 566-24,FD6,음식점,음식점 > 양식 > 이탈리안,윤성용레스토랑,서울 마포구 연남로1길 22
320,126.938435096653,37.5592471172295,26976526,서울 서대문구 창천동 2-44,FD6,음식점,음식점 > 양식 > 이탈리안,라구식당,서울 서대문구 연세로 42-24
321,126.9254916378864,37.56182011305365,1506305363,서울 마포구 연남동 390-24,FD6,음식점,음식점 > 양식 > 이탈리안,연남동질리,서울 마포구 동교로38길 23
322,126.914353901225,37.5563525181757,536822316,서울 마포구 서교동 468-17,FD6,음식점,음식점 > 양식 > 이탈리안,오스테리아오라,서울 마포구 잔다리로 105
323,126.92667122981,37.5615901964702,443870758,서울 마포구 연남동 383-95,FD6,음식점,음식점 > 양식 > 이탈리안,클래식당,서울 마포구 연희로1길 65
324,126.9384451441752,37.55803978645951,1227036908,서울 서대문구 창천동 13-2,FD6,음식점,음식점 > 양식 > 이탈리안,현명식탁,서울 서대문구 명물길 32
325,126.921243241376,37.552749720304,1935629015,서울 마포구 서교동 369-42,FD6,음식점,음식점 > 양식 > 이탈리안,에이맨즈,서울 마포구 양화로16길 30-5
326,126.9180910588899,37.550030165659855,204015650,서울 마포구 서교동 397-13,FD6,음식점,음식점 > 양식 > 이탈리안,오스테리아리오,서울 마포구 어울마당로5길 50
327,126.9254136403773,37.560585698509065,1913221330,서울 마포구 연남동 381-15,FD6,음식점,음식점 > 양식 > 이탈리안,탐키친,서울 마포구 동교로32길 19
328,126.921420060099,37.5481763713096,1027062396,서울 마포구 상수동 314-7,FD6,음식점,음식점 > 양식 > 이탈리안,농담 홍대점,서울 마포구 와우산로13길 49-13
329,126.92014462588357,37.55568983859796,13623789,서울 마포구 서교동 351-27,FD6,음식점,음식점 > 양식 > 이탈리안,홍셰프비스트로펍,서울 마포구 동교로 164
330,126.921670142129,37.5557521283125,827870908,서울 마포구 동교동 160-5,FD6,음식점,음식점 > 양식 > 이탈리안 > 더플레이스,더플레이스 홍대L7점,서울 마포구 양화로 141
331,126.94698432423915,37.60759496019467,12544587,서울 서대문구 홍은동,AT4,관광명소,"여행 > 관광,명소 > 도보여행 > 둘레길 > 북한산둘레길",북한산둘레길 7구간옛성길,
332,126.93755129533662,37.580786747178536,11625245,서울 서대문구 연희동 170-181,,,"여행 > 관광,명소 > 폭포",홍제천인공폭포,
333,126.959542648447,37.5724504220421,7834307,서울 서대문구 현저동 101,,,"여행 > 관광,명소 > 문화유적 > 문",독립문,서울 서대문구 통일로 251
334,126.94816634534916,37.57542286178335,26967050,서울 서대문구 봉원동,AT4,관광명소,"여행 > 관광,명소 > 도보여행",안산자락길,
335,126.906234509821,37.5800209041095,13323781,서울 서대문구 북가좌동,,,"여행 > 관광,명소 > 하천",불광천,
336,126.94588076019748,37.57699407127241,11932689,서울 서대문구 봉원동 산 1,AT4,관광명소,"여행 > 관광,명소 > 산",안산,
337,126.938355085326,37.5794293721043,1564023713,서울 서대문구 연희동,AT4,관광명소,"여행 > 관광,명소 > 테마거리",안산벚꽃길,
338,126.952622379496,37.5963205618103,17360934,서울 서대문구 홍제동,,,"여행 > 관광,명소 > 하천",홍제천,
339,126.95662040309,37.5988088344679,10973145,서울 종로구 홍지동 산 4,,,"여행 > 관광,명소 > 문화유적 > 문",홍지문및탕춘대성,
340,126.92778880701992,37.59158858702448,25248238,서울 서대문구 홍은동 산 11-123,AT4,관광명소,"여행 > 관광,명소 > 산",백련산,
341,126.931971068775,37.5783230491623,25051187,서울 서대문구 연희동,,,"여행 > 관광,명소 > 하천",홍제천,
342,126.947132881925,37.5769036382428,8342522,서울 서대문구 홍제동 산 33-44,,,"여행 > 관광,명소 > 문화유적 > 봉수대",무악동봉수대,
343,126.9414026987084,37.57941650835176,20459875,서울 서대문구 연희동 산 2-2,AT4,관광명소,"여행 > 관광,명소 > 숲",메타세콰이어길,
344,126.945625246085,37.5578523000415,8046576,서울 서대문구 대현동,AT4,관광명소,"여행 > 관광,명소 > 테마거리 > 카페거리",이대앞사주카페거리,
345,126.943872014061,37.6017478979027,7886546,서울 서대문구 홍은동 11,,,"여행 > 관광,명소 > 등산로",백련산등산로,
346,126.938561015891,37.5657848129138,7992670,서울 서대문구 신촌동 134,,,"여행 > 관광,명소 > 동상",언더우드동상,서울 서대문구 연세로 50
347,126.9412797821669,37.560058562471205,1643208823,서울 서대문구 대신동 143-28,,,"여행 > 관광,명소",신촌 토끼굴,
348,126.95821561122096,37.57306624034099,17807689,서울 서대문구 현저동 101,,,"여행 > 관광,명소 > 문화유적",서대문독립공원 독립관,서울 서대문구 통일로 251
349,126.95647111031,37.5984952346453,721606675,서울 종로구 홍지동 99-7,,,"여행 > 관광,명소 > 도보여행 > 밤을걷는밤",밤을 걷는 밤 5화(홍제천),
350,126.94362515378,37.6047354638126,18608021,서울 서대문구 홍은동 산 1-85,AT4,관광명소,"여행 > 관광,명소 > 전망대",옛성길전망대,
351,126.928001689655,37.5715884642118,782440716,서울 서대문구 연희동 108-3,,,"여행 > 관광,명소 > 샘터,약수터",장희빈 우물,서울 서대문구 연희로15길 74
352,126.955937127239,37.5745934990155,11139996,서울 서대문구 현저동 101,,,"여행 > 관광,명소 > 문화유적",서대문형무소역사관 지하옥사,서울 서대문구 통일로 251
353,126.947141933292,37.5769108502501,11076839,서울 서대문구 봉원동 산 1,,,"여행 > 관광,명소",무악산동봉수대터,
354,126.958333038018,37.5736068787531,17556728,서울 서대문구 현저동 101,,,"여행 > 관광,명소 > 문화유적 > 탑,비석",서대문독립공원 3.1운동기념탑,서울 서대문구 통일로 251
355,126.91407071619,37.5782465047563,8162484,서울 서대문구 북가좌동 73-19,,,"여행 > 관광,명소 > 문화유적 > 탑,비석",화산군 이연신도비,서울 서대문구 증가로23다길 26-5
356,126.959035340993,37.5727710013026,7935384,서울 서대문구 현저동,,,"여행 > 관광,명소 > 동상",서재필동상,
357,126.948200143682,37.5985315380494,8157641,서울 서대문구 홍은동 9-685,,,"여행 > 관광,명소 > 하천",홍제천,서울 서대문구 포방터길 40
358,126.939087571298,37.586352984971,24167976,서울 서대문구 홍제동,AT4,관광명소,"여행 > 관광,명소 > 산",고은산,
359,126.938413734024,37.5975609748638,765123080,서울 서대문구 홍은동 164-44,,,"여행 > 관광,명소 > 고개",산골고개,
360,126.953559536872,37.5970128955619,7899705,서울 서대문구 홍은동 8,,,"여행 > 관광,명소 > 문화유적",보도각,서울 서대문구 홍지문길 1-38
361,126.942870417703,37.5594664869105,688688681,서울 서대문구 신촌동 74-21,,,"여행 > 관광,명소 > 관광안내소",신촌관광안내센터,
362,126.923441893361,37.5806207658726,25031029,서울 서대문구 남가좌동 50-3,,,"여행 > 관광,명소 > 문화유적 > 탑,비석",양호거사비,서울 서대문구 거북골로 34
363,126.944854511401,37.5593872415555,775174364,서울 서대문구 대현동 33-9,AT4,관광명소,"여행 > 관광,명소 > 테마거리",이화52번가,서울 서대문구 이화여대길 52
364,126.94572029184368,37.55788387867568,2069722398,서울 서대문구 대현동 60-11,,,"여행 > 관광,명소 > 동상",평화의소녀상,
365,126.952188327342,37.5667894215443,782755031,서울 서대문구 북아현동 1-556,,,"여행 > 관광,명소 > 문화유적",복주우물터,서울 서대문구 북아현로24길 39
366,126.946304986833,37.5758292793197,25028506,서울 서대문구 봉원동 산 1,,,"여행 > 관광,명소 > 문화유적 > 유적지",무악동봉수대지,
367,126.962595355013,37.5594131157486,1727205167,서울 서대문구 충정로3가 414,,,"여행 > 관광,명소 > 동상",민영환선생동상,
368,126.939055461254,37.5868539203637,11951790,서울 서대문구 홍제1동,AT4,관광명소,"여행 > 관광,명소 > 산",수미산,
369,126.896211243867,37.5650560057921,17360653,서울 마포구 성산동 531,,,"여행 > 관광,명소 > 광장",평화광장,서울 마포구 월드컵로 243-48
370,126.962301650028,37.5515590263545,25042489,서울 마포구 아현동 393-35,,,"여행 > 관광,명소 > 고개",만리재,
371,126.953673519856,37.544636286448,1905401953,서울 마포구 공덕동,AT4,관광명소,"여행 > 관광,명소 > 테마거리 > 먹자골목",마포전골목,
372,126.953474222473,37.5448632598916,13302628,서울 마포구 공덕동 256-10,AT4,관광명소,"여행 > 관광,명소 > 테마거리 > 먹자골목",공덕시장족발골목,서울 마포구 만리재로 19
373,126.891267503138,37.580418919781,27103887,서울 마포구 상암동 1604,,,"여행 > 관광,명소 > 광장",상암문화광장,서울 마포구 성암로 255
374,126.904516007896,37.5498433728965,11080730,서울 마포구 합정동 457-1,,,"여행 > 관광,명소 > 문화유적",망원정 터,서울 마포구 동교로8안길 23
375,126.892401498248,37.5728155695483,8329496,서울 마포구 성산동 산 53-7,AT4,관광명소,"여행 > 관광,명소 > 산",매봉산,서울 마포구 증산로 87
376,126.950678989353,37.5418023314668,27389277,서울 마포구 도화동 169-3,AT4,관광명소,"여행 > 관광,명소 > 테마거리 > 먹자골목",마포갈매기골목,
377,126.902608278753,37.5514059474095,14080198,서울 마포구 망원동 218-7,AT4,관광명소,"여행 > 관광,명소 > 도보여행",망원 초록길,
378,126.895692851699,37.5634265483231,17562775,서울 마포구 성산동,AT4,관광명소,"여행 > 관광,명소 > 호수",평화의공원 난지연못,
379,126.887545751033,37.5800009760101,23815642,서울 마포구 상암동 1715,,,"여행 > 관광,명소 > 촬영지",어벤져스2 촬영지(상암동 DMC 월드컵 북로),
380,126.891693205506,37.55851071468,25731035,서울 마포구 상암동,,,"여행 > 관광,명소 > 하천",홍제천,
381,126.874230248237,37.5757780979085,17560035,서울 마포구 상암동 478-1,AT4,관광명소,"여행 > 관광,명소 > 섬",난지도,
382,126.941201488128,37.5415853568029,12576887,서울 마포구 용강동 45-15,AT4,관광명소,"여행 > 관광,명소 > 테마거리 > 먹자골목",마포음식문화거리,
383,126.955318329675,37.5568364371917,12710990,서울 마포구 아현동,AT4,관광명소,"여행 > 관광,명소 > 테마거리 > 먹자골목",아현동전골목,
384,126.883087187954,37.5845592732708,25681614,서울 마포구 상암동 879,,,"여행 > 관광,명소 > 문화유적 > 유적지",일본군관사,서울 마포구 가양대로 189
385,126.88933951752462,37.56741397719772,1458520823,서울 마포구 상암동 481-72,,,"여행 > 관광,명소",마포구 하늘공원 해맞이명소,
386,126.914288083984,37.5663859671922,25731036,서울 마포구 성산동,,,"여행 > 관광,명소 > 하천",홍제천,
387,126.947034935066,37.5553553761251,26646505,서울 마포구 염리동 9-245,AT4,관광명소,"여행 > 관광,명소 > 테마거리",소금길,
388,126.891708760926,37.5696578503051,27015192,서울 마포구 성산동,AT4,관광명소,"여행 > 관광,명소 > 드라이브코스",난지도길,
389,126.8998302704222,37.574891690976806,27425901,서울 마포구 상암동 1178-2,,,"여행 > 관광,명소 > 광장",코스타리카광장,
390,126.883601388748,37.5626151621147,673747630,서울 마포구 상암동 482-204,AT4,관광명소,"여행 > 관광,명소 > 숲",도영숲,
391,126.924924201177,37.5565687438278,898487564,서울 마포구 동교동 169-14,FD6,음식점,음식점 > 중식,손오공마라탕,서울 마포구 양화로18길 15
392,126.923721591937,37.5550254654997,726593676,서울 마포구 서교동 346-36,FD6,음식점,음식점 > 중식 > 중국요리,별자리마라탕 홍대점,서울 마포구 와우산로23길 50
393,126.92035194006,37.5523058314883,474254018,서울 마포구 서교동 369-26,FD6,음식점,음식점 > 중식 > 중국요리,손오공마라탕 서교점,서울 마포구 잔다리로6길 23
394,126.9152854529084,37.54924431762455,92793209,서울 마포구 서교동 394-93,FD6,음식점,음식점 > 중식,타오마라탕 합정,서울 마포구 양화로6길 19
395,126.917105014292,37.5534352498621,428490451,서울 마포구 서교동 377-2,FD6,음식점,음식점 > 중식 > 중국요리,라향각마라탕,서울 마포구 잔다리로 65
396,126.92488865079042,37.55590558718752,2080240948,서울 마포구 서교동 347-24,FD6,음식점,음식점 > 중식 > 중국요리,라사천마라탕 본점,서울 마포구 어울마당로 134
397,126.923992188627,37.5560275491419,1151327128,서울 마포구 동교동 164-19,FD6,음식점,음식점 > 중식,진화쿵푸마라탕 홍대본점,서울 마포구 홍익로6길 44
398,126.922377496465,37.5524612510941,2088827518,서울 마포구 서교동 358-38,FD6,음식점,음식점 > 중식,홍대 타오마라탕,서울 마포구 와우산로21길 28
399,126.922975950898,37.5537635848072,1614690024,서울 마포구 서교동 358-104,FD6,음식점,음식점 > 중식,탕화쿵푸마라탕 홍대입구7호점,서울 마포구 홍익로 15
400,126.923672248104,37.5545821428241,79986137,서울 마포구 서교동 346-51,FD6,음식점,음식점 > 중식,신선마라탕,서울 마포구 와우산로23길 40
401,126.936204952071,37.5571979669399,804042955,서울 서대문구 창천동 57-7,FD6,음식점,음식점 > 중식 > 중국요리,천궁전마라탕,서울 서대문구 연세로5가길 3
402,126.935906296478,37.5570473386552,2027326489,서울 서대문구 창천동 57-9,FD6,음식점,음식점 > 중식,신촌 타오마라탕,서울 서대문구 연세로5나길 6
403,126.92128804823192,37.552111843678574,7965408,서울 마포구 서교동 366-13,FD6,음식점,음식점 > 중식,소고산제일루 본점,서울 마포구 잔다리로6길 40-6
404,126.923019829018,37.555115109805,2103222834,서울 마포구 동교동 163-3,FD6,음식점,음식점 > 중식 > 양꼬치,킹콩크루2020뜻밖에양꼬치,서울 마포구 어울마당로 115
405,126.92339316158302,37.547510027919344,1319989885,서울 마포구 상수동 329-2,FD6,음식점,음식점 > 중식 > 중국요리,라와마라탕,서울 마포구 독막로 90
406,126.93604343597396,37.55814122358639,25691644,서울 서대문구 창천동 52-123,FD6,음식점,음식점 > 중식,호탕마라탕 신촌점,서울 서대문구 연세로7안길 14
407,126.92462550641248,37.55648205778569,579909560,서울 마포구 동교동 164-1,FD6,음식점,음식점 > 중식,마라공방 홍대입구역직영점,서울 마포구 양화로18길 12
408,126.934131955208,37.5567580430111,2140602239,서울 서대문구 창천동 62-23,FD6,음식점,음식점 > 중식,삼미마라탕,서울 서대문구 연세로5다길 26
409,126.9229525283125,37.55452941751344,1530756997,서울 마포구 서교동 345-23,FD6,음식점,음식점 > 중식 > 양꼬치,꼬치꼬치양꼬치,서울 마포구 어울마당로 110
410,126.920386172729,37.5499128036664,27225242,서울 마포구 서교동 404-7,FD6,음식점,음식점 > 중식 > 양꼬치,항방양육관 홍대점,서울 마포구 독막로9길 37
411,126.937133103003,37.5570696221774,358845777,서울 서대문구 창천동 18-10,FD6,음식점,음식점 > 중식,신룽푸마라탕 신촌점,서울 서대문구 연세로4길 1
412,126.92245521626567,37.55390740359369,1585292621,서울 마포구 서교동 358-72,FD6,음식점,음식점 > 중식 > 중국요리 > 라화쿵부,라화쿵부 홍대점,서울 마포구 어울마당로 102
413,126.920966215769,37.550379910418,381173653,서울 마포구 서교동 405-17,FD6,음식점,음식점 > 샤브샤브,슈츄안꼬치훠궈 홍대본점,서울 마포구 어울마당로 59
414,126.92473506172254,37.56008070973092,834186828,서울 마포구 동교동 150-20,FD6,음식점,음식점 > 중식,탕화쿵푸마라탕 홍대48호점,서울 마포구 양화로23길 40
415,126.923568928619,37.5538000100464,885524856,서울 마포구 서교동 486,FD6,음식점,음식점 > 중식,신룽푸 홍대지점,서울 마포구 홍익로 10
416,126.93368320957704,37.55484857825445,166042489,서울 마포구 노고산동 54-43,FD6,음식점,음식점 > 중식 > 중국요리,신촌마라탕,서울 마포구 신촌로12다길 19
417,126.924091716064,37.5560924849789,398739548,서울 마포구 동교동 164-20,FD6,음식점,음식점 > 중식,이가 산시도삭면,서울 마포구 홍익로6길 46
418,126.913947529843,37.5514958455625,1770874787,서울 마포구 서교동 490,FD6,음식점,음식점 > 중식,마라홀릭마라탕 합정점,서울 마포구 양화로 45
419,126.924744114332,37.5600825174948,1612796061,서울 마포구 동교동 150-20,FD6,음식점,음식점 > 중식 > 중국요리,탕화쿵푸마라탕 연남점,서울 마포구 양화로23길 40
420,126.926587650865,37.5625641216819,780523213,서울 마포구 연남동 227-20,FD6,음식점,음식점 > 중식 > 양꼬치,미미램양꼬치,서울 마포구 성미산로 196
421,126.919529698347,37.5486886673207,1987845443,서울 마포구 서교동 401-4,FD6,음식점,음식점 > 중식 > 중국요리 > 마라영웅,마라영웅 홍대점,서울 마포구 독막로9길 5
422,126.939163299213,37.54893467477978,1629334425,서울 마포구 신수동 10-2,FD6,음식점,음식점 > 중식 > 중국요리,세아마라탕 서강대점,서울 마포구 백범로 68
423,126.92935742903124,37.55519835943706,2110867044,서울 마포구 서교동 327-23,FD6,음식점,음식점 > 중식 > 중국요리 > 소림마라,소림마라 마포점,서울 마포구 와우산로29길 4-40
424,126.922153490882,37.5567471490066,1220427285,서울 마포구 동교동 158-9,FD6,음식점,음식점 > 중식 > 중국요리,정원각,서울 마포구 동교로 182-3
425,126.9241670326724,37.56217966827169,1973809044,서울 마포구 연남동 258-1,FD6,음식점,음식점 > 중식 > 중국요리,춘리마라탕 연남동점,서울 마포구 동교로 249
426,126.920640374059,37.548174047874,567846338,서울 마포구 상수동 317-10,FD6,음식점,음식점 > 중식,마라1983,서울 마포구 독막로 61-6
427,126.922165813443,37.5481633502594,90715375,서울 마포구 상수동 310-11,FD6,음식점,음식점 > 중식 > 중국요리,명월루,서울 마포구 와우산로 39-21
428,126.942451104985,37.5587085448211,1899809952,서울 서대문구 대현동 110-5,FD6,음식점,음식점 > 중식,마라탕 이대6호점,서울 서대문구 신촌역로 23
429,126.926414639729,37.5554956932619,1389365685,서울 마포구 서교동 332-8,FD6,음식점,음식점 > 중식 > 중국요리,일마일라 마포점,서울 마포구 와우산로29마길 16
430,126.93540676321231,37.5588544666413,580642361,서울 서대문구 창천동 52-157,FD6,음식점,음식점 > 중식 > 중국요리,미도매운향솥,서울 서대문구 연세로11길 25
431,126.916409399425,37.5490396910117,2133701280,서울 마포구 서교동 394-14,FD6,음식점,음식점 > 중식,소홍우,서울 마포구 양화로6길 39
432,126.917120340203,37.549815050716,307032568,서울 마포구 서교동 395-69,FD6,음식점,"음식점 > 술집 > 호프,요리주점",술82,서울 마포구 독막로3길 33-3
433,126.92419851134204,37.56238962064615,1012940590,서울 마포구 연남동 255-20,FD6,음식점,음식점 > 중식 > 양꼬치,서대문양꼬치BAR,서울 마포구 동교로 251
434,126.925836781582,37.5538915560486,11230411,서울 마포구 서교동 342-4,FD6,음식점,"음식점 > 간식 > 제과,베이커리",퐁포네뜨,서울 마포구 와우산로25길 11
435,126.92444748669554,37.55345098836486,15735327,서울 마포구 서교동 344-6,FD6,음식점,"음식점 > 간식 > 제과,베이커리",단하나케이크 홍대점,서울 마포구 와우산로23길 9
436,126.931320421684,37.54964036028,987555017,서울 마포구 창전동 450,FD6,음식점,"음식점 > 간식 > 제과,베이커리",프랑제리 피어 신촌점,서울 마포구 서강로 75-16
437,126.92094381805684,37.55979892305329,149766335,서울 마포구 연남동 568-15,FD6,음식점,"음식점 > 간식 > 제과,베이커리",코코로카라,서울 마포구 연남로1길 41
438,126.93257183817656,37.554868671756864,11831384,서울 마포구 동교동 186-22,FD6,음식점,"음식점 > 간식 > 제과,베이커리",김진환제과점,서울 마포구 와우산로32길 41
439,126.921283440833,37.557568281573,17908864,서울 마포구 동교동 201-48,FD6,음식점,"음식점 > 간식 > 제과,베이커리",빵나무,서울 마포구 월드컵북로4길 30
440,126.9272688897718,37.56153290237703,1165755646,서울 서대문구 창천동 448,FD6,음식점,"음식점 > 간식 > 제과,베이커리",만동제과,서울 서대문구 연희로 32
441,126.93028767919596,37.5552322492462,1674043860,서울 마포구 서교동 326-10,FD6,음식점,"음식점 > 간식 > 제과,베이커리",유니크디저트,서울 마포구 와우산로 159
442,126.92440006972784,37.558938932735614,27456816,서울 마포구 동교동 153-3,FD6,음식점,"음식점 > 간식 > 제과,베이커리",푸하하크림빵,서울 마포구 양화로19길 22-25
443,126.91711735242647,37.554557000563584,363670536,서울 마포구 서교동 464-12,FD6,음식점,"음식점 > 간식 > 제과,베이커리",포포브레드,서울 마포구 동교로18길 13
444,126.929924403787,37.5540129844547,14556077,서울 마포구 창전동 5-80,FD6,음식점,"음식점 > 간식 > 제과,베이커리",메이비케익,서울 마포구 와우산로30길 15
445,126.91771365466312,37.54848469108599,22251516,서울 마포구 합정동 412-1,FD6,음식점,"음식점 > 간식 > 제과,베이커리",마가렛리버,서울 마포구 양화로6길 66
446,126.925600509744,37.5593262229437,349304267,서울 마포구 동교동 147-59,FD6,음식점,"음식점 > 간식 > 제과,베이커리",베어스덴베이커리,서울 마포구 양화로23길 10-9
447,126.93279792408256,37.55515711986787,25490034,서울 마포구 노고산동 54-58,FD6,음식점,"음식점 > 간식 > 제과,베이커리",더브레드블루 신촌본점,서울 마포구 신촌로12다길 3
448,126.93271830120212,37.54553261106109,19901155,서울 마포구 구수동 70-3,FD6,음식점,"음식점 > 간식 > 제과,베이커리",퍼블리크 광흥창점,서울 마포구 토정로 195
449,126.92068463815173,37.55979694723278,1254879622,서울 마포구 연남동 565-19,FD6,음식점,"음식점 > 간식 > 제과,베이커리",터틀힙,서울 마포구 연남로1길 44
450,126.919987358486,37.5503558252235,74952388,서울 마포구 서교동 395-199,FD6,음식점,"음식점 > 간식 > 제과,베이커리",벨라쿠키 본점,서울 마포구 독막로7길 57
451,126.922055888985,37.5461405356738,2070016590,서울 마포구 상수동 334-13,FD6,음식점,"음식점 > 간식 > 제과,베이커리",코운코운,서울 마포구 와우산로3길 16
452,126.923695687227,37.5537928840494,1559582886,서울 마포구 서교동 486,FD6,음식점,"음식점 > 간식 > 제과,베이커리",서교동언니네,서울 마포구 홍익로 10
453,126.921848562175,37.5496272631616,1283694575,서울 마포구 서교동 409-6,FD6,음식점,"음식점 > 간식 > 제과,베이커리",수상한베이글,서울 마포구 와우산로15길 22
454,126.92388541273878,37.55530037545101,12068956,서울 마포구 서교동 346-41,FD6,음식점,"음식점 > 간식 > 제과,베이커리",내가만든미케익 홍대점,서울 마포구 어울마당로 122
455,126.918395613234,37.5550912814525,548571054,서울 마포구 서교동 463-23,FD6,음식점,"음식점 > 간식 > 제과,베이커리",고요베이크샵,서울 마포구 동교로 144-3
456,126.92501288348846,37.557293201946585,183124871,서울 마포구 동교동 166-15,FD6,음식점,"음식점 > 간식 > 제과,베이커리 > 와플대학",와플대학 홍대캠퍼스,서울 마포구 양화로 176
457,126.92318562252458,37.54795228341305,8121857,서울 마포구 상수동 309-9,FD6,음식점,"음식점 > 간식 > 제과,베이커리 > 파리바게뜨",파리바게뜨 상수점,서울 마포구 와우산로 40
458,126.92166058935088,37.548660367327145,529125309,서울 마포구 상수동 312-6,FD6,음식점,"음식점 > 간식 > 제과,베이커리",뮤르뮤르,서울 마포구 와우산로11길 25
459,126.916973134796,37.5488770080358,1941328839,서울 마포구 서교동 396-33,FD6,음식점,"음식점 > 간식 > 제과,베이커리",너구리베이글,서울 마포구 양화로6길 49
460,126.921501748571,37.5479746019673,671282729,서울 마포구 상수동 315-6,FD6,음식점,"음식점 > 간식 > 제과,베이커리",피스오브헤븐,서울 마포구 독막로 73
461,126.926281192552,37.5530989563297,1616141932,서울 마포구 창전동 6-177,FD6,음식점,"음식점 > 간식 > 제과,베이커리",테일샵,서울 마포구 와우산로 116
462,126.916541099571,37.549668681005,531359897,서울 마포구 서교동 395-200,FD6,음식점,"음식점 > 간식 > 제과,베이커리",395빵집,서울 마포구 양화로8길 25-3
463,126.92458910785705,37.55890932072822,152847326,서울 마포구 동교동 154-27,FD6,음식점,"음식점 > 간식 > 제과,베이커리",크레미뇽,서울 마포구 양화로19길 22-20
464,126.92402213765496,37.55997033150569,1091899376,서울 마포구 동교동 152-1,FD6,음식점,"음식점 > 간식 > 제과,베이커리",버터베이커리,서울 마포구 동교로 226
465,126.924472523465,37.5555557347446,232717751,서울 마포구 서교동 346-18,FD6,음식점,"음식점 > 간식 > 제과,베이커리",필로베이커리,서울 마포구 홍익로2길 27-22
466,126.919585042823,37.5498401809294,940579521,서울 마포구 서교동 395,FD6,음식점,"음식점 > 간식 > 제과,베이커리",케이크예스플리즈,서울 마포구 독막로7길 45
467,126.91562027792412,37.5614134283827,7855455,서울 마포구 성산동 114-5,FD6,음식점,"음식점 > 간식 > 제과,베이커리",리치몬드과자점 성산본점,서울 마포구 월드컵북로 86
468,126.923693455046,37.5537622486853,67765586,서울 마포구 서교동 486,FD6,음식점,"음식점 > 간식 > 제과,베이커리 > 뚜레쥬르",뚜레쥬르 마포홍대점,서울 마포구 홍익로 10
469,126.91507421355264,37.54591948108207,1699002931,서울 마포구 합정동 368-7,FD6,음식점,"음식점 > 간식 > 제과,베이커리",츄이구이브레드,서울 마포구 토정로3안길 18
470,126.926034562537,37.5461466988897,26825578,서울 마포구 상수동 402,FD6,음식점,"음식점 > 간식 > 제과,베이커리 > 뚜레쥬르",뚜레쥬르 마포밤섬점,서울 마포구 독막로20나길 22
471,126.923839550703,37.550322332801,1191758167,서울 마포구 상수동 86-48,FD6,음식점,"음식점 > 간식 > 제과,베이커리",로멘토케이크,서울 마포구 와우산로14길 16
472,126.92960678908452,37.55479486146822,280609846,서울 마포구 서교동 327-38,FD6,음식점,"음식점 > 간식 > 제과,베이커리",로지네,서울 마포구 와우산로29길 4-6
473,126.915940372535,37.5505187971911,1690789157,서울 마포구 서교동 395-46,FD6,음식점,"음식점 > 간식 > 제과,베이커리",라망베이커리,서울 마포구 양화로8길 5
474,126.93274106233916,37.55546342664262,1271049597,서울 마포구 노고산동 54-76,FD6,음식점,"음식점 > 간식 > 제과,베이커리",준삐삐,서울 마포구 신촌로12길 19
475,126.925707694569,37.560803925094,1963942486,서울 마포구 연남동 381-6,FD6,음식점,"음식점 > 간식 > 제과,베이커리",리틀빅토리,서울 마포구 연희로1길 41
476,126.919510900416,37.5472272348441,357984506,서울 마포구 합정동 356-1,FD6,음식점,"음식점 > 간식 > 제과,베이커리",럭키니키케이키,서울 마포구 어울마당로 21
477,126.928449528675,37.5578305268623,1875051104,서울 마포구 동교동 174-3,FD6,음식점,"음식점 > 간식 > 제과,베이커리",공룡빵공장,서울 마포구 신촌로 20
478,126.924553199237,37.5608482428255,851863430,서울 마포구 연남동 260-52,FD6,음식점,음식점 > 양식,연남동느루,서울 마포구 동교로32길 3
479,126.925399176717,37.5569294437856,701185756,서울 마포구 동교동 168,,,"가정,생활 > 미용 > 메이크업",뷰티하우스느루,서울 마포구 양화로18안길 15
480,126.933511757956,37.556754091405,164265405,서울 서대문구 창천동 72-24,FD6,음식점,"음식점 > 술집 > 호프,요리주점",살롱드느루,서울 서대문구 신촌로 61-6
481,126.924006340425,37.5510071988729,937023459,서울 마포구 서교동 360-18,,,"문화,예술 > 사진 > 사진관,포토스튜디오",공간느루,서울 마포구 와우산로18길 20
482,126.924552986639,37.5610590758941,1629395786,서울 마포구 연남동 260-31,FD6,음식점,음식점 > 양식 > 피자,뉴오더클럽,서울 마포구 동교로34길 3
483,126.923611580691,37.565231885238,607192266,서울 마포구 연남동 240-2,FD6,음식점,"음식점 > 양식 > 멕시칸,브라질",갓잇 연남점,서울 마포구 성미산로 161-13
484,126.92580901460131,37.56135179473061,1900893477,서울 마포구 연남동 390-42,FD6,음식점,음식점 > 양식,슬로우캘리 연남본점,서울 마포구 동교로38길 35
485,126.92543970172788,37.56282739423665,1146767160,서울 마포구 연남동 387-13,FD6,음식점,"음식점 > 양식 > 멕시칸,브라질",베르데,서울 마포구 동교로 262-6
486,126.925924064371,37.5617519094233,490712494,서울 마포구 연남동 390-32,FD6,음식점,음식점 > 양식,유니의우아한식탁,서울 마포구 동교로38길 27-8
487,126.926204551543,37.5619611162527,166864436,서울 마포구 연남동 383-44,FD6,음식점,음식점 > 양식,다옴383,서울 마포구 동교로38길 27-14
488,126.925796388162,37.5626708455913,644643256,서울 마포구 연남동 387-8,FD6,음식점,음식점 > 양식,오늘그대와 연남점,서울 마포구 동교로 262-13
489,126.92416729750686,37.5619183794769,223022276,서울 마포구 연남동 258-5,FD6,음식점,음식점 > 양식 > 피자,랫댓 연남점,서울 마포구 동교로 243-4
490,126.92357858001144,37.56208017923789,668213144,서울 마포구 연남동 257-8,FD6,음식점,음식점 > 양식,알척,서울 마포구 성미산로26길 43
491,126.926852202103,37.5617128442552,940180095,서울 마포구 연남동 383-93,FD6,음식점,음식점 > 양식 > 햄버거,제스티살룬 연남,서울 마포구 연희로 31
492,126.9246508099202,37.56282328941336,1137259132,서울 마포구 연남동 229-56,FD6,음식점,음식점 > 양식,빠레뜨한남 연남점,서울 마포구 동교로 257
493,126.924827980531,37.5622233387745,748126921,서울 마포구 연남동 390-68,FD6,음식점,음식점 > 양식,비스트로가마,서울 마포구 동교로38안길 10
494,126.9253444821334,37.56183804002488,1071904779,서울 마포구 연남동 390-3,FD6,음식점,음식점 > 양식,여덟,서울 마포구 동교로38길 22
495,126.926095351068,37.5625124577519,1943501077,서울 마포구 연남동 227-31,FD6,음식점,음식점 > 양식,위아소울메이트,서울 마포구 성미산로 190-11
496,126.920476150941,37.5653433404023,1114171690,서울 마포구 연남동 246-4,FD6,음식점,음식점 > 양식,르빵드파리&브런치하우스,서울 마포구 성미산로23길 46
497,126.925895925994,37.5627357798453,966908217,서울 마포구 연남동 387-7,FD6,음식점,음식점 > 양식 > 피자,윌슨피자,서울 마포구 성미산로 190-8
498,126.92471225829,37.5647460544366,19033847,서울 마포구 연남동 223-111,FD6,음식점,음식점 > 양식 > 이탈리안,티앤제인,서울 마포구 성미산로 165-6
499,126.926389891736,37.5622459468252,27343731,서울 마포구 연남동 385-1,FD6,음식점,음식점 > 양식 > 이탈리안,이관우파스타,서울 마포구 동교로46길 29
500,126.926059449202,37.5621916805567,1156253934,서울 마포구 연남동 384-3,FD6,음식점,음식점 > 양식,퍼밀,서울 마포구 동교로46길 26
501,126.92545797026932,37.561531772923736,1914067588,서울 마포구 연남동 382-27,FD6,음식점,음식점 > 양식 > 이탈리안,봄띠,서울 마포구 동교로38길 30
502,126.92709858931858,37.56207339523575,27440353,서울 마포구 연남동 227-37,FD6,음식점,"음식점 > 양식 > 멕시칸,브라질",연남오락실,서울 마포구 연희로 37
503,126.92537674751972,37.56353193354151,1485788869,서울 마포구 연남동 229-67,FD6,음식점,음식점 > 양식 > 피자,아노브피자 연남점,서울 마포구 동교로 267
504,126.926365174027,37.562060326148,968735144,서울 마포구 연남동 384-8,FD6,음식점,음식점 > 양식,계담다,서울 마포구 동교로38길 33-20
505,126.92636134726172,37.561348536530176,28668288,서울 마포구 연남동 383-23,FD6,음식점,음식점 > 양식,카멜로연남,서울 마포구 연희로1길 57
506,126.922017629883,37.5654831220153,1254127144,서울 마포구 연남동 241-48,FD6,음식점,음식점 > 양식,쥬벤쿠바 연남,서울 마포구 성미산로29길 34
507,126.925593430815,37.5618922569663,779711057,서울 마포구 연남동 390-23,FD6,음식점,음식점 > 양식 > 피자,플롭 연남,서울 마포구 동교로38길 27-9
508,126.926885357823,37.5636887497776,214684112,서울 마포구 연남동 224-5,FD6,음식점,음식점 > 양식,위샐러듀 다이닝,서울 마포구 동교로52길 10-7
509,126.926552286409,37.5616937371346,1994358695,서울 마포구 연남동 383-96,FD6,음식점,음식점 > 양식,헤이죠지,서울 마포구 동교로46길 42-24
510,126.925793183392,37.5613373688367,1920255869,서울 마포구 연남동 390-42,FD6,음식점,음식점 > 양식,수부니흐,서울 마포구 동교로38길 35
511,126.92404966945485,37.56183721418549,556349569,서울 마포구 연남동 258-10,FD6,음식점,음식점 > 양식 > 피자,백스트리트피자,서울 마포구 동교로 245
512,126.9169171174168,37.56671671002696,1908121915,서울 마포구 연남동 487-424,FD6,음식점,음식점 > 양식 > 피자,문일리,서울 마포구 연남로13길 9
513,126.919983848195,37.5663395091564,260492980,서울 마포구 연남동 454-12,FD6,음식점,음식점 > 양식,젠틀키친,서울 마포구 동교로51길 129-4
514,126.92509959930848,37.56224513531539,513056953,서울 마포구 연남동 390-98,FD6,음식점,음식점 > 양식,가스트로스페인,서울 마포구 동교로38안길 18
515,126.925725667636,37.560940887888,2036858666,서울 마포구 연남동 382-2,FD6,음식점,음식점 > 양식,서양면옥 연남,서울 마포구 연희로1길 43
516,126.924634764451,37.5652685826626,1346842263,서울 마포구 연남동 223-26,FD6,음식점,음식점 > 양식,풀스트릿,서울 마포구 동교로51안길 16
517,126.92450722848,37.5615401788009,1221938697,서울 마포구 연남동 260-60,FD6,음식점,음식점 > 양식 > 이탈리안,비스트로오라,서울 마포구 동교로 244
518,126.926250451806,37.5613250414015,1707839290,서울 마포구 연남동 383-72,FD6,음식점,음식점 > 양식,해브,서울 마포구 연희로1길 55
519,126.92583634916542,37.56232128410802,544262752,서울 마포구 연남동 385-12,FD6,음식점,음식점 > 양식 > 이탈리안,문,서울 마포구 동교로46길 21
520,126.92333846634138,37.55340342164401,19182865,서울 마포구 서교동 358-151,CE7,카페,"가정,생활 > 여가시설 > 보드카페",보드놀이터,서울 마포구 홍익로 9-1
521,126.92184598443768,37.55209599632931,13623634,서울 마포구 서교동 364-22,CE7,카페,"가정,생활 > 여가시설 > 보드카페",히어로보드게임카페 홍대1호점,서울 마포구 와우산로21길 31-10
522,126.922613551217,37.5540084192114,953386352,서울 마포구 서교동 358-1,CE7,카페,"가정,생활 > 여가시설 > 보드카페",레드버튼 홍대점,서울 마포구 홍익로 19
523,126.92069987140115,37.551830338761405,1748850413,서울 마포구 서교동 366-7,CE7,카페,"가정,생활 > 여가시설 > 보드카페",플레이보드 홍대2호점,서울 마포구 잔다리로6길 20-9
524,126.92270270334448,37.55534916196303,205320302,서울 마포구 동교동 162-3,CE7,카페,"가정,생활 > 여가시설 > 보드카페",히어로보드게임카페 홍대2호점,서울 마포구 홍익로6길 15
525,126.9200547343,37.5508460138583,1797709079,서울 마포구 서교동 395-91,CE7,카페,"가정,생활 > 여가시설 > 보드카페",메이드보드게임카페,서울 마포구 잔다리로 25
526,126.922058874058,37.5541414020202,1493237095,서울 마포구 서교동 356-3,CE7,카페,"가정,생활 > 여가시설 > 보드카페",보드게임카페 홈즈앤루팡 홍대점,서울 마포구 홍익로3길 8
527,126.923358385336,37.5549495465089,32375674,서울 마포구 서교동 345-6,CE7,카페,"가정,생활 > 여가시설 > 보드카페",데블다이스 보드게임카페 홍대점,서울 마포구 어울마당로 116
528,126.920986288615,37.5517332229897,2138696750,서울 마포구 서교동 366-24,CE7,카페,"가정,생활 > 여가시설 > 보드카페",더조커,서울 마포구 잔다리로2길 19
529,126.919056187794,37.5491406448805,1164881726,서울 마포구 서교동 400-3,CE7,카페,"가정,생활 > 여가시설 > 보드카페",에이스보드카페,서울 마포구 독막로7길 27
530,126.922932640254,37.5518624511108,578409420,서울 마포구 서교동 362-15,CE7,카페,"가정,생활 > 여가시설 > 보드카페",캐슬에이 홀덤펍,서울 마포구 와우산로21길 19-11
531,126.923114375754,37.5556197299792,928674039,서울 마포구 동교동 162-10,CE7,카페,"가정,생활 > 여가시설 > 보드카페",레끄레오 보드게임카페,서울 마포구 홍익로6길 27
532,126.92156608081,37.5513768143316,2129451774,서울 마포구 서교동 364-15,CE7,카페,"가정,생활 > 여가시설 > 보드카페",보드팩토리,서울 마포구 어울마당로 70
533,126.917426992209,37.5488115534063,1539188192,서울 마포구 서교동 396-36,CE7,카페,"가정,생활 > 여가시설 > 보드카페",크라임씬카페 코티지가든,서울 마포구 양화로6길 57
534,126.93713158887188,37.5561776340198,1520672825,서울 서대문구 창천동 18-31,CE7,카페,"가정,생활 > 여가시설 > 보드카페",레드버튼 신촌점,서울 서대문구 연세로 8
535,126.920869752594,37.5506375312911,27503326,서울 마포구 서교동 405-3,CE7,카페,"가정,생활 > 여가시설 > 보드카페",친구네놀이터,서울 마포구 잔다리로 19
536,126.922287992741,37.5536478063183,27432787,서울 마포구 서교동 358-67,CE7,카페,"가정,생활 > 여가시설 > 보드카페",슈퍼보드 홍대점,서울 마포구 어울마당로 98
537,126.921799223707,37.5502759492492,1682136811,서울 마포구 서교동 407-17,CE7,카페,"가정,생활 > 여가시설 > 보드카페",네가오길기다려(NEO),서울 마포구 와우산로17길 22
538,126.9215129684058,37.54806651127886,1963237992,서울 마포구 상수동 315-7,CE7,카페,"가정,생활 > 여가시설 > 보드카페",혼자놀다가게,서울 마포구 와우산로13길 49-15
539,126.916754301364,37.5553667418866,242934803,서울 마포구 서교동 461-2,CE7,카페,"가정,생활 > 여가시설 > 보드카페",카페깔깔고블린,서울 마포구 동교로17안길 10
540,126.923458998284,37.5550577314748,25161316,서울 마포구 서교동 345-2,CE7,카페,"가정,생활 > 여가시설 > 보드카페",보드스쿨 홍대점,서울 마포구 어울마당로 118
541,126.924918382246,37.5589843133212,1427819259,서울 마포구 동교동 154-2,CE7,카페,"가정,생활 > 여가시설 > 보드카페",빌보드게임카페,서울 마포구 양화로21길 17
542,126.93720137441,37.5566335758204,1280112931,서울 서대문구 창천동 18-21,CE7,카페,"가정,생활 > 여가시설 > 보드카페",보드게임카페홈즈앤루팡 신촌점,서울 서대문구 연세로 12
543,126.925924774434,37.5610347166227,1623819755,서울 마포구 연남동 383-38,CE7,카페,"가정,생활 > 여가시설 > 보드카페",옐로우미플,서울 마포구 연희로1길 45
544,126.922954890188,37.5566323470176,1069305489,서울 마포구 동교동 159-6,CE7,카페,"가정,생활 > 여가시설 > 보드카페",302호보드게임,서울 마포구 양화로 157
545,126.936100971775,37.5570321272192,1653896730,서울 서대문구 창천동 57-8,CE7,카페,"가정,생활 > 여가시설 > 보드카페",데블다이스 보드게임카페 신촌점,서울 서대문구 연세로5가길 1
546,126.92135449681,37.5502630399028,590125213,서울 마포구 서교동 407-20,CE7,카페,"가정,생활 > 여가시설 > 보드카페",순애네놀이터,서울 마포구 어울마당로 58-1
547,126.917808525771,37.5517454697197,27600013,서울 마포구 서교동 395-138,CE7,카페,"가정,생활 > 여가시설 > 보드카페",모두다,서울 마포구 양화로12길 8-5
548,126.937943686926,37.5581386336446,1968719466,서울 서대문구 창천동 31-80,CE7,카페,"가정,생활 > 여가시설 > 보드카페",히어로보드게임카페 신촌점,서울 서대문구 명물길 23
549,126.935110056722,37.5564504435283,1762106314,서울 서대문구 창천동 62-63,CE7,카페,"가정,생활 > 여가시설 > 보드카페",잭홀덤보드카페,서울 서대문구 연세로5다길 8
550,126.930368345527,37.5548953237689,1509771693,서울 마포구 서교동 325-26,CE7,카페,"가정,생활 > 여가시설 > 보드카페",호호보드카페,서울 마포구 와우산로 156
551,126.937404522804,37.5573112336432,15730796,서울 서대문구 창천동 18-5,CE7,카페,"가정,생활 > 여가시설 > 보드카페",펀타임,서울 서대문구 명물길 6
552,126.93753120784,37.5573977964704,15326532,서울 서대문구 창천동 18-1,CE7,카페,"가정,생활 > 여가시설 > 보드카페",펀까페,서울 서대문구 명물길 10
553,126.906260362862,37.5584916438574,1641973542,서울 마포구 망원동 517,CE7,카페,"가정,생활 > 여가시설 > 보드카페",우리들의아지트,서울 마포구 월드컵로25길 26
554,126.946422428999,37.5382973893265,981124778,서울 마포구 도화동 55,CE7,카페,"가정,생활 > 여가시설 > 보드카페",위너보드카페,서울 마포구 마포대로4길 30-3
555,126.94644599341471,37.53857220505966,26466301,서울 마포구 도화동 290-10,CE7,카페,"가정,생활 > 여가시설 > 보드카페",아수라발발타,서울 마포구 마포대로4나길 7
556,126.925225466544,37.5767314175042,1882775295,서울 서대문구 남가좌동 339-29,CE7,카페,"가정,생활 > 여가시설 > 보드카페",텍사스홀펍,서울 서대문구 증가로 110
557,126.956850955056,37.5525122182901,735087985,서울 마포구 아현동 733,,,"서비스,산업 > 전문대행 > 공간대여 > 모임공간",잔머리보드게임동호회,서울 마포구 마포대로 208
558,126.92125755712593,37.55312634693567,1010403615,서울 마포구 서교동 357-5,CE7,카페,"가정,생활 > 여가시설 > 만화방 > 만화카페 > 놀숲",놀숲플러스 홍대점,서울 마포구 양화로16길 29
559,126.9200776253952,37.55060456185311,354755930,서울 마포구 서교동 395-18,CE7,카페,"가정,생활 > 여가시설 > 만화방 > 만화카페 > 벌툰",벌툰 인더스트리얼 홍대본점,서울 마포구 독막로7길 63
560,126.925146143059,37.5564499530999,2134411175,서울 마포구 동교동 169-11,CE7,카페,"가정,생활 > 여가시설 > 만화방 > 만화카페 > 벌툰",벌툰 봉화당 홍대입구역점,서울 마포구 어울마당로 137
561,126.936182159363,37.5573826590523,864693294,서울 서대문구 창천동 57-42,CE7,카페,"가정,생활 > 여가시설 > 만화방 > 만화카페 > 벌툰",벌툰 플레이플러스 신촌직영점,서울 서대문구 연세로5가길 8-3
562,126.91511722948697,37.54790170913903,1040119941,서울 마포구 합정동 366-1,CE7,카페,음식점 > 카페,디벙크,서울 마포구 성지1길 30
563,126.922283611876,37.5535072477912,22614688,서울 마포구 서교동 358-113,CE7,카페,음식점 > 카페 > 테마카페 > 북카페,카페데코믹스 홍대점,서울 마포구 어울마당로 96
564,127.029172508239,37.4997682318263,2104936093,서울 강남구 역삼동 818-7,FD6,음식점,음식점 > 중식,하우마라탕,서울 강남구 강남대로94길 23
565,127.027092198454,37.5012427730862,1665040674,서울 강남구 역삼동 619-17,FD6,음식점,음식점 > 중식 > 중국요리,중경마라탕 강남역점,서울 강남구 테헤란로1길 44
566,127.03146302237012,37.49546533816528,503470628,서울 강남구 역삼동 827-23,FD6,음식점,음식점 > 중식,중경마라탕 강남2호점,서울 강남구 강남대로78길 27
567,127.051152060935,37.5255871406778,170704200,서울 강남구 청담동 126-7,FD6,음식점,음식점 > 중식,텐파마라탕마라샹꿔,서울 강남구 압구정로79길 49
568,127.038006335988,37.5028381500887,1221274774,서울 강남구 역삼동 670-22,FD6,음식점,음식점 > 중식,양궈푸마라탕 역삼1호점,서울 강남구 논현로94길 21
569,127.028032606094,37.5240631871066,1249229389,서울 강남구 신사동 583-3,FD6,음식점,음식점 > 중식,신룽푸마라탕 압구정점,서울 강남구 논현로 841
570,127.03654333962912,37.50257795078648,23999472,서울 강남구 역삼동 668-14,FD6,음식점,음식점 > 중식,불이아 역삼점,서울 강남구 논현로 514
571,127.021228628773,37.5140166183827,980076754,서울 강남구 논현동 21-16,FD6,음식점,음식점 > 중식,인량 훠궈,서울 강남구 강남대로140길 9
572,127.03819201119605,37.52542986230018,7894375,서울 강남구 신사동 655,FD6,음식점,음식점 > 중식,벽돌해피푸드 압구정점,서울 강남구 도산대로51길 36
573,127.060410590382,37.49906711788,1528437436,서울 강남구 대치동 941-18,FD6,음식점,음식점 > 중식,칠리향마라탕,서울 강남구 삼성로 301
574,127.034537102211,37.4989847118902,820425243,서울 강남구 역삼동 736-18,FD6,음식점,음식점 > 중식,룽푸청마라탕,서울 강남구 테헤란로20길 11
575,127.03852900357693,37.52737862024652,1068851079,서울 강남구 신사동 662-8,FD6,음식점,음식점 > 중식 > 양꼬치,심양 청담본점,서울 강남구 선릉로161길 21
576,127.026336887857,37.5016429905049,1087348768,서울 강남구 역삼동 814-6,FD6,음식점,음식점 > 중식 > 중국요리,춘리마라탕 강남CGV직영점,서울 강남구 강남대로 438
577,127.029293847769,37.4977283235671,146674691,서울 강남구 역삼동 825-20,FD6,음식점,음식점 > 중식 > 중국요리,라공방 강남1호 본점,서울 강남구 테헤란로4길 6
578,127.06257825973316,37.50692005468687,27162373,서울 강남구 대치동 950-1,FD6,음식점,음식점 > 중식 > 중국요리,하이보 삼성점,서울 강남구 영동대로85길 13
579,127.021831438363,37.5176565634005,1920793522,서울 강남구 신사동 514-6,FD6,음식점,음식점 > 중식,샤오당자마라탕,서울 강남구 강남대로152길 30
580,127.05330968673734,37.49893268174118,1503712422,서울 강남구 대치동 923-7,FD6,음식점,음식점 > 중식 > 중국요리,탕화쿵푸마라탕 대치점,서울 강남구 선릉로64길 15-14
581,127.058353311423,37.4988041571995,199819878,서울 강남구 대치동 940-6,FD6,음식점,음식점 > 중식 > 중국요리,칠리향마라탕 대치점,서울 강남구 도곡로77길 7
582,127.03664711711936,37.50318546673852,1756288824,서울 강남구 역삼동 668-10,FD6,음식점,음식점 > 중식,마라공방 역삼점,서울 강남구 봉은사로30길 68
583,127.040552256334,37.5219800381284,10354253,서울 강남구 청담동 22-20,FD6,음식점,음식점 > 퓨전요리 > 퓨전중식,마오 청담동점,서울 강남구 도산대로56길 17
584,127.086016438243,37.4905592609128,746417823,서울 강남구 일원동 645-3,FD6,음식점,음식점 > 중식 > 중국요리,일원동마라탕,서울 강남구 일원로9길 56
585,127.0343710841,37.4945328868028,58076502,서울 강남구 역삼동 751-18,FD6,음식점,음식점 > 중식 > 중국요리,라1품마라탕,서울 강남구 역삼로 135
586,127.05258477117307,37.50373987270777,1248783914,서울 강남구 대치동 896-25,FD6,음식점,음식점 > 중식 > 중국요리,빠완,서울 강남구 선릉로86길 34
587,127.026613044893,37.5022411964674,840177469,서울 강남구 역삼동 813-16,FD6,음식점,음식점 > 중식 > 양꼬치,무한숯불양꼬치,서울 강남구 봉은사로2길 37
588,127.02839685650788,37.50013963533893,1336266407,서울 강남구 역삼동 817-21,FD6,음식점,음식점 > 중식 > 중국요리,용용선생 강남역점,서울 강남구 강남대로96길 17
589,127.026336887857,37.5016429905049,905257581,서울 강남구 역삼동 814-6,FD6,음식점,음식점 > 중식,신룽푸마라탕 강남역점,서울 강남구 강남대로 438
590,127.027417434108,37.4999632695196,1201719127,서울 강남구 역삼동 816-5,FD6,음식점,음식점 > 중식,라공방 강남2호 본점,서울 강남구 테헤란로1길 25
591,127.02222557783423,37.519325147967926,814557849,서울 강남구 신사동 517-27,FD6,음식점,음식점 > 중식,라공방 가로수길본점,서울 강남구 도산대로11길 29
592,127.023499184678,37.5081497487625,961301924,서울 강남구 논현동 164-15,FD6,음식점,음식점 > 중식 > 중국요리,용용선생 논현점,서울 강남구 학동로2길 54
593,127.02184954537,37.5176853921613,1492101227,서울 강남구 신사동 514-6,FD6,음식점,음식점 > 중식,샤오당쟈마라탕,서울 강남구 강남대로152길 30
594,127.0358637060336,37.50624642238061,2115726266,서울 강남구 역삼동 657-8,FD6,음식점,음식점 > 중식 > 중국요리,동방미식,서울 강남구 논현로106길 18
595,127.06258374756,37.4945249139595,1539590847,서울 강남구 대치동 599,FD6,음식점,음식점 > 중식,이소룡마라탕,서울 강남구 남부순환로 2947
596,127.050487518071,37.5030461124264,236152470,서울 강남구 대치동 897-8,FD6,음식점,음식점 > 중식 > 중국요리,마라테이블,서울 강남구 선릉로86길 8
597,127.03866246732568,37.52512697248884,261977761,서울 강남구 신사동 655-6,FD6,음식점,음식점 > 중식,마르르,서울 강남구 도산대로53길 29
598,127.035044468822,37.5102291095786,1464953853,서울 강남구 논현동 226,FD6,음식점,음식점 > 중식,딘딘향마라탕 논현점,서울 강남구 봉은사로33길 34
599,127.057259022099,37.5111754946815,1528769880,서울 강남구 삼성동 153-30,FD6,음식점,음식점 > 중식,불이아 삼성점,서울 강남구 테헤란로87길 55
600,127.026852000975,37.5252617945195,1712079660,서울 강남구 신사동 577-9,FD6,음식점,음식점 > 중식 > 양꼬치,마봉양꼬치 압구정점,서울 강남구 압구정로28길 22-10
601,127.03262432200812,37.5083223759132,1798611425,서울 강남구 논현동 192-1,FD6,음식점,음식점 > 중식 > 중국요리,황비홍마라탕 논현점,서울 강남구 논현로113길 7
602,127.023566084467,37.508689437321,1603931155,서울 강남구 논현동 163-3,FD6,음식점,음식점 > 중식 > 중국요리,위징쉔,서울 강남구 학동로2길 45
603,127.04061314572309,37.51744256583398,1994472691,서울 강남구 논현동 119,FD6,음식점,음식점 > 중식,홍리마라탕 강남구청점,서울 강남구 학동로 343
604,127.029284060776,37.5189956436803,26852976,서울 강남구 논현동 66-3,FD6,음식점,음식점 > 중식 > 중국요리,항차이,서울 강남구 논현로150길 8
605,127.0350327030447,37.494731814985386,1144565338,서울 강남구 역삼동 751-14,FD6,음식점,음식점 > 중식,안기덮밥마라탕,서울 강남구 역삼로 143
606,127.02011824355232,37.51958050960207,1947749247,서울 강남구 신사동 507-7,FD6,음식점,음식점 > 중식 > 중국요리,소각,서울 강남구 강남대로160길 17
607,127.059763420215,37.508615401387,457062631,서울 강남구 삼성동 159-7,FD6,음식점,음식점 > 중식,왕푸징마라탕 현대백화점 무역센터점,서울 강남구 테헤란로 517
608,127.052204699105,37.5036364256564,1203047059,서울 강남구 대치동 896-16,FD6,음식점,음식점 > 중식 > 중국요리,정통마라탕 마포마라회관 선릉점,서울 강남구 선릉로86길 30
609,127.02472769605887,37.51911561789681,714223410,서울 강남구 신사동 540-18,FD6,음식점,음식점 > 샐러드,칙피스 가로수길점,서울 강남구 강남대로152길 69
610,127.03491330165164,37.4981601805423,2059181146,서울 강남구 역삼동 740,FD6,음식점,음식점 > 샐러드,헤이그린스 샐러드카페 역삼점,서울 강남구 테헤란로20길 25
611,127.05563591989892,37.50809483479783,1587302731,서울 강남구 삼성동 144-14,FD6,음식점,음식점 > 샐러드,슬로우캘리 삼성점,서울 강남구 삼성로 517
612,127.024620329739,37.5194084663525,1450978661,서울 강남구 신사동 540-5,FD6,음식점,음식점 > 샐러드 > 포케올데이,포케올데이 신사점,서울 강남구 도산대로17길 11
613,127.046455661663,37.5047939153621,21801668,서울 강남구 역삼동 704-51,FD6,음식점,음식점 > 샐러드 > 샐러디,샐러디 선릉점,서울 강남구 선릉로93길 26
614,127.03022880244689,37.49706314523733,658738713,서울 강남구 역삼동 824-11,FD6,음식점,음식점 > 샐러드 > 샐러디,샐러디 강남역점,서울 강남구 강남대로84길 23
615,127.04922646925534,37.52363819004399,1418997010,서울 강남구 청담동 50-10,FD6,음식점,음식점 > 샐러드,알라보 청담점,서울 강남구 도산대로90길 11
616,127.02983969550976,37.49682718044277,63121054,서울 강남구 역삼동 825-24,FD6,음식점,음식점 > 샐러드,오샐러드 강남점,서울 강남구 강남대로84길 15
617,127.051313207878,37.50319532357,419191619,서울 강남구 대치동 897-23,FD6,음식점,음식점 > 샐러드,훅트포케 선릉점,서울 강남구 선릉로86길 16-3
618,127.056695961578,37.5084619407017,1046542942,서울 강남구 삼성동 157-8,FD6,음식점,음식점 > 샐러드 > 샐러디,샐러디 삼성점,서울 강남구 삼성로96길 6
619,127.053461377733,37.5054919345781,239832891,서울 강남구 대치동 891,FD6,음식점,음식점 > 샐러드,피그인더가든 선릉점,서울 강남구 테헤란로 424
620,127.0646701788338,37.50773073331924,1183745350,서울 강남구 대치동 1001-5,FD6,음식점,음식점 > 샐러드,샐러드박스 삼성역점,서울 강남구 영동대로86길 6
621,127.027247667207,37.5182681203916,1644196362,서울 강남구 논현동 9-14,FD6,음식점,음식점 > 샐러드,단백하루,서울 강남구 논현로149길 15
622,127.036905312594,37.5084715837815,2023505233,서울 강남구 논현동 236-6,FD6,음식점,음식점 > 샐러드,샐러딧 강남본점,서울 강남구 봉은사로 227
623,127.045537403984,37.503077857532,1684702238,서울 강남구 역삼동 707-5,FD6,음식점,음식점 > 샐러드,크리스피프레시 선릉점,서울 강남구 테헤란로 316
624,127.024021209582,37.5171587844562,955635501,서울 강남구 논현동 5-16,FD6,음식점,음식점 > 샐러드,테이크파이브,서울 강남구 논현로149길 56
625,127.033451093941,37.5007068470736,289572206,서울 강남구 역삼동 637-36,FD6,음식점,음식점 > 샐러드,밸런스포케 역삼점,서울 강남구 강남대로94길 75
626,127.036088129168,37.5072581826987,31076947,서울 강남구 역삼동 651-14,FD6,음식점,음식점 > 샐러드,바리 슈퍼푸드 논현점,서울 강남구 언주로107길 38
627,127.037898161058,37.5259885782864,943443114,서울 강남구 신사동 657-22,FD6,음식점,음식점 > 샐러드,WHAT A CHEF,서울 강남구 선릉로157길 23-3
628,127.038990612557,37.5035298016018,1697244761,서울 강남구 역삼동 672-25,FD6,음식점,음식점 > 샐러드,뷰티풀샐러드&도시락,서울 강남구 테헤란로33길 26
629,127.032478368602,37.4977599272154,853677931,서울 강남구 역삼동 823-16,FD6,음식점,음식점 > 샐러드,뱃살도둑 역삼점,서울 강남구 논현로85길 70
630,127.05162512267071,37.49958215433836,1455993887,서울 강남구 대치동 921-2,FD6,음식점,음식점 > 샐러드,초록밭,서울 강남구 선릉로 334
631,127.02538388221744,37.50938914134379,1063894418,서울 강남구 논현동 146-11,FD6,음식점,음식점 > 샐러드,그리너 논현점,서울 강남구 강남대로124길 35
632,127.037197745744,37.5279692032508,2059601273,서울 강남구 신사동 660-17,FD6,음식점,음식점 > 샐러드,블랙루머,서울 강남구 압구정로46길 5-6
633,127.03503467287771,37.49894852512514,103606296,서울 강남구 역삼동 736-31,FD6,음식점,음식점 > 샐러드 > 샐러디,샐러디 역삼점,서울 강남구 테헤란로22길 14
634,127.021095255475,37.5183811038751,747921700,서울 강남구 신사동 511-9,FD6,음식점,음식점 > 샐러드 > 샐러디,샐러디 신사점,서울 강남구 강남대로156길 24
635,127.053193367196,37.4991597877297,90357697,서울 강남구 대치동 923-3,FD6,음식점,음식점 > 샐러드,매크로키친 대치본점,서울 강남구 선릉로68길 18
636,127.03072448375345,37.49520153755401,891689827,서울 강남구 역삼동 826-37,FD6,음식점,음식점 > 샐러드,마치래빗 강남점,서울 강남구 테헤란로4길 46
637,127.04221262182352,37.515464302244375,1225673289,서울 강남구 삼성동 8-2,FD6,음식점,음식점 > 샐러드 > 샐러디,샐러디 강남구청역점,서울 강남구 선릉로 660
638,127.027043733811,37.5111051866236,40271144,서울 강남구 논현동 137-11,FD6,음식점,음식점 > 샐러드,끼니위드팜 강남논현점,서울 강남구 강남대로124길 67
639,127.050236724294,37.5034570778727,314512880,서울 강남구 대치동 889-65,FD6,음식점,음식점 > 샐러드,핑크마우스 선릉점,서울 강남구 선릉로86길 5-4
640,127.040573079633,37.5186535280484,2042271655,서울 강남구 논현동 111-22,FD6,음식점,음식점 > 샐러드,그린벨,서울 강남구 선릉로 717
641,127.037244739488,37.4950518967619,493674871,서울 강남구 역삼동 790,FD6,음식점,음식점 > 샐러드,샐리오,서울 강남구 역삼로 166
642,127.051240918598,37.5033287037679,1768987592,서울 강남구 대치동 897-22,FD6,음식점,음식점 > 샐러드 > 샐러디,샐러디 선릉중앙점,서울 강남구 선릉로86길 18
643,127.03932752089,37.52486726426,2143205943,서울 강남구 신사동 665-6,FD6,음식점,음식점 > 샐러드 > 샐러디,샐러디 압구정로데오역점,서울 강남구 선릉로 815
644,127.037206802107,37.5279809134215,1637034687,서울 강남구 신사동 660-17,FD6,음식점,음식점 > 샐러드,르씨엘베르,서울 강남구 압구정로46길 5-6
645,127.056151070054,37.5057916223857,337515586,서울 강남구 대치동 892,FD6,음식점,음식점 > 샐러드,스윗밸런스 포스코센터점,서울 강남구 테헤란로 440
646,127.06072121920111,37.49303111542674,1801670566,서울 강남구 대치동 506,FD6,음식점,음식점 > 샐러드 > 샐러디,샐러디 대치점,서울 강남구 삼성로 151
647,127.032633401744,37.5005998560746,1883731427,서울 강남구 역삼동 647-1,FD6,음식점,음식점 > 샐러드 > 샐러디,샐러디 역삼역점,서울 강남구 강남대로94길 66
648,127.052191922384,37.4982790503297,330839294,서울 강남구 대치동 922-28,FD6,음식점,음식점 > 샐러드 > 샐러디,샐러디 한티역점,서울 강남구 선릉로 320
649,127.06088377012571,37.514966007779286,783139764,서울 강남구 삼성동 107-5,FD6,음식점,음식점 > 샐러드 > 샐러디,샐러디 봉은사역점,서울 강남구 영동대로112길 10
650,127.06080669351763,37.509191511909854,1732235763,서울 강남구 삼성동 159-8,FD6,음식점,음식점 > 샐러드,크리스피프레시 파르나스몰점,서울 강남구 테헤란로 521
651,127.054465754645,37.4978004905177,695238842,서울 강남구 대치동 935-36,FD6,음식점,음식점 > 샐러드 > 포케올데이,포케올데이 대치점,서울 강남구 도곡로63길 12
652,127.02896528084476,37.51369511812982,1217635979,서울 강남구 논현동 58-2,FD6,음식점,음식점 > 샐러드 > 샐러디,샐러디 학동역점,서울 강남구 학동로 165
653,127.03068416042498,37.49614580311185,650683904,서울 강남구 역삼동 827-14,FD6,음식점,음식점 > 샐러드,샐러드몬스터,서울 강남구 테헤란로4길 35
654,127.038236626868,37.52418466271341,348276052,서울 강남구 신사동 654-9,CE7,카페,음식점 > 카페 > 테마카페 > 디저트카페,노티드 청담,서울 강남구 도산대로53길 15
655,127.036888842603,37.5255636248427,179244712,서울 강남구 신사동 646-21,CE7,카페,음식점 > 카페 > 테마카페 > 디저트카페,꽁티드툴레아 도산점,서울 강남구 도산대로49길 39
656,127.0323775713204,37.50003049065215,495658881,서울 강남구 역삼동 648-9,CE7,카페,음식점 > 카페,블루보틀 역삼 카페,서울 강남구 테헤란로 129
657,127.028119720582,37.5029796720996,22837049,서울 강남구 역삼동 618-11,CE7,카페,음식점 > 카페,알베르,서울 강남구 강남대로102길 34
658,127.024330407303,37.5218511454281,22549791,서울 강남구 신사동 554-4,CE7,카페,음식점 > 카페 > 커피전문점,마일스톤커피,서울 강남구 논현로159길 49
659,127.055879763068,37.5059647440212,1860681564,서울 강남구 대치동 892,CE7,카페,음식점 > 카페,테라로사 포스코센터점,서울 강남구 테헤란로 440
660,127.02779847587531,37.502824775159816,2005375589,서울 강남구 역삼동 618-16,CE7,카페,음식점 > 카페 > 테마카페 > 디저트카페,썸띵어바웃커피,서울 강남구 강남대로102길 30
661,127.034470798439,37.5023544936241,1937691860,서울 강남구 역삼동 640-9,CE7,카페,음식점 > 카페,카페413프로젝트,서울 강남구 논현로97길 19-11
662,127.035287631748,37.527016529432,858715549,서울 강남구 신사동 643-22,CE7,카페,음식점 > 카페 > 테마카페 > 디저트카페,카페캠프통,서울 강남구 압구정로42길 27
663,127.03464454122,37.5259138933359,1168471307,서울 강남구 신사동 645-26,CE7,카페,음식점 > 카페,도산맘마,서울 강남구 압구정로42길 45
664,127.028900864426,37.5255730576898,1720885570,서울 강남구 신사동 610-6,CE7,카페,음식점 > 카페,블루보틀 압구정 카페,서울 강남구 논현로 854
665,127.041459017307,37.5251945000821,10159026,서울 강남구 청담동 88-23,CE7,카페,음식점 > 카페,고센클래식,서울 강남구 선릉로158길 18
666,127.023244083902,37.5207341206801,27220692,서울 강남구 신사동 545-12,CE7,카페,음식점 > 카페 > 테마카페 > 디저트카페,C27 가로수길본점,서울 강남구 도산대로15길 39
667,127.028626642226,37.5036607105687,1106428073,서울 강남구 역삼동 618-21,CE7,카페,음식점 > 카페,정월,서울 강남구 강남대로102길 46
668,127.026699584636,37.5038954232782,27550461,서울 강남구 역삼동 601-30,CE7,카페,음식점 > 카페,카페무라노,서울 강남구 강남대로110길 21
669,127.039862029236,37.5173923655247,63672709,서울 강남구 논현동 118-4,CE7,카페,음식점 > 카페 > 커피전문점,카페써드,서울 강남구 선릉로131길 11
670,127.021207744507,37.5201578619682,530432745,서울 강남구 신사동 521-17,CE7,카페,음식점 > 카페,테일러커피 신사점,서울 강남구 강남대로160길 31
671,127.03616365669065,37.52314916281088,7948829,서울 강남구 신사동 651-4,CE7,카페,음식점 > 카페 > 테마카페 > 디저트카페,세시셀라 도산공원점,서울 강남구 도산대로45길 10-4
672,127.04650199101404,37.52478176514504,27301629,서울 강남구 청담동 98-3,CE7,카페,음식점 > 카페 > 테마카페 > 디저트카페,디올카페,서울 강남구 압구정로 464
673,127.041028682371,37.5243729362851,1016477143,서울 강남구 청담동 88-37,CE7,카페,음식점 > 카페 > 테마카페 > 디저트카페,기욤 청담점,서울 강남구 선릉로152길 17
674,127.04237397719,37.5267655229983,22400767,서울 강남구 청담동 79,CE7,카페,음식점 > 카페 > 테마카페,10꼬르소꼬모카페,서울 강남구 압구정로 416
675,127.040620272785,37.5138962129356,2014699390,서울 강남구 논현동 255-5,CE7,카페,음식점 > 카페,맷카페,서울 강남구 학동로50길 42
676,127.02594414795092,37.504014524333215,84268936,서울 강남구 역삼동 601-12,CE7,카페,음식점 > 카페 > 다방,가배도 신논현점,서울 강남구 강남대로110길 13
677,127.02505080057104,37.504339079125394,561053021,서울 강남구 역삼동 808,CE7,카페,음식점 > 카페,루프808,서울 강남구 강남대로 470
678,127.02387987905418,37.52090878841111,1863764320,서울 강남구 신사동 544-23,CE7,카페,음식점 > 카페,논탄토,서울 강남구 도산대로17길 35
679,127.044587487588,37.5203171345118,19601351,서울 강남구 청담동 26-5,CE7,카페,음식점 > 카페 > 테마카페 > 디저트카페,트리아농,서울 강남구 학동로59길 43
680,127.0386453169325,37.52696862637189,305164716,서울 강남구 신사동 662-11,CE7,카페,음식점 > 카페 > 테마카페 > 디저트카페,버터풀&크리멀러스,서울 강남구 언주로172길 59
681,127.035086751653,37.5232359838849,27196653,서울 강남구 신사동 631-35,CE7,카페,음식점 > 카페,파시0914,서울 강남구 도산대로45길 15
682,127.02698144077588,37.50144282174391,27349884,서울 강남구 역삼동 619-16,CE7,카페,음식점 > 카페 > 테마카페 > 디저트카페,빌리엔젤 강남역점,서울 강남구 테헤란로1길 48
683,127.03753918669808,37.51398823372454,854219809,서울 강남구 논현동 247-9,CE7,카페,음식점 > 카페,달링키친,서울 강남구 언주로126길 25
684,127.043649182538,37.5252189390133,11069279,서울 강남구 청담동 94-3,CE7,카페,음식점 > 카페 > 테마카페 > 갤러리카페,미엘,서울 강남구 도산대로67길 13-12
685,127.022601137591,37.5193430967632,12983903,서울 강남구 신사동 535-9,CE7,카페,음식점 > 카페 > 테마카페 > 디저트카페,듀자미,서울 강남구 도산대로11길 28
686,127.056623962964,37.4969939760406,1045674602,서울 강남구 대치동 1023-19,CE7,카페,음식점 > 카페 > 테마카페 > 디저트카페,껠끄쇼즈,서울 강남구 도곡로70길 5
687,127.025850938951,37.5223265518498,403091279,서울 강남구 신사동 553-25,CE7,카페,음식점 > 카페 > 테마카페 > 디저트카페,빵어니스타 압구정점,서울 강남구 도산대로25길 43
688,127.035497643301,37.5022676929746,1447945308,서울 강남구 역삼동 641-15,CE7,카페,음식점 > 카페 > 테마카페 > 디저트카페,로얄마카롱,서울 강남구 테헤란로25길 26
689,127.03546347534,37.5256649736824,1996014742,서울 강남구 신사동 645-21,CE7,카페,음식점 > 카페,펠트커피 도산공원점,서울 강남구 언주로164길 23
690,127.026683527445,37.5032665250306,1329278211,서울 강남구 역삼동 811-13,CE7,카페,음식점 > 카페 > 테마카페 > 디저트카페,까치화방 강남점,서울 강남구 봉은사로4길 23
691,127.028486226258,37.503192221615,23254386,서울 강남구 역삼동 618-7,CE7,카페,음식점 > 카페,더달달,서울 강남구 강남대로102길 38-6
692,127.027278333241,37.5030699699519,1868219501,서울 강남구 역삼동 812-3,CE7,카페,음식점 > 카페 > 커피전문점,겟썸커피 다운스테어즈,서울 강남구 봉은사로6길 30
693,127.03511569524726,37.50292193725799,1850394240,서울 강남구 역삼동 641-1,CE7,카페,음식점 > 카페 > 테마카페 > 디저트카페,크리에잇쿠키 역삼점,서울 강남구 테헤란로25길 36
694,127.055481173149,37.5114250202989,1131738214,서울 강남구 삼성동 149-15,CE7,카페,음식점 > 카페,오더에스프레소,서울 강남구 봉은사로82길 27
695,127.02165518322,37.5183701905037,2119458323,서울 강남구 신사동 516-16,CE7,카페,음식점 > 카페 > 커피전문점,식물학,서울 강남구 강남대로154길 33
696,127.063892884346,37.5100458371812,1973329224,서울 강남구 삼성동 168-26,CE7,카페,음식점 > 카페 > 테마카페 > 디저트카페,노티드 삼성,서울 강남구 테헤란로103길 9
697,127.028443419181,37.4976744709989,35026031,서울 강남구 역삼동 825,CE7,카페,음식점 > 카페 > 커피전문점 > 스타벅스,스타벅스 강남R점,서울 강남구 강남대로 390
698,127.032981540064,37.51047297481296,27579564,서울 강남구 논현동 221-17,CE7,카페,음식점 > 카페 > 커피전문점 > 이디야커피,이디야커피랩,서울 강남구 논현로 636
699,127.03537543435476,37.52608666907984,14532428,서울 강남구 신사동 645-11,FD6,음식점,"음식점 > 술집 > 호프,요리주점",묵전,서울 강남구 언주로168길 22
700,127.02502812419262,37.504167892896014,18685434,서울 강남구 역삼동 808-5,FD6,음식점,음식점 > 술집 > 일본식주점,코다차야 강남점,서울 강남구 강남대로 468
701,127.023475888268,37.5240461606931,12250697,서울 강남구 신사동 549-9,FD6,음식점,"음식점 > 술집 > 호프,요리주점",한잔의추억,서울 강남구 논현로175길 68
702,127.021731876202,37.5175881055016,251456396,서울 강남구 신사동 514-4,FD6,음식점,음식점 > 술집 > 실내포장마차,온달집 본점,서울 강남구 강남대로152길 28
703,127.02664512973644,37.50341970464797,26575569,서울 강남구 역삼동 811-12,FD6,음식점,"음식점 > 술집 > 호프,요리주점",무월 강남점,서울 강남구 봉은사로4길 21
704,127.02762796193136,37.50045516978294,1596208479,서울 강남구 역삼동 817-5,FD6,음식점,"음식점 > 술집 > 호프,요리주점",아트몬스터 강남역점,서울 강남구 테헤란로1길 28-3
705,127.037680643756,37.5253723624154,18835270,서울 강남구 신사동 656-7,FD6,음식점,음식점 > 술집 > 일본식주점,이치에,서울 강남구 선릉로155길 23-3
706,127.043585332039,37.5243612084358,14535331,서울 강남구 청담동 92-18,FD6,음식점,음식점 > 술집 > 일본식주점,마코토 청담점,서울 강남구 압구정로80길 37
707,127.030143075245,37.4947908282044,24787743,서울 강남구 역삼동 831-3,FD6,음식점,음식점 > 술집 > 일본식주점,이자카야나무 강남2호점,서울 강남구 강남대로78길 8
708,127.052670986216,37.5041137515496,1137715451,서울 강남구 대치동 890-45,FD6,음식점,음식점 > 술집 > 일본식주점,수다 대치점,서울 강남구 선릉로86길 37
709,127.024312514489,37.5085415212617,832441144,서울 강남구 논현동 162,FD6,음식점,"음식점 > 술집 > 호프,요리주점",광주육전,서울 강남구 학동로4길 45
710,127.02750369810458,37.5008246112399,504236629,서울 강남구 역삼동 619-28,FD6,음식점,"음식점 > 술집 > 호프,요리주점",왕스펍,서울 강남구 강남대로98길 11
711,127.02414247162326,37.50733330857891,1212558291,서울 강남구 논현동 167-1,FD6,음식점,음식점 > 술집 > 일본식주점,이자카야나무 논현점,서울 강남구 봉은사로1길 40
712,127.035195618023,37.4852567705228,25978142,서울 강남구 도곡동 957-1,FD6,음식점,"음식점 > 술집 > 호프,요리주점",난지당,서울 강남구 강남대로42길 16
713,127.039984825259,37.510094191886,1207564995,서울 강남구 논현동 272-31,FD6,음식점,음식점 > 술집 > 일본식주점,아카라,서울 강남구 봉은사로43길 14
714,127.05726575341517,37.51110341107394,14480921,서울 강남구 삼성동 153-34,FD6,음식점,음식점 > 술집 > 일본식주점,수다 삼성1호점,서울 강남구 테헤란로87길 53
715,127.025130362702,37.5190110165391,7913187,서울 강남구 신사동 561-17,FD6,음식점,음식점 > 술집 > 실내포장마차,뻐꾸기,서울 강남구 도산대로17길 4
716,127.037821415414,37.5263490037173,1586875098,서울 강남구 신사동 663-28,FD6,음식점,"음식점 > 술집 > 호프,요리주점",마법갈비요술꼬치,서울 강남구 선릉로157길 26
717,127.041956225775,37.5242068259933,276684145,서울 강남구 청담동 91-3,FD6,음식점,음식점 > 술집 > 와인바,벨뷰,서울 강남구 선릉로152길 30
718,127.02270046705,37.5186330871898,478360598,서울 강남구 신사동 536-3,FD6,음식점,"음식점 > 술집 > 호프,요리주점",신사전,서울 강남구 도산대로11길 18
719,127.028561764475,37.4996061999624,26546475,서울 강남구 역삼동 818-11,FD6,음식점,"음식점 > 술집 > 호프,요리주점",브롱스 강남점,서울 강남구 강남대로94길 15
720,127.033532385452,37.50040769003451,27296186,서울 강남구 역삼동 647-13,FD6,음식점,"음식점 > 술집 > 호프,요리주점",요술포차 역삼점,서울 강남구 테헤란로19길 5
721,127.022288723884,37.5186511856717,1503171998,서울 강남구 신사동 516-12,FD6,음식점,음식점 > 술집 > 일본식주점,가로수길공감,서울 강남구 강남대로154길 41
722,127.041282246301,37.524664772678,825871944,서울 강남구 청담동 88-31,FD6,음식점,음식점 > 술집 > 일본식주점,수다 청담점,서울 강남구 도산대로57길 15
723,127.04112813608388,37.526255996279865,25689487,서울 강남구 청담동 83-4,FD6,음식점,음식점 > 술집 > 칵테일바,르챔버,서울 강남구 도산대로55길 42
724,127.052438975201,37.5022613873809,418495008,서울 강남구 대치동 900-9,FD6,음식점,음식점 > 술집 > 일본식주점,센도수산,서울 강남구 역삼로65길 15
725,127.022955446191,37.5238408344364,15104085,서울 강남구 신사동 548-4,FD6,음식점,음식점 > 술집 > 실내포장마차,코다차야,서울 강남구 압구정로14길 6
726,127.028240773556,37.5000892164148,602523043,서울 강남구 역삼동 817-18,FD6,음식점,음식점 > 술집,하이퍼서울,서울 강남구 강남대로96길 15
727,127.0264688103652,37.5037269871809,1438270542,서울 강남구 역삼동 811,FD6,음식점,음식점 > 술집 > 일본식주점,은하수,서울 강남구 봉은사로4길 17
728,127.02203650758511,37.52262105200735,1768655445,서울 강남구 신사동 532-4,FD6,음식점,음식점 > 술집 > 와인바,리커테이션,서울 강남구 압구정로10길 13
729,127.056833509668,37.5108693587122,1211307526,서울 강남구 삼성동 153-5,FD6,음식점,음식점 > 술집 > 일본식주점,수다 삼성 2호점,서울 강남구 삼성로100길 23-13
730,127.02800126286,37.5007307897262,13499124,서울 강남구 역삼동 817-35,FD6,음식점,음식점 > 술집,아실라,서울 강남구 강남대로98길 16
731,127.065442572114,37.5154023587222,7885177,서울 강남구 삼성동 110-3,FD6,음식점,"음식점 > 술집 > 호프,요리주점",백세주마을 삼성점,서울 강남구 봉은사로 641
732,127.02617063446856,37.52105696852104,255156070,서울 강남구 신사동 557-25,FD6,음식점,음식점 > 술집 > 일본식주점,미라이,서울 강남구 논현로153길 24
733,127.02798751037518,37.50024424973272,27587532,서울 강남구 역삼동 817-15,FD6,음식점,"음식점 > 술집 > 호프,요리주점",나즈드라비 본점,서울 강남구 테헤란로1길 28-6
734,127.021840777575,37.5186512693532,1874065715,서울 강남구 신사동 516-6,FD6,음식점,"음식점 > 술집 > 호프,요리주점",골뱅이신사,서울 강남구 강남대로156길 32
735,127.041100065057,37.5225168463569,517267589,서울 강남구 청담동 22-11,FD6,음식점,음식점 > 술집 > 일본식주점,청담류 1호점,서울 강남구 도산대로58길 12
736,127.0460880815034,37.52500177193642,27417408,서울 강남구 청담동 99-13,FD6,음식점,음식점 > 술집 > 일본식주점,고우 청담점,서울 강남구 도산대로75길 12
737,127.035195618023,37.4852567705228,16708334,서울 강남구 도곡동 957-1,FD6,음식점,음식점 > 술집 > 일본식주점,타이쇼,서울 강남구 강남대로42길 16
738,127.052661930959,37.504102943522,15500067,서울 강남구 대치동 890-45,FD6,음식점,음식점 > 술집 > 일본식주점,이자카야나무 대치점,서울 강남구 선릉로86길 37
739,127.05676165950484,37.51157938464448,119019242,서울 강남구 삼성동 148-10,FD6,음식점,음식점 > 술집 > 칵테일바,삼성리,서울 강남구 봉은사로86길 28
740,127.021909599792,37.5219056794705,10337547,서울 강남구 신사동 524-30,FD6,음식점,음식점 > 술집 > 와인바,스페인클럽 가로수길점,서울 강남구 압구정로10길 26
741,127.027110725716,37.5024393045619,1757399379,서울 강남구 역삼동 812-18,FD6,음식점,음식점 > 술집,꼭그닭,서울 강남구 봉은사로4길 37
742,127.04100370446722,37.515939557035416,11572197,서울 강남구 논현동 242-21,FD6,음식점,음식점 > 술집 > 실내포장마차,박고볼래 논현점,서울 강남구 선릉로129길 3-6
743,127.02809136210732,37.49973425563078,846028691,서울 강남구 역삼동 818-1,FD6,음식점,"음식점 > 술집 > 호프,요리주점",크래프트한스 강남직영점,서울 강남구 강남대로96길 12
744,126.92137439078,37.5528705414174,1792643631,서울 마포구 서교동 369-41,FD6,음식점,"음식점 > 술집 > 호프,요리주점",만만코코로 홍대점,서울 마포구 양화로16길 34
745,126.923282403313,37.5506859753954,7919830,서울 마포구 서교동 361-12,FD6,음식점,음식점 > 술집 > 실내포장마차,삼거리포차,서울 마포구 와우산로 70
746,126.921911462403,37.5500796059143,27433956,서울 마포구 서교동 409-17,FD6,음식점,음식점 > 술집 > 실내포장마차,꼼보포차 홍대2호점,서울 마포구 와우산로17길 19
747,126.922805975913,37.5517812785513,20536852,서울 마포구 서교동 362-14,FD6,음식점,음식점 > 술집 > 칵테일바,자세,서울 마포구 와우산로19길 6-11
748,126.92246028259716,37.54792477937605,898180251,서울 마포구 상수동 310-4,FD6,음식점,음식점 > 술집,앵춘,서울 마포구 독막로 81
749,126.9231161708738,37.552770776653865,21332528,서울 마포구 서교동 358-92,FD6,음식점,"음식점 > 술집 > 호프,요리주점",막걸리싸롱 홍대본점,서울 마포구 와우산로21길 12-6
750,126.930968715235,37.5555200675766,959157742,서울 마포구 동교동 188-2,FD6,음식점,음식점 > 술집 > 일본식주점,부산집 홍대본점,서울 마포구 와우산로38길 4
751,126.923726006916,37.5506934707663,26217952,서울 마포구 서교동 360-21,FD6,음식점,음식점 > 술집 > 실내포장마차,효봉포차,서울 마포구 와우산로18길 12
752,126.920641792808,37.5521726789618,17698110,서울 마포구 서교동 366-28,FD6,음식점,음식점 > 술집 > 일본식주점,코노미 홍대점,서울 마포구 잔다리로6길 28
753,126.921974312669,37.5505806024676,1009353804,서울 마포구 서교동 407-25,FD6,음식점,음식점 > 술집 > 실내포장마차,온달집 홍대직영점,서울 마포구 잔다리로 9
754,126.92288901613414,37.55026765598596,8101657,서울 마포구 서교동 407-3,FD6,음식점,음식점 > 술집 > 칵테일바,클럽에반스,서울 마포구 와우산로 63
755,126.92060912359968,37.54989781700859,1424950736,서울 마포구 서교동 403-4,FD6,음식점,음식점 > 술집 > 와인바,루프탑어반비치,서울 마포구 독막로9길 38
756,126.927898301176,37.5520151534055,15659552,서울 마포구 창전동 6-99,FD6,음식점,"음식점 > 술집 > 호프,요리주점",미로식당,서울 마포구 와우산로30길 80
757,126.921247478324,37.5519496369964,1706769838,서울 마포구 서교동 366-21,FD6,음식점,음식점 > 술집 > 실내포장마차,가로수포차,서울 마포구 잔다리로6길 34-13
758,126.92266891451472,37.55190552658781,18769234,서울 마포구 서교동 364-3,FD6,음식점,"음식점 > 술집 > 호프,요리주점",썰스데이파티,서울 마포구 와우산로21길 19-12
759,126.922309354794,37.5505123475263,18677263,서울 마포구 서교동 407-27,FD6,음식점,음식점 > 술집 > 실내포장마차,광동포차,서울 마포구 잔다리로 5-1
760,126.91964670600906,37.54826978270864,1852005134,서울 마포구 합정동 410-31,FD6,음식점,"음식점 > 술집 > 호프,요리주점",어른이대공원,
761,126.9216111244117,37.54942888613963,1964922245,서울 마포구 서교동 409-11,FD6,음식점,"음식점 > 술집 > 호프,요리주점",38도씨식당,서울 마포구 와우산로17길 19-17
762,126.92263980077236,37.55051076248823,448028820,서울 마포구 서교동 407-7,FD6,음식점,음식점 > 술집 > 실내포장마차,포차끝판왕,서울 마포구 잔다리로 3
763,126.920207967712,37.5493540644272,747903409,서울 마포구 서교동 403-23,FD6,음식점,음식점 > 술집 > 일본식주점,야키토리 나루토,서울 마포구 독막로9길 26
764,126.921199381472,37.5514126100997,13324056,서울 마포구 서교동 367-36,FD6,음식점,음식점 > 술집 > 일본식주점,작가,서울 마포구 어울마당로 71
765,126.922628968497,37.5500422363149,1382220123,서울 마포구 서교동 410-1,FD6,음식점,음식점 > 술집 > 실내포장마차,벽돌포차,서울 마포구 와우산로17길 5
766,126.922067131726,37.5527322470109,235947680,서울 마포구 서교동 358-50,FD6,음식점,음식점 > 술집 > 와인바,와인로그,서울 마포구 와우산로21길 36-8
767,126.921923147091,37.5475568180032,905125344,서울 마포구 상수동 324-1,FD6,음식점,음식점 > 술집 > 실내포장마차,고수포차,서울 마포구 독막로 76-1
768,126.922674396046,37.5520767197903,27356864,서울 마포구 서교동 364-2,FD6,음식점,"음식점 > 술집 > 호프,요리주점",코키펍 홍대점,서울 마포구 와우산로21길 19-8
769,126.92471424783604,37.55826969274567,814587106,서울 마포구 동교동 155-35,FD6,음식점,음식점 > 술집 > 일본식주점,락희돈,서울 마포구 월드컵북로2길 86
770,126.92264434044,37.5504981514877,2071080946,서울 마포구 서교동 407-7,FD6,음식점,음식점 > 술집 > 실내포장마차,썸ING,서울 마포구 잔다리로 3
771,126.9169742434433,37.5488977317786,157940566,서울 마포구 서교동 396-33,FD6,음식점,음식점 > 술집 > 일본식주점,공감 합정점,서울 마포구 양화로6길 49
772,126.922395816667,37.5500727172522,1261433818,서울 마포구 서교동 410-9,FD6,음식점,음식점 > 술집,어텐션,서울 마포구 와우산로17길 11
773,126.91953634285,37.5488238216143,27268818,서울 마포구 서교동 401-3,FD6,음식점,음식점 > 술집 > 실내포장마차,바다포차 시실리,서울 마포구 독막로9길 9
774,126.922023763994,37.5509085984606,804788904,서울 마포구 서교동 363-9,FD6,음식점,"음식점 > 술집 > 호프,요리주점",싱크홀 홍대점,서울 마포구 잔다리로 10
775,126.91807931382408,37.549387745735466,248021367,서울 마포구 서교동 399-26,FD6,음식점,음식점 > 술집 > 일본식주점,지하102호 3호점,서울 마포구 양화로6길 57-22
776,126.926201244779,37.5561334662324,19183637,서울 마포구 서교동 331-2,FD6,음식점,음식점 > 술집 > 일본식주점,키즈나,서울 마포구 와우산로29바길 6
777,126.92352687882052,37.55065009405665,8383937,서울 마포구 서교동 360-22,FD6,음식점,"음식점 > 술집 > 호프,요리주점",산장,서울 마포구 와우산로18길 10
778,126.922130723441,37.5503482481868,118532446,서울 마포구 서교동 407-12,FD6,음식점,"음식점 > 술집 > 호프,요리주점",난바다,서울 마포구 와우산로17길 14
779,126.921784495254,37.5502921574618,359607153,서울 마포구 서교동 407-17,FD6,음식점,음식점 > 술집 > 칵테일바,도깨비파티하우스,서울 마포구 와우산로17길 22
780,126.91730926556984,37.54986924306768,1067077866,서울 마포구 서교동 395-65,FD6,음식점,음식점 > 술집 > 실내포장마차,바코포차,서울 마포구 독막로3길 35
781,126.926454758759,37.5561300204255,552375315,서울 마포구 서교동 332-1,FD6,음식점,음식점 > 술집 > 칵테일바,어리,서울 마포구 와우산로29길 69
782,126.922272280933,37.5513412413991,385058943,서울 마포구 서교동 364-6,FD6,음식점,"음식점 > 술집 > 호프,요리주점",코너펍,서울 마포구 와우산로19길 16
783,126.925157748753,37.5584249461909,1038780936,서울 마포구 동교동 155-27,FD6,음식점,음식점 > 술집 > 실내포장마차,역전포장마차 홍대점,서울 마포구 양화로 183
784,126.923897828796,37.5508809892478,480511442,서울 마포구 서교동 360-19,FD6,음식점,"음식점 > 술집 > 호프,요리주점",치치 서교점,서울 마포구 와우산로18길 16
785,126.92221507043966,37.55085556575148,1994723797,서울 마포구 서교동 363-6,FD6,음식점,음식점 > 술집 > 실내포장마차,김억삼포장마차,서울 마포구 잔다리로 8
786,126.99871865898974,37.56821185731751,8025375,서울 중구 주교동 118-1,FD6,음식점,음식점 > 한식 > 냉면,우래옥 본점,서울 중구 창경궁로 62-29
787,126.99529702271732,37.56537903946138,27072121,서울 중구 인현동1가 15-4,FD6,음식점,음식점 > 한식 > 순대,산수갑산 을지로점,서울 중구 을지로20길 24
788,126.99544970010407,37.5674657521006,1709558766,서울 중구 산림동 207-2,CE7,카페,음식점 > 카페,호랑이,서울 중구 을지로 157
789,126.99987775835788,37.56427090773028,20747449,서울 중구 오장동 90-10,FD6,음식점,음식점 > 한식 > 냉면,오장동함흥냉면,서울 중구 마른내로 108
790,127.0005659341146,37.564348392118056,8174854,서울 중구 오장동 101-7,FD6,음식점,음식점 > 한식 > 냉면,오장동흥남집 본점,서울 중구 마른내로 114
791,126.99178231800012,37.56724931479237,8332362,서울 중구 을지로3가 95-1,FD6,음식점,"음식점 > 술집 > 호프,요리주점",원조만선호프 노가리체인본점,서울 중구 을지로13길 19
792,126.996129025206,37.5640672191679,12751485,서울 중구 인현동2가 135-13,FD6,음식점,"음식점 > 한식 > 육류,고기 > 닭요리",황평집,서울 중구 마른내로 74
793,126.99975663427008,37.56867047080973,8050105,서울 중구 주교동 43-23,FD6,음식점,"음식점 > 한식 > 육류,고기 > 삼겹살",은주정,서울 중구 창경궁로8길 32
794,126.994503220999,37.5701578866786,8758064,서울 종로구 종로3가 167,FD6,음식점,"음식점 > 한식 > 육류,고기 > 닭요리",계림 종로본점,서울 종로구 돈화문로4길 39
795,126.999932082432,37.5703778574977,21852953,서울 종로구 종로4가 165-11,FD6,음식점,"음식점 > 한식 > 육류,고기",부촌육회,서울 종로구 종로 200-12
796,126.99083756712574,37.56401827329497,2029456983,서울 중구 저동2가 46-27,FD6,음식점,음식점 > 일식,진작,서울 중구 수표로12길 12
797,126.99142050809589,37.56374441420448,378913911,서울 중구 초동 156-9,FD6,음식점,음식점 > 양식,을지다락,서울 중구 수표로10길 19
798,126.99551765767906,37.56675396797064,1982412866,서울 중구 산림동 207-2,CE7,카페,음식점 > 카페 > 커피전문점,챔프커피 제3작업실,서울 중구 을지로 157
799,126.99157870487,37.5660852137074,10582837,서울 중구 을지로3가 315-18,FD6,음식점,음식점 > 중식 > 중국요리,안동장,서울 중구 을지로 124
800,126.99800342157062,37.56295723816635,8002833,서울 중구 충무로4가 56-3,FD6,음식점,"음식점 > 한식 > 해물,생선 > 회",영덕회식당,서울 중구 창경궁로1길 6
801,126.999886803792,37.5705508485698,8055849,서울 종로구 종로4가 177,FD6,음식점,"음식점 > 한식 > 육류,고기",육회자매집 본점1호점,서울 종로구 종로 200-4
802,126.99133001470943,37.5632668794966,7919722,서울 중구 충무로3가 23-1,FD6,음식점,음식점 > 한식 > 국수 > 칼국수,사랑방칼국수,서울 중구 퇴계로27길 46
803,126.995386474878,37.5648384452909,27072057,서울 중구 인현동2가 92-10,FD6,음식점,"음식점 > 한식 > 육류,고기 > 갈비",시골집,서울 중구 을지로20길 36
804,126.99036546529,37.564910222013,12106466,서울 중구 저동2가 18-1,FD6,음식점,음식점 > 한식 > 냉면,평래옥,서울 중구 마른내로 21-1
805,126.99693958989,37.5603983847784,11231325,서울 중구 필동3가 1-5,FD6,음식점,음식점 > 한식 > 냉면,필동면옥,서울 중구 서애로 26
806,127.00072445622273,37.57060130213971,18755777,서울 종로구 종로5가 138-9,FD6,음식점,음식점 > 한식,순희네빈대떡,서울 종로구 종로32길 5
807,126.994399091291,37.5700209304829,9029848,서울 종로구 장사동 85,FD6,음식점,"음식점 > 한식 > 해물,생선 > 회",부산회집,서울 종로구 돈화문로4길 38
808,126.99220283202686,37.56173614720316,8082703,서울 중구 필동1가 3-20,FD6,음식점,음식점 > 한식,충무로쭈꾸미불고기 본점,서울 중구 퇴계로31길 11
809,127.00117723880923,37.57043911933184,614661957,서울 종로구 종로5가 138-25,FD6,음식점,음식점 > 한식,광장시장통큰누이네육회빈대떡,서울 종로구 동호로 403-24
810,126.992815020959,37.5630939878878,8588563,서울 중구 충무로3가 30-13,FD6,음식점,음식점 > 한식,진고개,서울 중구 충무로 19-1
811,126.994707008298,37.5696605465128,15992450,서울 종로구 장사동 127-1,FD6,음식점,음식점 > 한식,대성식당,서울 종로구 종로26길 14-3
812,126.99005065665251,37.56601481713346,502452137,서울 중구 을지로3가 346-1,FD6,음식점,음식점 > 한식 > 순대,청와옥 을지로3가 직영점,서울 중구 을지로 110
813,127.00109789512533,37.56318610304924,19338775,서울 중구 충무로5가 8-2,FD6,음식점,음식점 > 한식 > 국수 > 칼국수,만나손칼국수,서울 중구 동호로31길 29
814,126.98891841085968,37.56839334531018,7818113,서울 종로구 관수동 163,FD6,음식점,음식점 > 한식 > 국수,대련집,서울 종로구 종로16길 37
815,126.99728790013,37.5683091406531,26808473,서울 중구 주교동 153-1,FD6,음식점,음식점 > 한식 > 국수 > 칼국수,꾸왁칼국수,서울 중구 창경궁로 67-11
816,126.990717992363,37.5698945590935,10731091,서울 종로구 관수동 40-2,FD6,음식점,"음식점 > 한식 > 육류,고기 > 족발,보쌈",장군굴보쌈,서울 종로구 수표로20길 22
817,126.9989450188481,37.57001835564344,27581940,서울 종로구 예지동 2-1,FD6,음식점,음식점 > 분식,원조누드김밥,서울 종로구 창경궁로 88
818,126.9907229563282,37.56546517417503,2091976811,서울 중구 을지로3가 344-17,FD6,음식점,"음식점 > 술집 > 호프,요리주점",을지맥옥,서울 중구 수표로 48-16
819,127.0001494187,37.5704030852927,11177923,서울 종로구 종로4가 165-2,FD6,음식점,"음식점 > 한식 > 해물,생선 > 회",은성회집,서울 종로구 창경궁로 88
820,126.9886017493288,37.566564293688046,1440347564,서울 중구 을지로2가 101-34,CE7,카페,음식점 > 카페 > 커피전문점,커피한약방,서울 중구 삼일대로12길 16-6
821,126.99295969662816,37.56523025885532,8264592,서울 중구 초동 17-1,FD6,음식점,"음식점 > 일식 > 돈까스,우동",동경우동,서울 중구 충무로 48
822,126.991537361788,37.5713434211486,8005800,서울 종로구 돈의동 131-1,FD6,음식점,음식점 > 한식 > 곰탕,영춘옥,서울 종로구 돈화문로5가길 13
823,126.988658328569,37.5666688146651,10668060,서울 중구 을지로2가 101-32,FD6,음식점,음식점 > 한식 > 설렁탕,이남장 본점,서울 중구 삼일대로12길 16
824,126.997423983442,37.5609930542564,25085251,서울 중구 필동3가 10-2,FD6,음식점,"음식점 > 한식 > 육류,고기 > 닭요리",동대닭한마리 본점,서울 중구 서애로 16-5
825,126.989980524876,37.5656742346951,8120548,서울 중구 을지로3가 350-1,FD6,음식점,"음식점 > 술집 > 호프,요리주점",풍남원조골뱅이,서울 중구 수표로 50-1
826,126.99194811384524,37.56226321314131,15719326,서울 중구 충무로3가 57-15,FD6,음식점,"음식점 > 한식 > 해물,생선 > 복어",부산복집,서울 중구 수표로2길 25
827,126.992516234029,37.562881334155,1788524968,서울 중구 충무로3가 28-2,FD6,음식점,음식점 > 한식,남산도담,서울 중구 수표로6길 37-1
828,127.000860292801,37.57069140076,1639610220,서울 종로구 종로5가 138-7,FD6,음식점,"음식점 > 한식 > 육류,고기",육회자매집 종로3호점,서울 종로구 종로 208
829,126.990057556505,37.5651985152594,677946873,서울 중구 저동2가 2-5,FD6,음식점,음식점 > 아시아음식 > 동남아음식 > 베트남음식,촙촙 (휴업중),서울 중구 수표로 46
830,126.99846058244935,37.56807850687044,7873473,서울 중구 주교동 118-3,FD6,음식점,음식점 > 한식 > 설렁탕,문화옥,서울 중구 창경궁로 62-5
831,126.92157407940762,37.53077816623998,23699720,서울 영등포구 여의도동 13-1,FD6,음식점,음식점 > 한식 > 냉면,정인면옥 본점,서울 영등포구 국회대로76길 10
832,126.926960229824,37.5205984955116,8094563,서울 영등포구 여의도동 36-2,FD6,음식점,음식점 > 한식 > 국수,진주집,서울 영등포구 국제금융로6길 33
833,126.9315066335338,37.519269537219614,21423297,서울 영등포구 여의도동 44-14,FD6,음식점,음식점 > 한식 > 순대,화목순대국,서울 영등포구 여의대방로 383
834,126.91990886684258,37.52217248103947,27353169,서울 영등포구 여의도동 28-1,FD6,음식점,음식점 > 양식,세상의모든아침 여의도점,서울 영등포구 여의대로 24
835,126.93136936451896,37.52093631287084,20746242,서울 영등포구 여의도동 43-3,FD6,음식점,음식점 > 한식 > 국수 > 칼국수,가양칼국수,서울 영등포구 국제금융로 78
836,126.92370837401884,37.524685188930256,409589446,서울 영등포구 여의도동 23-3,CE7,카페,음식점 > 카페,마호가니커피 여의도점,서울 영등포구 여의대로 66
837,126.924972958655,37.5214694204797,1247032398,서울 영등포구 여의도동 35-5,FD6,음식점,"음식점 > 일식 > 초밥,롤",아루히,서울 영등포구 여의나루로 42
838,126.93014883876948,37.52088063618047,12643139,서울 영등포구 여의도동 44-3,FD6,음식점,"음식점 > 한식 > 육류,고기",흑돈가 여의도직영점,서울 영등포구 여의대방로69길 23
839,126.9401710888746,37.51981484576526,7967166,서울 영등포구 여의도동 60,FD6,음식점,음식점 > 뷔페,63뷔페 파빌리온,서울 영등포구 63로 50
840,126.91962145659404,37.5275170302225,22211975,서울 영등포구 여의도동 15-24,FD6,음식점,음식점 > 한식 > 곰탕,하동관 국회의사당역직영점,서울 영등포구 은행로 3
841,126.921386202934,37.5286895201804,26602766,서울 영등포구 여의도동 14-15,FD6,음식점,"음식점 > 일식 > 초밥,롤",동해도 본점,서울 영등포구 은행로 25
842,126.93397342127108,37.5183609288344,20746105,서울 영등포구 여의도동 53-11,FD6,음식점,음식점 > 한식 > 냉면,청수,서울 영등포구 국제금융로 112
843,126.92839569094572,37.5194569028309,1693870533,서울 영등포구 여의도동 45-3,FD6,음식점,"음식점 > 한식 > 육류,고기 > 삼겹살",교대이층집 여의도점,서울 영등포구 국제금융로8길 27-8
844,126.92691026603934,37.52079398220432,8086602,서울 영등포구 여의도동 36-2,FD6,음식점,"음식점 > 한식 > 육류,고기",창고43 본점,서울 영등포구 국제금융로6길 33
845,126.92729317451683,37.52488026462298,1165592124,서울 영등포구 여의도동 24-1,FD6,음식점,음식점 > 양식 > 햄버거,바스버거 여의도점,서울 영등포구 국제금융로 20
846,126.926852221721,37.5246313157525,867470979,서울 영등포구 여의도동 24,FD6,음식점,음식점 > 양식 > 이탈리안,본보야지,서울 영등포구 국제금융로2길 7
847,126.928065107001,37.5197450228958,261500890,서울 영등포구 여의도동 45-1,FD6,음식점,음식점 > 중식 > 중국요리,모던눌랑 여의도점,서울 영등포구 국제금융로8길 31
848,126.92723206929044,37.52023826217958,21534557,서울 영등포구 여의도동 36-4,FD6,음식점,음식점 > 한식,진진만두 여의도점,서울 영등포구 국제금융로8길 34
849,126.923473266172,37.5233857915949,1033345535,서울 영등포구 여의도동 23-6,FD6,음식점,음식점 > 중식 > 중국요리,일일향 여의도점,서울 영등포구 의사당대로 83
850,126.92602925005,37.5240325377186,371810654,서울 영등포구 여의도동 25,FD6,음식점,음식점 > 일식 > 일식집,진가와 여의도점,서울 영등포구 국제금융로2길 17
851,126.924843428744,37.5242939807281,813306099,서울 영등포구 여의도동 23-10,FD6,음식점,음식점 > 양식 > 햄버거,브루클린더버거조인트 여의도점,서울 영등포구 국제금융로2길 24
852,126.920370575181,37.5305304865671,26591162,서울 영등포구 여의도동 13-16,FD6,음식점,"음식점 > 한식 > 육류,고기 > 닭요리 > 삼계탕",고봉삼계탕,서울 영등포구 국회대로72길 5
853,126.93208004706143,37.52312165497763,27184809,서울 영등포구 여의도동 30-3,FD6,음식점,음식점 > 한식,마루,서울 영등포구 국제금융로7길 15
854,126.930905207061,37.5262339360571,16622191,서울 영등포구 여의도동 21-3,FD6,음식점,"음식점 > 한식 > 찌개,전골",희정식당,서울 영등포구 여의나루로 117
855,126.919999165114,37.5223599507558,27353254,서울 영등포구 여의도동 28-1,FD6,음식점,음식점 > 한식,사대부집 곳간,서울 영등포구 여의대로 24
856,126.927214075105,37.5201301307501,8217961,서울 영등포구 여의도동 36-4,FD6,음식점,"음식점 > 한식 > 해물,생선",다미,서울 영등포구 국제금융로8길 34
857,126.92599000572228,37.52138807092205,10636351,서울 영등포구 여의도동 35-4,FD6,음식점,음식점 > 샤브샤브,예성가든,서울 영등포구 국제금융로6길 38
858,126.9208260526319,37.52989468589304,14650000,서울 영등포구 여의도동 13-20,FD6,음식점,음식점 > 한식,진진만두 국회점,서울 영등포구 국회대로72길 11
859,126.92265832184748,37.52820021526056,13098122,서울 영등포구 여의도동 16-2,FD6,음식점,"음식점 > 일식 > 초밥,롤",타마스시,서울 영등포구 은행로 30
860,126.92562192609242,37.52182482597416,663977672,서울 영등포구 여의도동 35-3,FD6,음식점,"음식점 > 한식 > 육류,고기",도쿄등심 여의도점,서울 영등포구 여의나루로 50
861,126.92964351076994,37.51933151230407,1526506602,서울 영등포구 여의도동 46-1,FD6,음식점,"음식점 > 한식 > 육류,고기 > 닭요리 > 삼계탕",고봉삼계탕 KBS별관점,서울 영등포구 여의대방로65길 13
862,126.930241506107,37.5197643484247,1809427699,서울 영등포구 여의도동 44-31,FD6,음식점,"음식점 > 한식 > 육류,고기",돈블랑 여의도점,서울 영등포구 여의대방로67길 11
863,126.923450659622,37.5233677568981,1976028871,서울 영등포구 여의도동 23-6,FD6,음식점,음식점 > 일식 > 참치회,오복수산참치 여의도점,서울 영등포구 의사당대로 83
864,126.929295188943,37.5204413398829,433865754,서울 영등포구 여의도동 44-22,FD6,음식점,"음식점 > 한식 > 육류,고기 > 곱창,막창",세광양대창 여의도점,서울 영등포구 여의대방로65길 24
865,126.921959269278,37.5302720587073,7859006,서울 영등포구 여의도동 13-3,FD6,음식점,음식점 > 뷔페,켄싱턴호텔 여의도 브로드웨이,서울 영등포구 국회대로76길 16
866,126.93180215312694,37.52020494927552,10500536,서울 영등포구 여의도동 43-4,FD6,음식점,음식점 > 중식 > 중국요리,서궁,서울 영등포구 국제금융로 86
867,126.91914747182464,37.52538854032405,8017600,서울 영등포구 여의도동 17,FD6,음식점,음식점 > 양식 > 이탈리안,호텔올라 KBS본관점,서울 영등포구 의사당대로 38
868,126.92091326451776,37.53087323169107,171248151,서울 영등포구 여의도동 13,FD6,음식점,음식점 > 일식,화담,서울 영등포구 국회대로 800
869,126.9291142306416,37.52518771236121,2122184252,서울 영등포구 여의도동 22,CE7,카페,음식점 > 카페 > 테마카페 > 디저트카페,더플레이트디저트 더현대서울점,서울 영등포구 여의대로 108
870,126.92102161297366,37.53112198051927,8309073,서울 영등포구 여의도동 13,FD6,음식점,음식점 > 한식 > 한정식,대방골,서울 영등포구 국회대로 800
871,126.92455725227134,37.52313781232868,19567897,서울 영등포구 여의도동 26-1,FD6,음식점,음식점 > 아시아음식 > 동남아음식,생어거스틴 여의도점,서울 영등포구 국제금융로2길 37
872,126.922658321847,37.5282002152606,1671487737,서울 영등포구 여의도동 16-2,FD6,음식점,음식점 > 한식 > 한정식,해담채 여의도점,서울 영등포구 은행로 30
873,126.91727866213702,37.52738026227054,27334632,서울 영등포구 여의도동 17-5,FD6,음식점,음식점 > 뷔페,그리츠,서울 영등포구 의사당대로 16
874,126.922893392096,37.524041344111,1149136625,서울 영등포구 여의도동 23-5,CE7,카페,음식점 > 카페,피그인더가든 여의도점,서울 영등포구 여의대로 56
875,126.931184615474,37.5225616141188,315801190,서울 영등포구 여의도동 32-1,FD6,음식점,"음식점 > 간식 > 제과,베이커리",브로트아트,서울 영등포구 국제금융로7길 3
876,126.93003531760188,37.52009759754027,23753282,서울 영등포구 여의도동 44-23,CE7,카페,음식점 > 카페,홍설,서울 영등포구 의사당대로1길 25
877,126.92875609514589,37.521114966002905,571492766,서울 영등포구 여의도동 34-8,CE7,카페,음식점 > 카페,카페꼼마&얀쿠브레 여의도신영증권점,서울 영등포구 국제금융로8길 16
878,126.924871957013,37.5251760799749,1775335207,서울 영등포구 여의도동 23,CE7,카페,음식점 > 카페 > 테마카페 > 디저트카페,노티드 여의도IFC,서울 영등포구 국제금융로 10
879,126.931833830013,37.5202013635502,1813648578,서울 영등포구 여의도동 43-4,CE7,카페,음식점 > 카페 > 테마카페 > 디저트카페,아이엠베이글 여의도점,서울 영등포구 국제금융로 86
880,126.926742851839,37.525416921802,1299056686,서울 영등포구 여의도동 23-1,CE7,카페,음식점 > 카페 > 테마카페 > 디저트카페,10G,서울 영등포구 국제금융로 10
881,126.92589701977262,37.525047884281086,153151026,서울 영등포구 여의도동 23,CE7,카페,음식점 > 카페,쓰리버즈 IFC점,서울 영등포구 국제금융로 10
882,126.92259370352316,37.52942373297061,12772378,서울 영등포구 여의도동 13-31,CE7,카페,음식점 > 카페 > 커피전문점,카페오가닉 여의도본점,서울 영등포구 은행로 37
883,126.923582027731,37.523227285602,27465313,서울 영등포구 여의도동 23-6,CE7,카페,음식점 > 카페 > 커피전문점 > 스타벅스,스타벅스 여의도역R점,서울 영등포구 의사당대로 83
884,126.92407296103768,37.5210219480172,8115422,서울 영등포구 여의도동 37,CE7,카페,음식점 > 카페 > 커피전문점 > 투썸플레이스,투썸플레이스 여의도점,서울 영등포구 의사당대로 108
885,126.9318349776066,37.52018334415509,1081918172,서울 영등포구 여의도동 43-4,CE7,카페,음식점 > 카페 > 커피전문점,서울커피 여의도점,서울 영등포구 국제금융로 86
886,126.92367344791626,37.524544610028336,18533636,서울 영등포구 여의도동 23-3,CE7,카페,음식점 > 카페 > 커피전문점 > 폴바셋,폴바셋 여의도점,서울 영등포구 여의대로 66
887,126.924751884379,37.525332777893,18691075,서울 영등포구 여의도동 23,CE7,카페,음식점 > 카페 > 커피전문점 > 스타벅스,스타벅스 여의도IFC점,서울 영등포구 국제금융로 10
888,126.92486265206249,37.52430210197908,1229801043,서울 영등포구 여의도동 23-10,CE7,카페,음식점 > 카페 > 테마카페 > 디저트카페,빌리엔젤 여의도삼성생명점,서울 영등포구 국제금융로2길 24
889,126.924490684817,37.5240856242203,8438452,서울 영등포구 여의도동 23-9,CE7,카페,음식점 > 카페 > 커피전문점 > 스타벅스,스타벅스 여의도점,서울 영등포구 국제금융로2길 28
890,126.924766318386,37.5289836462614,1935154986,서울 영등포구 여의도동 12,CE7,카페,음식점 > 카페 > 커피전문점 > 스타벅스,스타벅스 여의도공원R점,서울 영등포구 여의공원로 101
891,126.928298894842,37.5260413701091,1796590737,서울 영등포구 여의도동 22,CE7,카페,음식점 > 카페 > 커피전문점,블루보틀 여의도카페,서울 영등포구 여의대로 108
892,126.92383542474668,37.521003775023765,455118989,서울 영등포구 여의도동 37,CE7,카페,음식점 > 카페 > 테마카페 > 디저트카페,패트릭스와플 2호점,서울 영등포구 의사당대로 108
893,126.91815744129866,37.52657177493214,1066439025,서울 영등포구 여의도동 17-9,CE7,카페,음식점 > 카페 > 커피전문점 > 스타벅스,스타벅스 여의도KBS R점,서울 영등포구 의사당대로 26
894,126.931652436918,37.520640948106,26489322,서울 영등포구 여의도동 43-4,CE7,카페,음식점 > 카페 > 커피전문점 > 스타벅스,스타벅스 동여의도점,
895,126.92190286669492,37.52902863952744,1613737017,서울 영등포구 여의도동 13-25,CE7,카페,음식점 > 카페,커피기업,서울 영등포구 은행로 29
896,126.9259241119785,37.52510691691366,1248158651,서울 영등포구 여의도동 23-1,CE7,카페,음식점 > 카페,뉴오리진 IFC몰점,서울 영등포구 국제금융로 10
897,126.92195973676256,37.52982336036232,1560514191,서울 영등포구 여의도동 13-4,CE7,카페,음식점 > 카페,하우스카페,서울 영등포구 국회대로74길 19
898,126.929227272463,37.5204881513529,13046702,서울 영등포구 여의도동 44-22,CE7,카페,음식점 > 카페 > 커피전문점 > 스타벅스,스타벅스 여의도호성점,서울 영등포구 여의대방로65길 24
899,126.916780179853,37.5280160192324,1964855917,서울 영등포구 여의도동 17-3,CE7,카페,음식점 > 카페 > 커피전문점 > 스타벅스,스타벅스 국회의사당역,서울 영등포구 의사당대로 8
900,126.924170924353,37.52370429539568,228226874,서울 영등포구 여의도동 23-8,CE7,카페,음식점 > 카페 > 커피전문점 > 할리스,할리스 여의도파이낸스타워점,서울 영등포구 국제금융로2길 32
901,126.91971479437,37.53015162205412,17165638,서울 영등포구 여의도동 14-2,CE7,카페,음식점 > 카페 > 커피전문점 > 드롭탑,드롭탑 서여의도점,서울 영등포구 국회대로70길 7
902,126.922784805259,37.5240277581359,259982607,서울 영등포구 여의도동 23-5,CE7,카페,음식점 > 카페 > 커피전문점,커피앳웍스 여의도점,서울 영등포구 여의대로 56
903,126.92685787717645,37.52463222025718,19727050,서울 영등포구 여의도동 24,CE7,카페,음식점 > 카페 > 공차,공차 여의도점,서울 영등포구 국제금융로2길 7
904,126.91908287868053,37.52967996709372,21441549,서울 영등포구 여의도동 14-21,CE7,카페,음식점 > 카페 > 카페마마스,카페마마스 여의도점,서울 영등포구 국회대로 780
905,126.93088841723136,37.52603930981036,941523132,서울 영등포구 여의도동 21-4,CE7,카페,음식점 > 카페 > 커피전문점 > 이디야커피,이디야커피 여의나루역점,서울 영등포구 여의나루로 113
906,126.91935983486523,37.527785350373904,1662257701,서울 영등포구 여의도동 15-23,CE7,카페,음식점 > 카페 > 커피전문점 > 투썸플레이스,투썸플레이스 국회의사당역점,서울 영등포구 의사당대로 21
907,126.92689834626154,37.5237357480873,27578962,서울 영등포구 여의도동 25-5,CE7,카페,음식점 > 카페,올리버브라운 여의도점,서울 영등포구 여의나루로 71
908,126.919547238416,37.5302596281825,1775461798,서울 영등포구 여의도동 14,CE7,카페,음식점 > 카페 > 커피전문점 > 스타벅스,스타벅스 국회대로점,서울 영등포구 국회대로 786
909,126.92737230232856,37.52494338345716,17101558,서울 영등포구 여의도동 24-1,CE7,카페,음식점 > 카페 > 커피전문점 > 커피빈,커피빈 현대자동차여의도점,서울 영등포구 국제금융로 20
910,126.925869076824,37.52127536975,1945023864,서울 영등포구 여의도동 35-4,CE7,카페,음식점 > 카페 > 커피전문점 > 스타벅스,스타벅스 여의도화재보험점,서울 영등포구 국제금융로6길 38
911,126.931278962704,37.5183656988847,2029288865,서울 영등포구 여의도동 55-2,CE7,카페,음식점 > 카페 > 커피전문점 > 스타벅스,스타벅스 샛강역점,서울 영등포구 여의대방로 376
912,126.92560444354515,37.52576039296338,1778411786,서울 영등포구 여의도동 23,CE7,카페,음식점 > 카페 > 커피전문점 > 스타벅스,스타벅스 여의도IFC몰(L1)R점,서울 영등포구 국제금융로 10
913,126.926674745329,37.51987211033384,449313069,서울 영등포구 여의도동 36,CE7,카페,음식점 > 카페 > 커피전문점 > 일리카페,일리카페 여의도점,서울 영등포구 의사당대로 127
914,126.921036165805,37.5301957610022,12562041,서울 영등포구 여의도동 13-19,CE7,카페,음식점 > 카페 > 커피전문점 > 스타벅스,스타벅스 여의도의사당점,서울 영등포구 국회대로74길 12
915,126.9199503636642,37.52886064697709,651425908,서울 영등포구 여의도동 14-34,CE7,카페,음식점 > 카페 > 커피전문점 > 폴바셋,폴바셋 여의도국회대로점,서울 영등포구 국회대로68길 17
916,126.91866688399892,37.52519899992032,1358243365,서울 영등포구 여의도동 17,CE7,카페,음식점 > 카페 > 커피전문점,바이러닉 에스프레소 바 여의도점,서울 영등포구 의사당대로 38
917,126.92718961757056,37.52667319479574,1700802302,서울 영등포구 여의도동 22,CE7,카페,음식점 > 카페 > 커피전문점 > 투썸플레이스,투썸플레이스 여의도파크원점,서울 영등포구 여의대로 108
918,126.926747405145,37.5253880925607,549448978,서울 영등포구 여의도동 23-1,FD6,음식점,음식점 > 술집 > 와인바,버티고,서울 영등포구 국제금융로 10
919,126.929989505626,37.5207012422907,1225321192,서울 영등포구 여의도동 44-2,FD6,음식점,음식점 > 술집 > 와인바,라케이브,서울 영등포구 여의대방로67길 22
920,126.926267053171,37.5203412790166,76798371,서울 영등포구 여의도동 36,FD6,음식점,음식점 > 술집 > 와인바,도깨비굴,서울 영등포구 의사당대로 127
921,126.92797055094614,37.5263222829194,106811069,서울 영등포구 여의도동 22,FD6,음식점,음식점 > 술집 > 와인바,와인웍스 더현대서울점,서울 영등포구 여의대로 108
922,126.928802276884,37.520132900809,1600455009,서울 영등포구 여의도동 45-13,FD6,음식점,음식점 > 술집 > 와인바,에이베리,서울 영등포구 여의대방로65길 23
923,126.930929853175,37.5191340508818,676275826,서울 영등포구 여의도동 44,FD6,음식점,음식점 > 술집 > 와인바,비스트로베름,서울 영등포구 여의대방로 379
924,126.928802610764,37.5197815098822,2048978812,서울 영등포구 여의도동 45-14,FD6,음식점,음식점 > 술집 > 와인바,더휴일 여의도점,서울 영등포구 국제금융로8길 27-9
925,126.924966176754,37.5214640101556,974302007,서울 영등포구 여의도동 35-5,FD6,음식점,음식점 > 술집 > 와인바,비이지,서울 영등포구 여의나루로 42
926,126.92195473917585,37.53027656072007,10373832,서울 영등포구 여의도동 13-3,FD6,음식점,음식점 > 술집 > 와인바,양스앤메츠,서울 영등포구 국회대로76길 16
927,126.926406290154,37.5202404535392,1905570455,서울 영등포구 여의도동 36,FD6,음식점,음식점 > 술집 > 와인바,비노테카 여의도,서울 영등포구 의사당대로 127
928,126.931743340561,37.5201941032677,820450703,서울 영등포구 여의도동 43-4,FD6,음식점,음식점 > 술집 > 와인바,마꽁이네사랑방,서울 영등포구 국제금융로 86
929,126.920622646201,37.5286043153107,69525718,서울 영등포구 여의도동 14-35,FD6,음식점,음식점 > 술집 > 와인바,민식당,서울 영등포구 국회대로70길 22
930,126.930779701236,37.5200385699506,987363188,서울 영등포구 여의도동 44-11,FD6,음식점,음식점 > 술집 > 와인바,아르망디,서울 영등포구 의사당대로1길 34
931,126.92984530829,37.5200632467232,709558552,서울 영등포구 여의도동 44-23,FD6,음식점,음식점 > 술집 > 와인바,여의도물방울,서울 영등포구 의사당대로1길 25
932,126.929503550838,37.5202072036931,16013123,서울 영등포구 여의도동 44-24,FD6,음식점,음식점 > 술집 > 와인바,잠수함,서울 영등포구 여의대방로65길 20
933,126.929905800468,37.5206966876304,1067851533,서울 영등포구 여의도동 44-2,FD6,음식점,음식점 > 술집 > 와인바,헤바,서울 영등포구 여의대방로67길 22
934,126.92690122076183,37.52078947159273,26433073,서울 영등포구 여의도동 36-2,FD6,음식점,음식점 > 술집 > 와인바,어만두와인,서울 영등포구 국제금융로6길 33
935,126.9249706953148,37.52147032004461,2075021679,서울 영등포구 여의도동 35-5,FD6,음식점,음식점 > 술집 > 와인바,와인세상,서울 영등포구 여의나루로 42
936,126.94393691111,37.5393666235866,12027406,서울 마포구 용강동 51-8,FD6,음식점,음식점 > 술집 > 와인바,헤븐,서울 마포구 토정로 320
937,126.9436738822094,37.54006207037376,1602286097,서울 마포구 용강동 43-1,FD6,음식점,음식점 > 술집 > 와인바,퍼플문,서울 마포구 토정로35길 1
938,126.95375917295634,37.47919458101109,1153635092,서울 관악구 봉천동 1603-3,FD6,음식점,음식점 > 일식,킷사서울,서울 관악구 남부순환로226길 31
939,126.95645051298504,37.47824053376036,563659414,서울 관악구 봉천동 1619-1,FD6,음식점,"음식점 > 한식 > 육류,고기",고기굽는사람들 샤로수길본점,서울 관악구 관악로14길 70
940,126.95843584814,37.4781367317345,16586486,서울 관악구 봉천동 1620-38,FD6,음식점,음식점 > 한식 > 순대,기절초풍왕순대,서울 관악구 봉천로62길 2
941,126.954482892053,37.478953391547,1226967920,서울 관악구 봉천동 1603-19,FD6,음식점,음식점 > 일식,텐동요츠야,서울 관악구 관악로14길 35
942,126.953533145776,37.4790503308595,18508537,서울 관악구 봉천동 1598-6,FD6,음식점,음식점 > 양식 > 이탈리안,모힝,서울 관악구 남부순환로226길 36
943,126.9579543500428,37.4779167150772,71268832,서울 관악구 봉천동 1620-32,CE7,카페,음식점 > 카페,온고지신,서울 관악구 관악로14길 101
944,126.955790148807,37.4784313025077,1507921206,서울 관악구 봉천동 1613-2,FD6,음식점,"음식점 > 한식 > 육류,고기 > 삼겹살",백산식당,서울 관악구 관악로14길 60
945,126.953515031938,37.4790899681414,27388971,서울 관악구 봉천동 1598-6,FD6,음식점,음식점 > 양식,모즈타파스라운지,서울 관악구 남부순환로226길 36
946,126.95460727314033,37.47892460710011,960623897,서울 관악구 봉천동 1603-20,CE7,카페,음식점 > 카페 > 테마카페 > 디저트카페,황홀경,서울 관악구 관악로14길 37
947,126.954202559146,37.4788703903686,1884948997,서울 관악구 봉천동 1604-8,FD6,음식점,음식점 > 일식,동경산책 서울대입구점,서울 관악구 관악로14길 30
948,126.956590757608,37.4781468803909,47918669,서울 관악구 봉천동 1619-6,CE7,카페,음식점 > 카페,데일리오아시스 샤로수길점,서울 관악구 관악로14길 74-3
949,126.95500305654222,37.4787896070952,1306419391,서울 관악구 봉천동 1611-21,FD6,음식점,음식점 > 한식,안녕부산,서울 관악구 관악로14길 45
950,126.95726464912488,37.47801738069309,776342222,서울 관악구 봉천동 1621-9,FD6,음식점,"음식점 > 간식 > 제과,베이커리",라미스콘 샤로수점,서울 관악구 관악로14길 88
951,126.955613839455,37.4783303233591,22000100,서울 관악구 봉천동 1613-7,CE7,카페,음식점 > 카페 > 커피전문점,티라노커피,서울 관악구 남부순환로230길 39
952,126.956151885125,37.4785107261253,398840887,서울 관악구 봉천동 1612-30,FD6,음식점,"음식점 > 한식 > 육류,고기",정통집 샤로수길점,서울 관악구 관악로14길 65
953,126.95349685777887,37.47922691439354,924997751,서울 관악구 봉천동 1599-4,CE7,카페,음식점 > 카페 > 테마카페 > 디저트카페,오후의과일,서울 관악구 관악로14길 15
954,126.95427936155424,37.47899656141045,285870106,서울 관악구 봉천동 1603-15,FD6,음식점,"음식점 > 한식 > 해물,생선",어부사시가,서울 관악구 관악로14길 31
955,126.95722054683516,37.47803538492219,1449345481,서울 관악구 봉천동 1621-9,FD6,음식점,음식점 > 양식,낭만모로코,서울 관악구 관악로14길 88
956,126.9528434976094,37.47904104753772,1500944707,서울 관악구 봉천동 855-9,FD6,음식점,음식점 > 술집 > 일본식주점,이자카야 혼네,서울 관악구 관악로14길 6-4
957,126.9582370158749,37.4778717648524,600990627,서울 관악구 봉천동 1620-42,FD6,음식점,음식점 > 일식,오지편한식당,서울 관악구 관악로14길 105
958,126.956848638674,37.4779523568181,1070769122,서울 관악구 봉천동 1621-3,FD6,음식점,음식점 > 양식 > 피자,피자보이시나 서울대점,서울 관악구 남부순환로234길 31
959,126.95824164942454,37.477671742389575,27325940,서울 관악구 봉천동 1626-12,FD6,음식점,음식점 > 양식 > 햄버거,더멜팅팟,서울 관악구 관악로14길 106
960,126.952619723569,37.4789130147017,1138403559,서울 관악구 봉천동 1598-1,FD6,음식점,음식점 > 아시아음식 > 동남아음식 > 베트남음식,분짜하노이 서울대입구점,서울 관악구 관악로 154
961,126.95453273304474,37.47879573411246,498327338,서울 관악구 봉천동 1604-20,FD6,음식점,음식점 > 퓨전요리 > 퓨전일식,모다모다,서울 관악구 관악로14길 36
962,126.95377046767742,37.47921260561538,84785078,서울 관악구 봉천동 1603-4,FD6,음식점,"음식점 > 한식 > 육류,고기",정숙성,서울 관악구 남부순환로226길 31
963,126.958232610967,37.4776609270812,569989022,서울 관악구 봉천동 1626-12,FD6,음식점,"음식점 > 양식 > 멕시칸,브라질",퍼블리코타코,서울 관악구 관악로14길 106
964,126.956079619218,37.4783557256762,246370372,서울 관악구 봉천동 1613-4,CE7,카페,음식점 > 카페 > 커피전문점,커피볶는여자,서울 관악구 관악로14가길 2
965,126.952809411366,37.4793095346793,2074224653,서울 관악구 봉천동 856-6,CE7,카페,음식점 > 카페 > 커피전문점 > 스타벅스,스타벅스 관악서울대입구R점,서울 관악구 관악로 158
966,126.953768330852,37.479010778709,27178226,서울 관악구 봉천동 1604-1,FD6,음식점,음식점 > 양식,프랑스홍합집,서울 관악구 관악로14길 22
967,126.95529722102984,37.47842931502495,493709215,서울 관악구 봉천동 1610-6,FD6,음식점,"음식점 > 간식 > 제과,베이커리",메이드바이아린,서울 관악구 남부순환로230길 40-4
968,126.95742285046168,37.47815439123645,544275706,서울 관악구 봉천동 1620-22,FD6,음식점,음식점 > 퓨전요리,박명주브라더,서울 관악구 관악로14길 89
969,126.956753417953,37.4783920145899,25067887,서울 관악구 봉천동 1612-43,FD6,음식점,"음식점 > 한식 > 육류,고기 > 닭요리",도리도리하찌,서울 관악구 관악로14길 77
970,126.95300174493885,37.47909517114381,1223991903,서울 관악구 봉천동 855-3,FD6,음식점,음식점 > 양식 > 이탈리안,문득,서울 관악구 관악로14길 8
971,126.953469730498,37.4792160916031,24840775,서울 관악구 봉천동 1599-4,FD6,음식점,"음식점 > 한식 > 육류,고기",정박사정육식당 서울대입구점,서울 관악구 관악로14길 15
972,126.957590327074,37.4778841486406,948781290,서울 관악구 봉천동 1626-1,CE7,카페,음식점 > 카페,카페프레임,서울 관악구 관악로14길 94
973,126.953302262988,37.4794430798552,1162794104,서울 관악구 봉천동 854-8,FD6,음식점,"음식점 > 술집 > 호프,요리주점",조선펍에디,서울 관악구 남부순환로224길 31
974,126.9561530146439,37.47851252856311,1114713895,서울 관악구 봉천동 1612-30,FD6,음식점,음식점 > 양식 > 이탈리안,오늘그대와,서울 관악구 관악로14길 65
975,126.95383617615047,37.47899368605989,1211015576,서울 관악구 봉천동 1604-1,FD6,음식점,음식점 > 중식 > 중국요리,리춘시장 샤로수길지점,서울 관악구 관악로14길 22
976,126.956341980563,37.4782368896707,1719002931,서울 관악구 봉천동 1619-1,FD6,음식점,"음식점 > 술집 > 호프,요리주점",코젤다크하우스 샤로수길점,서울 관악구 관악로14길 70
977,126.95822808873,37.4776609254825,1141033777,서울 관악구 봉천동 1626-12,FD6,음식점,음식점 > 술집 > 와인바,하라고지페,서울 관악구 관악로14길 106
978,126.954175412085,37.478892004066,27455788,서울 관악구 봉천동 1604-8,FD6,음식점,음식점 > 술집 > 일본식주점,다이조부,서울 관악구 관악로14길 30
979,126.95823701487208,37.47787356687094,23009318,서울 관악구 봉천동 1620-42,FD6,음식점,음식점 > 한식 > 국수 > 칼국수,엄마손칼국수,서울 관악구 관악로14길 105
980,126.95699765473633,37.47813612696535,461426343,서울 관악구 봉천동 1621-2,CE7,카페,음식점 > 카페,나에게오는길,서울 관악구 관악로14길 82
981,126.95855815629,37.4777619547706,1434483987,서울 관악구 봉천동 1626-23,FD6,음식점,"음식점 > 한식 > 육류,고기 > 닭요리",친목,서울 관악구 봉천로62길 6
982,126.953401982824,37.4790755074634,278517151,서울 관악구 봉천동 1598-5,FD6,음식점,"음식점 > 술집 > 호프,요리주점",쑥고개,서울 관악구 관악로14길 16
983,126.952601584242,37.4789922962416,24891349,서울 관악구 봉천동 1598-1,CE7,카페,음식점 > 카페 > 테마카페 > 디저트카페 > 설빙,설빙 서울대입구역점,서울 관악구 관악로 154
984,126.95527000248,37.4785716641999,2064476251,서울 관악구 봉천동 1610-3,CE7,카페,음식점 > 카페 > 테마카페 > 디저트카페,듀레스트,서울 관악구 관악로14길 50
985,126.95731654388958,37.47821291849233,1075092010,서울 관악구 봉천동 1620-21,CE7,카페,음식점 > 카페,제일공간,서울 관악구 관악로14길 87
986,126.958066400138,37.477694205561,808993929,서울 관악구 봉천동 1626-10,CE7,카페,음식점 > 카페,멜로우스트리트,서울 관악구 관악로14길 104
987,126.95500335367817,37.47829405207477,1789067572,서울 관악구 봉천동 1610-14,CE7,카페,음식점 > 카페,슬리핑피쉬 샤로수점,서울 관악구 관악로12길 45-9
988,126.953980919573,37.4789459890319,993008176,서울 관악구 봉천동 1604-6,CE7,카페,음식점 > 카페 > 테마카페 > 디저트카페,아궁이빙수,서울 관악구 관악로14길 28
989,126.956346500738,37.4782404953783,878747106,서울 관악구 봉천동 1619-1,CE7,카페,음식점 > 카페,리멤버미,서울 관악구 관악로14길 70
990,126.956620285667,37.4779162328248,766484669,서울 관악구 봉천동 1619-9,CE7,카페,음식점 > 카페,핀프릭,서울 관악구 남부순환로234길 34
991,126.95331831314672,37.47908628654726,12658291,서울 관악구 봉천동 855-1,CE7,카페,음식점 > 카페 > 테마카페 > 북카페,세상과연애하기,서울 관악구 관악로14길 14
992,126.953767199717,37.4790116792756,633940021,서울 관악구 봉천동 1604-1,CE7,카페,음식점 > 카페,마인드멜드,서울 관악구 관악로14길 22
993,126.955116216547,37.4786184583666,1097804832,서울 관악구 봉천동 1610-2,CE7,카페,음식점 > 카페 > 커피전문점,보니또커피 샤로수점,서울 관악구 관악로14길 46
994,126.955275512507,37.4788113347627,2046368845,서울 관악구 봉천동 1611-36,CE7,카페,음식점 > 카페 > 전통찻집,모꼬지,서울 관악구 관악로16길 48-25
995,126.95724205015448,37.47799574829111,372108056,서울 관악구 봉천동 1621-9,CE7,카페,음식점 > 카페 > 테마카페 > 디저트카페,지민스통,서울 관악구 관악로14길 88
996,126.958056211504,37.4777185292004,1875203635,서울 관악구 봉천동 1626-10,CE7,카페,음식점 > 카페,멜로스윗,서울 관악구 관악로14길 104
997,126.955717654045,37.4786655377876,1914613603,서울 관악구 봉천동 1612-16,CE7,카페,음식점 > 카페 > 테마카페 > 디저트카페,베이킹팝,서울 관악구 남부순환로230길 31
998,126.955931569623,37.4782619655767,1459816213,서울 관악구 봉천동 1613-5,CE7,카페,음식점 > 카페,카페 팃빗,서울 관악구 관악로14가길 6
999,126.95547041862012,37.47805816455994,482399452,서울 관악구 봉천동 1613-14,CE7,카페,음식점 > 카페,소디스 에스프레소바 샤로수길,서울 관악구 남부순환로230길 45
1000,126.956726768485,37.4775522640476,802510891,서울 관악구 봉천동 1621-36,CE7,카페,음식점 > 카페,카페폴,서울 관악구 남부순환로234길 43
1001,126.956961343654,37.4785650843053,1850085124,서울 관악구 봉천동 1612-51,CE7,카페,음식점 > 카페,시트론오피스,서울 관악구 남부순환로234길 18
1002,126.95551138314644,37.479519617071865,262685533,서울 관악구 봉천동 1601-29,CE7,카페,음식점 > 카페 > 테마카페 > 디저트카페,프로젝트서울,서울 관악구 봉천로 518-4
1003,126.957245837339,37.479285995016,820394456,서울 관악구 봉천동 1664-16,CE7,카페,음식점 > 카페 > 테마카페 > 디저트카페,뉴욕택시디저트,서울 관악구 남부순환로 1870
1004,126.953755303585,37.4781349925471,1613419434,서울 관악구 봉천동 1604-34,CE7,카페,음식점 > 카페 > 테마카페 > 디저트카페,젠젠 서울대입구점,서울 관악구 관악로12길 23
1005,126.9579414739432,37.48071884918237,508064654,서울 관악구 봉천동 100-137,CE7,카페,음식점 > 카페,고로커피로스터스,서울 관악구 남부순환로231길 33
1006,126.956355679426,37.4780098403622,320042120,서울 관악구 봉천동 1619-36,CE7,카페,음식점 > 카페 > 테마카페 > 디저트카페,777카페,서울 관악구 관악로14길 74-8
1007,126.95301359796257,37.47822119682783,26949794,서울 관악구 봉천동 1598-31,CE7,카페,음식점 > 카페,반조,서울 관악구 관악로12길 11
1008,126.956012220215,37.47761326884,720713387,서울 관악구 봉천동 1619-22,CE7,카페,음식점 > 카페,미플레이스,서울 관악구 관악로12길 63
1009,126.95728746143736,37.47766419323804,833711012,서울 관악구 봉천동 1621-17,CE7,카페,음식점 > 카페 > 테마카페 > 디저트카페,옐로우버터드림,서울 관악구 관악로14나길 10
1010,126.955193289217,37.4782941242538,45176947,서울 관악구 봉천동 1610-31,CE7,카페,음식점 > 카페,씨크스페셜티커피,서울 관악구 관악로12길 45-12
1011,126.958078299256,37.4786555868126,307352260,서울 관악구 봉천동 1663-9,CE7,카페,음식점 > 카페,미라보,서울 관악구 봉천로 541
1012,126.95483399613,37.4779155635102,304552033,서울 관악구 봉천동 1610-19,CE7,카페,음식점 > 카페 > 테마카페 > 디저트카페,왓어원더,서울 관악구 관악로12길 43
1013,126.957472174658,37.4788968406994,456431314,서울 관악구 봉천동 1663-3,CE7,카페,음식점 > 카페 > 커피전문점,라우더 커피바,서울 관악구 봉천로 535
1014,126.957196245836,37.4790156742867,1115077829,서울 관악구 봉천동 1664-14,CE7,카페,음식점 > 카페,티룸 유메,서울 관악구 봉천로 533
1015,126.95178086482672,37.47886582286103,23980857,서울 관악구 봉천동 1569-3,CE7,카페,음식점 > 카페 > 테마카페 > 디저트카페,아띠,서울 관악구 쑥고개로 137
1016,126.955314661368,37.4776202151684,412519480,서울 관악구 봉천동 1614-1,CE7,카페,음식점 > 카페 > 테마카페 > 디저트카페,구슬케이크,서울 관악구 남부순환로230길 55
1017,126.95738751830116,37.480646569974375,1150937270,서울 관악구 봉천동 1671-35,CE7,카페,음식점 > 카페,행운당,서울 관악구 행운1길 40
1018,126.956937940113,37.4799454219198,1775992173,서울 관악구 봉천동 1673-21,CE7,카페,음식점 > 카페 > 커피전문점 > 메가MGC커피,메가MGC커피 서울대입구점,서울 관악구 남부순환로 1861
